"STATION","DATE","SOURCE","LATITUDE","LONGITUDE","ELEVATION","NAME","REPORT_TYPE","CALL_SIGN","QUALITY_CONTROL","WND","CIG","VIS","TMP","DEW","SLP","AA1","AA2","AB1","AD1","AE1","AH1","AH2","AH3","AH4","AH5","AH6","AI1","AI2","AI3","AI4","AI5","AI6","AT1","AT2","AT3","AU1","AW1","AX1","AX2","AX3","ED1","GA1","GA2","GA3","GD1","GD2","GD3","GE1","GF1","KA1","KA2","KB1","KB2","KB3","KC1","KC2","KD1","KD2","KE1","MA1","MD1","MG1","MH1","MK1","MW1","OC1","OE1","OE2","OE3","REM","EQD"
"72494523293","2022-01-01T00:53:00","7","37.35938","-121.92444","15.0","SAN JOSE, CA US","FM-15","KSJC ","V020","310,5,N,0051,5","22000,5,9,N","016093,5,N,5","+0100,5","+0033,5","10124,5","01,0000,9,5",,,,,,,,,,,,,,,,,,,,,,,,,,"02,5,+00975,5,99,9","04,5,+01524,5,99,9",,"1,99,1,+00975,5,9","2,99,1,+01524,5,9",,"9,AGL   ,+99999,+99999","04,99,5,99,9,99,9,00975,1,99,9,99,9",,,,,,,,,,,"10125,5,10107,5",,,,,,,,,,"MET10512/31/21 16:53:03 METAR KSJC 010053Z 31010KT 10SM FEW032 SCT050 10/03 A2990 RMK AO2 SLP124 T01000033 (JK)","D01      0ADE726"
"72494523293","2022-01-01T01:53:00","7","37.35938","-121.92444","15.0","SAN JOSE, CA US","FM-15","KSJC ","V020","310,5,N,0031,5","22000,5,9,N","016093,5,N,5","+0089,5","+0044,5","10129,5","01,0000,9,5",,,,,,,,,,,,,,,,,,,,,,,,,,"02,5,+00975,5,99,9","04,5,+01524,5,99,9",,"1,99,1,+00975,5,9","2,99,1,+01524,5,9",,"9,AGL   ,+99999,+99999","04,99,5,99,9,99,9,00975,1,99,9,99,9",,,,,,,,,,,"10129,5,10111,5",,,,,,,,,,"MET10512/31/21 17:53:03 METAR KSJC 010153Z 31006KT 10SM FEW032 SCT050 09/04 A2991 RMK AO2 SLP129 T00890044 (JK)","D01      0ADE726"
"72494523293","2022-01-01T02:53:00","7","37.35938","-121.92444","15.0","SAN JOSE, CA US","FM-15","KSJC ","V020","300,5,N,0041,5","22000,5,9,N","016093,5,N,5","+0083,5","+0044,5","10138,5","01,0000,9,5",,,,,,,,,,,,,,,,,,,,,,,,,,"00,5,+99999,9,99,9",,,"0,99,1,+99999,9,9",,,,"00,99,1,99,9,99,9,99999,9,99,9,99,9",,,,,,,,,,,"10139,5,10121,5","3,9,017,9,+999,9",,,,,,,,,"MET10112/31/21 18:53:03 METAR KSJC 010253Z 30008KT 10SM CLR 08/04 A2994 RMK AO2 SLP138 T00830044 53017 (JK)",
"72494523293","2022-01-01T03:53:00","7","37.35938","-121.92444","15.0","SAN JOSE, CA US","FM-15","KSJC ","V020","290,5,N,0041,5","22000,5,9,N","016093,5,N,5","+0083,5","+0044,5","10145,5","01,0000,9,5",,,,,,,,,,,,,,,,,,,,,,,,,,"00,5,+99999,9,99,9",,,"0,99,1,+99999,9,9",,,,"00,99,1,99,9,99,9,99999,9,99,9,99,9",,,,,,,,,,,"10146,5,10128,5",,,,,,,,,,"MET09512/31/21 19:53:03 METAR KSJC 010353Z 29008KT 10SM CLR 08/04 A2996 RMK AO2 SLP145 T00830044 (KW)",
"72494523293","2022-01-01T04:53:00","7","37.35938","-121.92444","15.0","SAN JOSE, CA US","FM-15","KSJC ","V020","999,9,V,0015,5","22000,5,9,N","016093,5,N,5","+0067,5","+0033,5","10153,5","01,0000,9,5",,,,,,,,,,,,,,,,,,,,,,,,,,"00,5,+99999,9,99,9",,,"0,99,1,+99999,9,9",,,,"00,99,1,99,9,99,9,99999,9,99,9,99,9",,,,,,,,,,,"10152,5,10134,5",,,,,,,,,,"MET09512/31/21 20:53:03 METAR KSJC 010453Z VRB03KT 10SM CLR 07/03 A2998 RMK AO2 SLP153 T00670033 (KW)",
"72494523293","2022-01-01T05:53:00","7","37.35938","-121.92444","15.0","SAN JOSE, CA US","FM-15","KSJC ","V020","999,9,C,0000,5","22000,5,9,N","016093,5,N,5","+0078,5","+0039,5","10163,5","01,0000,9,5",,,,,,,,,,,,,,,,,,,,,,,,,,"02,5,+00610,5,99,9",,,"1,99,1,+00610,5,9",,,"9,AGL   ,+99999,+99999","02,99,5,99,9,99,9,00610,1,99,9,99,9","060,M,+0111,1","060,N,+0067,1",,,,,,,,,"10166,5,10148,5","3,9,025,9,+999,9",,,,,,,,,"MET12612/31/21 21:53:03 METAR KSJC 010553Z 00000KT 10SM FEW020 08/04 A3002 RMK AO2 SLP163 FU FEW020 T00780039 10111 20067 53025 (KW)","D01      0ADE726"
"72494523293","2022-01-01T06:53:00","7","37.35938","-121.92444","15.0","SAN JOSE, CA US","FM-15","KSJC ","V020","220,5,N,0015,5","22000,5,9,N","016093,5,N,5","+0061,5","+0028,5","10172,5","01,0000,9,5",,,,,,,,,,,,,,,,,,,,,,,,,,"00,5,+99999,9,99,9",,,"0,99,1,+99999,9,9",,,,"00,99,1,99,9,99,9,99999,9,99,9,99,9",,,,,,,,,,,"10173,5,10155,5",,,,,,,,,,"MET09512/31/21 22:53:03 METAR KSJC 010653Z 22003KT 10SM CLR 06/03 A3004 RMK AO2 SLP172 T00610028 (KW)",
"72494523293","2022-01-01T07:53:00","7","37.35938","-121.92444","15.0","SAN JOSE, CA US","FM-15","KSJC ","V020","140,5,N,0015,5","22000,5,9,N","016093,5,N,5","+0050,5","+0028,5","10178,5","01,0000,9,5",,,,,,,,,,,,,,,,,,,,,,,,,,"00,5,+99999,9,99,9",,,"0,99,1,+99999,9,9",,,,"00,99,1,99,9,99,9,99999,9,99,9,99,9","240,M,+0117,1","240,N,+0028,1",,,,,,,,,"10179,5,10161,5",,,,,,,,,,"MET11012/31/21 23:53:03 METAR KSJC 010753Z 14003KT 10SM CLR 05/03 A3006 RMK AO2 SLP178 LAST T00500028 401170028 (KW)",
"72494523293","2022-01-01T07:59:00","6","37.35938","-121.92444","15.0","SAN JOSE, CA US","SOD  ","KSJC ","V020","999,9,9,9999,9","99999,9,9,9","999999,9,9,9","+9999,9","+9999,9","99999,9","24,0000,9,5",,,,,,,,,,,,,,,,,,,,,,,,,,,,,,,,,,"240,M,+0117,5","240,N,+0028,5",,,,,,,,,,,"10115,4,10112,4",,,,,"1,24,01028,340,9999,5","2,24,00805,330,9999,5","3,24,00286,999,9999,5","SOD69224 HR PRECIPITATION (IN): 0.00 24 HR MAX TEMP (F): 5324 HR MIN TEMP (F): 37AVERAGE STATION PRESSURE:29.870 MINIMUM SEA LEVEL PRESSURE:29.86 TIME OF OCCURRENCE:0630 PEAK WIND SPEED (MPH): 23 PEAK WIND DIR (DEG):340 PEAK WIND TIME (LST):      FASTEST 2MIN SPEED (MPH): 18FASTEST 2MIN DIR (DEG):330 FASTEST 2MIN TIME (LST):     AVERAGE WIND SPEED (MPH): 6.4 24 HR AVG TEMP (F): 45DEPART FROM NORMAL: -5  HEATING DEGREE DAYS: 20 COOLING DEGREE DAYS:  0 LATEST DAY MAX TEMP (0700-1900 LST):53  LATEST NIGHT MIN TEMP(1900-0800 LST):37 HOURLY INCREMENTAL PRECIPITATION VALUES (IN):.00 0.00 0.00 0.00 0.00 0.00 0.00 0.00 0.00 0.00 0.00 0.00 0.00 0.00 0.00 0.00 0.00 0.00 0.00 0.00 0.00 0.00 0.00 0.00",
"72494523293","2022-01-01T07:59:00","6","37.35938","-121.92444","15.0","SAN JOSE, CA US","SOM  ","KSJC ","V020","999,9,9,9999,9","99999,9,9,9","999999,9,9,9","+9999,9","+9999,9","99999,9",,,"00714,9,6","00193,9,1314,9999,9999,6","13,5,09,5,02,5,00,6","005,0010,9,230846,5","010,0018,9,131058,5","015,0020,9,131058,5","020,0023,9,240316,5","030,0033,9,240313,5","045,0043,9,240330,5","060,0053,9,240347,5","080,0069,9,240347,5","100,0081,9,240347,5","120,0089,9,240400,5","150,0107,9,240440,5","180,0112,9,240440,5",,,,,,,,,,,,,,,,,,,,"744,N,+0589,5","744,M,+1422,5","744,A,+1006,5","N,9,+0000,199999,5","M,9,+0238,019999,5","744,H,0454,5","744,C,0000,5","00,5,00,5,01,5,00,5",,,,"10530,4,99999,4","10264,171028,5,10044,131730,5",,,,,,"SOM794PCP MTOT:2.81 PCP GT 24HRS:0.76 DATE(S):13-14 DAYS W/PCP >=.01:13 DAYS W/PCP >=.10:9  DAYS W/ PCP >=.50:2 DAYS W/PCP >=1.00:0 MSDP AMTS W/DATE-TIME TAGS:MIN:5 0.04  23/0846 MIN:10 0.07  13/1058 MIN:15 0.08  13/1058 MIN:20 0.09  24/0316 MIN:30 0.13  24/0313 MIN:45 0.17  24/0330 MIN:60 0.21  24/0347 MIN:80 0.27  24/0347 MIN:100 0.32  24/0347 MIN:120 0.35  24/0400 MIN:150 0.42  24/0440 MIN:180 0.44  24/0440 AVG DLY MIN:42.6  AVG DLY MAX:57.6  AVG MLY TMP:50.1  MIN TMP:32 DATE(S):19 MAX TMP:75  DATE(S):01 DAYS MAX <=32:0 DAYS MAX >=90:0  DAYS MIN <=32:1  DAYS MIN  <=0:0  AVG STP:31.095 LWST SLP:29.66 DATE/TIME:131730 HGST SLP:30.31 DATE/TIME:171028 HDD MTH TOT:454 DEP NORM:-2553 SEASON(JUL 1-JUN 30):724 DEP NORM:-25536 CDD MTH TOT:0 DEP NORM:-2553 SEASON(JAN 1-DEC 31):635 DEP NORM:-25536","R01  2.817ABP070R02  0.767ADP081R03     07AE4109"
"72494523293","2022-01-01T08:53:00","7","37.35938","-121.92444","15.0","SAN JOSE, CA US","FM-15","KSJC ","V020","080,5,N,0021,5","22000,5,9,N","008047,5,N,5","+0039,5","+0022,5","10182,5","01,0000,9,5",,,,,,,,,,,,,,,,,,,,"0,0,00,1,0,1,5","10,5",,,,,"00,5,+99999,9,99,9",,,"0,99,1,+99999,9,9",,,,"00,99,1,99,9,99,9,99999,9,99,9,99,9",,,,,,,,,,,"10183,5,10165,5","1,9,019,9,+999,9",,,,,,,,,"MET09801/01/22 00:53:02 METAR KSJC 010853Z 08004KT 5SM BR CLR 04/02 A3007 RMK AO2 SLP182 T00390022 51019",
"72494523293","2022-01-01T09:53:00","7","37.35938","-121.92444","15.0","SAN JOSE, CA US","FM-15","KSJC ","V020","999,9,C,0000,5","22000,5,9,N","006437,5,N,5","+0039,5","+0011,5","10186,5","01,0000,9,5",,,,,,,,,,,,,,,,,,,,"0,0,00,7,0,1,5","05,1",,,,,"00,5,+99999,9,99,9",,,"0,99,1,+99999,9,9",,,,"00,99,1,99,9,99,9,99999,9,99,9,99,9",,,,,,,,,,,"10186,5,10168,5",,,,,"05,5",,,,,"MET09201/01/22 01:53:02 METAR KSJC 010953Z 00000KT 4SM HZ CLR 04/01 A3008 RMK AO2 SLP186 T00390011",
"72494523293","2022-01-01T10:53:00","7","37.35938","-121.92444","15.0","SAN JOSE, CA US","FM-15","KSJC ","V020","999,9,C,0000,5","22000,5,9,N","004828,5,N,5","+0033,5","+0011,5","10187,5","01,0000,9,5",,,,,,,,,,,,,,,,,,,,"0,0,00,1,0,1,5","10,5",,,,,"00,5,+99999,9,99,9",,,"0,99,1,+99999,9,9",,,,"00,99,1,99,9,99,9,99999,9,99,9,99,9",,,,,,,,,,,"10190,5,10172,5",,,,,,,,,,"MET09201/01/22 02:53:02 METAR KSJC 011053Z 00000KT 3SM BR CLR 03/01 A3009 RMK AO2 SLP187 T00330011",
"72494523293","2022-01-01T11:53:00","7","37.35938","-121.92444","15.0","SAN JOSE, CA US","FM-15","KSJC ","V020","240,5,N,0021,5","22000,5,9,N","011265,5,N,5","+0033,5","+0011,5","10186,5","01,0000,9,5",,,,,,,,,,,,,,,,,,,,,,,,,,"00,5,+99999,9,99,9",,,"0,99,1,+99999,9,9",,,,"00,99,1,99,9,99,9,99999,9,99,9,99,9","060,M,+0078,1","060,N,+0022,1",,,,,,,,,"10186,5,10168,5","0,9,004,9,+999,9",,,,,,,,,"MET10701/01/22 03:53:02 METAR KSJC 011153Z 24004KT 7SM CLR 03/01 A3008 RMK AO2 SLP186 T00330011 10078 20022 50004",
"72494523293","2022-01-01T12:53:00","7","37.35938","-121.92444","15.0","SAN JOSE, CA US","FM-15","KSJC ","V020","070,5,N,0015,5","22000,5,9,N","016093,5,N,5","+0028,5","+0011,5","10193,5","01,0000,9,5",,,,,,,,,,,,,,,,,,,,,,,,,,"00,5,+99999,9,99,9",,,"0,99,1,+99999,9,9",,,,"00,99,1,99,9,99,9,99999,9,99,9,99,9",,,,,,,,,,,"10193,5,10175,5",,,,,,,,,,"MET09001/01/22 04:53:02 METAR KSJC 011253Z 07003KT 10SM CLR 03/01 A3010 RMK AO2 SLP193 T00280011",
"72494523293","2022-01-01T13:53:00","7","37.35938","-121.92444","15.0","SAN JOSE, CA US","FM-15","KSJC ","V020","120,5,N,0015,5","22000,5,9,N","009656,5,N,5","+0022,5","+0006,5","10205,5","01,0000,9,5",,,,,,,,,,,,,,,,,,,,"0,0,00,1,0,1,5","10,5",,,,,"00,5,+99999,9,99,9",,,"0,99,1,+99999,9,9",,,,"00,99,1,99,9,99,9,99999,9,99,9,99,9",,,,,,,,,,,"10207,5,10188,5",,,,,,,,,,"MET09701/01/22 05:53:02 METAR KSJC 011353Z 12003KT 6SM BR CLR 02/01 A3014 RMK AO2 SLP205 T00220006 (DR)",
"72494523293","2022-01-01T14:53:00","7","37.35938","-121.92444","15.0","SAN JOSE, CA US","FM-15","KSJC ","V020","999,9,C,0000,5","22000,5,9,N","008047,5,N,5","+0022,5","+0000,5","10216,5","01,0000,9,5",,,,,,,,,,,,,,,,,,,,"0,0,00,1,0,1,5","10,5",,,,,"02,5,+02438,5,99,9","04,5,+05486,5,99,9",,"1,99,1,+02438,5,9","2,99,1,+05486,5,9",,"9,AGL   ,+99999,+99999","04,99,5,99,9,99,9,02438,1,99,9,99,9",,,,,,,,,,,"10217,5,10199,5","3,9,030,9,+999,9",,,,,,,,,"MET11301/01/22 06:53:02 METAR KSJC 011453Z 00000KT 5SM BR FEW080 SCT180 02/00 A3017 RMK AO2 SLP216 T00220000 53030 (DR)","D01      0ADE726"
"72494523293","2022-01-01T15:53:00","7","37.35938","-121.92444","15.0","SAN JOSE, CA US","FM-15","KSJC ","V020","160,5,N,0015,5","22000,5,9,N","011265,5,N,5","+0017,5","+0006,5","10225,5","01,0000,9,5",,,,,,,,,,,,,,,,,,,,,,,,,,"02,5,+02438,5,99,9","04,5,+06096,5,99,9",,"1,99,1,+02438,5,9","2,99,1,+06096,5,9",,"9,AGL   ,+99999,+99999","04,99,5,99,9,99,9,02438,1,99,9,99,9",,,,,,,,,,,"10227,5,10209,5",,,,,,,,,,"MET10401/01/22 07:53:02 METAR KSJC 011553Z 16003KT 7SM FEW080 SCT200 02/01 A3020 RMK AO2 SLP225 T00170006 (DR)","D01      0ADE726"
"72494523293","2022-01-01T16:53:00","7","37.35938","-121.92444","15.0","SAN JOSE, CA US","FM-15","KSJC ","V020","999,9,C,0000,5","22000,5,9,N","016093,5,N,5","+0039,5","+0022,5","10232,5","01,0000,9,5",,,,,,,,,,,,,,,,,,,,,,,,,,"02,5,+02438,5,99,9","04,5,+06096,5,99,9",,"1,99,1,+02438,5,9","2,99,1,+06096,5,9",,"9,AGL   ,+99999,+99999","04,99,5,99,9,99,9,02438,1,99,9,99,9",,,,,,,,,,,"10234,5,10216,5",,,,,,,,,,"MET10501/01/22 08:53:02 METAR KSJC 011653Z 00000KT 10SM FEW080 SCT200 04/02 A3022 RMK AO2 SLP232 T00390022 (DR)","D01      0ADE726"
"72494523293","2022-01-01T17:53:00","7","37.35938","-121.92444","15.0","SAN JOSE, CA US","FM-15","KSJC ","V020","999,9,C,0000,5","22000,5,9,N","016093,5,N,5","+0067,5","+0033,5","10240,5","01,0000,9,5",,,,,,,,,,,,,,,,,,,,,,,,,,"02,5,+02591,5,99,9","02,5,+05486,5,99,9",,"1,99,1,+02591,5,9","1,99,1,+05486,5,9",,"9,AGL   ,+99999,+99999","02,99,5,99,9,99,9,02591,1,99,9,99,9","060,M,+0072,1","060,N,+0006,1",,,,,,,,,"10240,5,10222,5","1,9,023,9,+999,9",,,,,,,,,"MET12301/01/22 09:53:02 METAR KSJC 011753Z 00000KT 10SM FEW085 FEW180 07/03 A3024 RMK AO2 SLP240 T00670033 10072 20006 51023 (DR)","D01      0ADE726"
"72494523293","2022-01-01T18:53:00","7","37.35938","-121.92444","15.0","SAN JOSE, CA US","FM-15","KSJC ","V020","999,9,C,0000,5","22000,5,9,N","016093,5,N,5","+0089,5","+0017,5","10239,5","01,0000,9,5",,,,,,,,,,,,,,,,,,,,,,,,,,"02,5,+02591,5,99,9","02,5,+05486,5,99,9",,"1,99,1,+02591,5,9","1,99,1,+05486,5,9",,"9,AGL   ,+99999,+99999","02,99,5,99,9,99,9,02591,1,99,9,99,9",,,,,,,,,,,"10240,5,10222,5",,,,,,,,,,"MET10501/01/22 10:53:02 METAR KSJC 011853Z 00000KT 10SM FEW085 FEW180 09/02 A3024 RMK AO2 SLP239 T00890017 (DR)","D01      0ADE726"
"72494523293","2022-01-01T19:53:00","7","37.35938","-121.92444","15.0","SAN JOSE, CA US","FM-15","KSJC ","V020","999,9,V,0015,5","22000,5,9,N","016093,5,N,5","+0106,5","-0006,5","10231,5","01,0000,9,5",,,,,,,,,,,,,,,,,,,,,,,,,,"02,5,+02743,5,99,9","02,5,+05486,5,99,9",,"1,99,1,+02743,5,9","1,99,1,+05486,5,9",,"9,AGL   ,+99999,+99999","02,99,5,99,9,99,9,02743,1,99,9,99,9",,,,,,,,,,,"10234,5,10216,5",,,,,,,,,,"MET10601/01/22 11:53:02 METAR KSJC 011953Z VRB03KT 10SM FEW090 FEW180 11/M01 A3022 RMK AO2 SLP231 T01061006 (DR)","D01      0ADE726"
"72494523293","2022-01-01T20:53:00","7","37.35938","-121.92444","15.0","SAN JOSE, CA US","FM-15","KSJC ","V020","999,9,C,0000,5","22000,5,9,N","016093,5,N,5","+0111,5","-0022,5","10222,5","01,0000,9,5",,,,,,,,,,,,,,,,,,,,,,,,,,"02,5,+03048,5,99,9","02,5,+06096,5,99,9",,"1,99,1,+03048,5,9","1,99,1,+06096,5,9",,"9,AGL   ,+99999,+99999","02,99,5,99,9,99,9,03048,1,99,9,99,9",,,,,,,,,,,"10224,5,10205,5","8,9,017,9,+999,9",,,,,,,,,"MET11201/01/22 12:53:02 METAR KSJC 012053Z 00000KT 10SM FEW100 FEW200 11/M02 A3019 RMK AO2 SLP222 T01111022 58017 (DR)","D01      0ADE726"
"72494523293","2022-01-01T21:53:00","7","37.35938","-121.92444","15.0","SAN JOSE, CA US","FM-15","KSJC ","V020","999,9,C,0000,5","22000,5,9,N","016093,5,N,5","+0122,5","-0039,5","10218,5","01,0000,9,5",,,,,,,,,,,,,,,,,,,,,,,,,,"02,5,+03048,5,99,9","02,5,+06096,5,99,9",,"1,99,1,+03048,5,9","1,99,1,+06096,5,9",,"9,AGL   ,+99999,+99999","02,99,5,99,9,99,9,03048,1,99,9,99,9",,,,,,,,,,,"10220,5,10202,5",,,,,,,,,,"MET10601/01/22 13:53:02 METAR KSJC 012153Z 00000KT 10SM FEW100 FEW200 12/M04 A3018 RMK AO2 SLP218 T01221039 (CN)","D01      0ADE726"
"72494523293","2022-01-01T22:53:00","7","37.35938","-121.92444","15.0","SAN JOSE, CA US","FM-15","KSJC ","V020","310,5,N,0021,5","22000,5,9,N","016093,5,N,5","+0128,5","-0028,5","10222,5","01,0000,9,5",,,,,,,,,,,,,,,,,,,,,,,,,,"02,5,+03048,5,99,9","02,5,+05486,5,99,9",,"1,99,1,+03048,5,9","1,99,1,+05486,5,9",,"9,AGL   ,+99999,+99999","02,99,5,99,9,99,9,03048,1,99,9,99,9",,,,,,,,,,,"10224,5,10205,5",,,,,,,,,,"MET10601/01/22 14:53:02 METAR KSJC 012253Z 31004KT 10SM FEW100 FEW180 13/M03 A3019 RMK AO2 SLP222 T01281028 (CN)","D01      0ADE726"
"72494523293","2022-01-01T23:53:00","7","37.35938","-121.92444","15.0","SAN JOSE, CA US","FM-15","KSJC ","V020","999,9,C,0000,5","22000,5,9,N","016093,5,N,5","+0122,5","-0044,5","10224,5","01,0000,9,5",,,,,,,,,,,,,,,,,,,,,,,,,,"02,5,+03048,5,99,9","02,5,+05486,5,99,9",,"1,99,1,+03048,5,9","1,99,1,+05486,5,9",,"9,AGL   ,+99999,+99999","02,99,5,99,9,99,9,03048,1,99,9,99,9","060,M,+0133,1","060,N,+0072,1",,,,,,,,,"10224,5,10205,5","3,9,001,9,+999,9",,,,,,,,,"MET12401/01/22 15:53:02 METAR KSJC 012353Z 00000KT 10SM FEW100 FEW180 12/M04 A3019 RMK AO2 SLP224 T01221044 10133 20072 53001 (CN)","D01      0ADE726"
"72494523293","2022-01-02T00:53:00","7","37.35938","-121.92444","15.0","SAN JOSE, CA US","FM-15","KSJC ","V020","240,5,N,0026,5","22000,5,9,N","016093,5,N,5","+0106,5","-0028,5","10225,5","01,0000,9,5",,,,,,,,,,,,,,,,,,,,,,,,,,"02,5,+03048,5,99,9","04,5,+05486,5,99,9",,"1,99,1,+03048,5,9","2,99,1,+05486,5,9",,"9,AGL   ,+99999,+99999","04,99,5,99,9,99,9,03048,1,99,9,99,9",,,,,,,,,,,"10227,5,10209,5",,,,,,,,,,"MET10101/01/22 16:53:01 METAR KSJC 020053Z 24005KT 10SM FEW100 SCT180 11/M03 A3020 RMK AO2 SLP225 T01061028","D01      0ADE726"
"72494523293","2022-01-02T01:53:00","7","37.35938","-121.92444","15.0","SAN JOSE, CA US","FM-15","KSJC ","V020","250,5,N,0026,5","22000,5,9,N","016093,5,N,5","+0083,5","-0017,5","10230,5","01,0000,9,5",,,,,,,,,,,,,,,,,,,,,,,,,,"02,5,+03048,5,99,9","02,5,+05486,5,99,9",,"1,99,1,+03048,5,9","1,99,1,+05486,5,9",,"9,AGL   ,+99999,+99999","02,99,5,99,9,99,9,03048,1,99,9,99,9",,,,,,,,,,,"10230,5,10212,5",,,,,,,,,,"MET10101/01/22 17:53:01 METAR KSJC 020153Z 25005KT 10SM FEW100 FEW180 08/M02 A3021 RMK AO2 SLP230 T00831017","D01      0ADE726"
"72494523293","2022-01-02T02:53:00","7","37.35938","-121.92444","15.0","SAN JOSE, CA US","FM-15","KSJC ","V020","999,9,C,0000,5","22000,5,9,N","016093,5,N,5","+0067,5","-0017,5","10236,5","01,0000,9,5",,,,,,,,,,,,,,,,,,,,,,,,,,"02,5,+03048,5,99,9",,,"1,99,1,+03048,5,9",,,"9,AGL   ,+99999,+99999","02,99,5,99,9,99,9,03048,1,99,9,99,9",,,,,,,,,,,"10237,5,10219,5","3,9,012,9,+999,9",,,,,,,,,"MET10001/01/22 18:53:01 METAR KSJC 020253Z 00000KT 10SM FEW100 07/M02 A3023 RMK AO2 SLP236 T00671017 53012","D01      0ADE726"
"72494523293","2022-01-02T03:53:00","7","37.35938","-121.92444","15.0","SAN JOSE, CA US","FM-15","KSJC ","V020","160,5,N,0026,5","22000,5,9,N","016093,5,N,5","+0061,5","-0017,5","10245,5","01,0000,9,5",,,,,,,,,,,,,,,,,,,,,,,,,,"02,5,+07620,5,99,9",,,"1,99,1,+07620,5,9",,,"9,AGL   ,+99999,+99999","02,99,5,99,9,99,9,07620,1,99,9,99,9",,,,,,,,,,,"10247,5,10229,5",,,,,,,,,,"MET09401/01/22 19:53:01 METAR KSJC 020353Z 16005KT 10SM FEW250 06/M02 A3026 RMK AO2 SLP245 T00611017","D01      0ADE726"
"72494523293","2022-01-02T04:53:00","7","37.35938","-121.92444","15.0","SAN JOSE, CA US","FM-15","KSJC ","V020","180,5,N,0015,5","22000,5,9,N","016093,5,N,5","+0050,5","-0011,5","10250,5","01,0000,9,5",,,,,,,,,,,,,,,,,,,,,,,,,,"02,5,+07620,5,99,9",,,"1,99,1,+07620,5,9",,,"9,AGL   ,+99999,+99999","02,99,5,99,9,99,9,07620,1,99,9,99,9",,,,,,,,,,,"10251,5,10232,5",,,,,,,,,,"MET09401/01/22 20:53:02 METAR KSJC 020453Z 18003KT 10SM FEW250 05/M01 A3027 RMK AO2 SLP250 T00501011","D01      0ADE726"
"72494523293","2022-01-02T05:53:00","7","37.35938","-121.92444","15.0","SAN JOSE, CA US","FM-15","KSJC ","V020","180,5,N,0021,5","22000,5,9,N","016093,5,N,5","+0044,5","-0011,5","10255,5","01,0000,9,5",,,,,,,,,,,,,,,,,,,,,,,,,,"00,5,+99999,9,99,9",,,"0,99,1,+99999,9,9",,,,"00,99,1,99,9,99,9,99999,9,99,9,99,9","060,M,+0122,1","060,N,+0033,1",,,,,,,,,"10257,5,10239,5","1,9,019,9,+999,9",,,,,,,,,"MET10901/01/22 21:53:02 METAR KSJC 020553Z 18004KT 10SM CLR 04/M01 A3029 RMK AO2 SLP255 T00441011 10122 20033 51019",
"72494523293","2022-01-02T06:53:00","7","37.35938","-121.92444","15.0","SAN JOSE, CA US","FM-15","KSJC ","V020","999,9,C,0000,5","22000,5,9,N","016093,5,N,5","+0039,5","-0006,5","10256,5","01,0000,9,5",,,,,,,,,,,,,,,,,,,,,,,,,,"02,5,+00610,5,99,9",,,"1,99,1,+00610,5,9",,,"9,AGL   ,+99999,+99999","02,99,5,99,9,99,9,00610,1,99,9,99,9",,,,,,,,,,,"10257,5,10239,5",,,,,,,,,,"MET09401/01/22 22:53:02 METAR KSJC 020653Z 00000KT 10SM FEW020 04/M01 A3029 RMK AO2 SLP256 T00391006","D01      0ADE726"
"72494523293","2022-01-02T07:53:00","7","37.35938","-121.92444","15.0","SAN JOSE, CA US","FM-15","KSJC ","V020","160,5,N,0015,5","22000,5,9,N","016093,5,N,5","+0033,5","-0011,5","10256,5","01,0000,9,5",,,,,,,,,,,,,,,,,,,,,,,,,,"02,5,+00518,5,99,9",,,"1,99,1,+00518,5,9",,,"9,AGL   ,+99999,+99999","02,99,5,99,9,99,9,00518,1,99,9,99,9","240,M,+0133,1","240,N,+0006,1",,,,,,,,,"10257,5,10239,5",,,,,,,,,,"MET10901/01/22 23:53:02 METAR KSJC 020753Z 16003KT 10SM FEW017 03/M01 A3029 RMK AO2 SLP256 LAST T00331011 401330006","D01      0ADE726"
"72494523293","2022-01-02T07:59:00","6","37.35938","-121.92444","15.0","SAN JOSE, CA US","SOD  ","KSJC ","V020","999,9,9,9999,9","99999,9,9,9","999999,9,9,9","+9999,9","+9999,9","99999,9","24,0000,9,5",,,,,,,,,,,,,,,,,"AU,13,BR  ,5","AU,08,HZ  ,5",,,,"01,5,24,5","08,5,24,5",,,,,,,,,,,"240,M,+0133,5","240,N,+0006,5",,,,,,,,,,,"10207,4,10179,4",,,,,"1,24,00536,270,9999,5","2,24,00402,290,9999,5","3,24,00103,999,9999,5","SOD71024 HR PRECIPITATION (IN): 0.00 WEATHER(CODE):18  24 HR MAX TEMP (F): 5624 HR MIN TEMP (F): 33AVERAGE STATION PRESSURE:30.140 MINIMUM SEA LEVEL PRESSURE:30.06 TIME OF OCCURRENCE:0044 PEAK WIND SPEED (MPH): 12 PEAK WIND DIR (DEG):270 PEAK WIND TIME (LST):      FASTEST 2MIN SPEED (MPH):  9FASTEST 2MIN DIR (DEG):290 FASTEST 2MIN TIME (LST):     AVERAGE WIND SPEED (MPH): 2.3 24 HR AVG TEMP (F): 45DEPART FROM NORMAL: -5  HEATING DEGREE DAYS: 20 COOLING DEGREE DAYS:  0 LATEST DAY MAX TEMP (0700-1900 LST):56  LATEST NIGHT MIN TEMP(1900-0800 LST):33 HOURLY INCREMENTAL PRECIPITATION VALUES (IN):.00 0.00 0.00 0.00 0.00 0.00 0.00 0.00 0.00 0.00 0.00 0.00 0.00 0.00 0.00 0.00 0.00 0.00 0.00 0.00 0.00 0.00 0.00 0.00",
"72494523293","2022-01-02T08:53:00","7","37.35938","-121.92444","15.0","SAN JOSE, CA US","FM-15","KSJC ","V020","130,5,N,0021,5","22000,5,9,N","016093,5,N,5","+0011,5","-0017,5","10255,5","01,0000,9,5",,,,,,,,,,,,,,,,,,,,,,,,,,"00,5,+99999,9,99,9",,,"0,99,1,+99999,9,9",,,,"00,99,1,99,9,99,9,99999,9,99,9,99,9",,,,,,,,,,,"10257,5,10239,5","0,9,000,9,+999,9",,,,,,,,,"MET09701/02/22 00:53:02 METAR KSJC 020853Z 13004KT 10SM CLR 01/M02 A3029 RMK AO2 SLP255 T00111017 50000",
"72494523293","2022-01-02T09:53:00","7","37.35938","-121.92444","15.0","SAN JOSE, CA US","FM-15","KSJC ","V020","170,5,N,0021,5","22000,5,9,N","016093,5,N,5","+0022,5","-0011,5","10254,5","01,0000,9,5",,,,,,,,,,,,,,,,,,,,,,,,,,"00,5,+99999,9,99,9",,,"0,99,1,+99999,9,9",,,,"00,99,1,99,9,99,9,99999,9,99,9,99,9",,,,,,,,,,,"10254,5,10236,5",,,,,,,,,,"MET09101/02/22 01:53:02 METAR KSJC 020953Z 17004KT 10SM CLR 02/M01 A3028 RMK AO2 SLP254 T00221011",
"72494523293","2022-01-02T10:53:00","7","37.35938","-121.92444","15.0","SAN JOSE, CA US","FM-15","KSJC ","V020","999,9,C,0000,5","22000,5,9,N","016093,5,N,5","+0022,5","-0011,5","10256,5","01,0000,9,5",,,,,,,,,,,,,,,,,,,,,,,,,,"00,5,+99999,9,99,9",,,"0,99,1,+99999,9,9",,,,"00,99,1,99,9,99,9,99999,9,99,9,99,9",,,,,,,,,,,"10257,5,10239,5",,,,,,,,,,"MET09101/02/22 02:53:02 METAR KSJC 021053Z 00000KT 10SM CLR 02/M01 A3029 RMK AO2 SLP256 T00221011",
"72494523293","2022-01-02T11:53:00","7","37.35938","-121.92444","15.0","SAN JOSE, CA US","FM-15","KSJC ","V020","999,9,C,0000,5","22000,5,9,N","016093,5,N,5","+0022,5","-0011,5","10253,5","01,0000,9,5",,,,,,,,,,,,,,,,,,,,,,,,,,"00,5,+99999,9,99,9",,,"0,99,1,+99999,9,9",,,,"00,99,1,99,9,99,9,99999,9,99,9,99,9","060,M,+0050,1","060,N,+0011,1",,,,,,,,,"10254,5,10236,5","8,9,002,9,+999,9",,,,,,,,,"MET10901/02/22 03:53:02 METAR KSJC 021153Z 00000KT 10SM CLR 02/M01 A3028 RMK AO2 SLP253 T00221011 10050 20011 58002",
"72494523293","2022-01-02T12:53:00","7","37.35938","-121.92444","15.0","SAN JOSE, CA US","FM-15","KSJC ","V020","999,9,C,0000,5","22000,5,9,N","016093,5,N,5","+0011,5","-0017,5","10249,5","01,0000,9,5",,,,,,,,,,,,,,,,,,,,,,,,,,"00,5,+99999,9,99,9",,,"0,99,1,+99999,9,9",,,,"00,99,1,99,9,99,9,99999,9,99,9,99,9",,,,,,,,,,,"10251,5,10232,5",,,,,,,,,,"MET09101/02/22 04:53:02 METAR KSJC 021253Z 00000KT 10SM CLR 01/M02 A3027 RMK AO2 SLP249 T00111017",
"72494523293","2022-01-02T13:53:00","7","37.35938","-121.92444","15.0","SAN JOSE, CA US","FM-15","KSJC ","V020","999,9,C,0000,5","22000,5,9,N","016093,5,N,5","+0011,5","-0017,5","10252,5","01,0000,9,5",,,,,,,,,,,,,,,,,,,,,,,,,,"02,5,+00152,5,99,9",,,"1,99,1,+00152,5,9",,,"9,AGL   ,+99999,+99999","02,99,5,99,9,99,9,00152,1,99,9,99,9",,,,,,,,,,,"10254,5,10236,5",,,,,,,,,,"MET09901/02/22 05:53:02 METAR KSJC 021353Z 00000KT 10SM FEW005 01/M02 A3028 RMK AO2 SLP252 T00111017 (DR)","D01      0ADE726"
"72494523293","2022-01-02T14:53:00","7","37.35938","-121.92444","15.0","SAN JOSE, CA US","FM-15","KSJC ","V020","999,9,C,0000,5","22000,5,9,N","016093,5,N,5","+0011,5","-0022,5","10258,5","01,0000,9,5",,,,,,,,,,,,,,,,,,,,,,,,,,"02,5,+01829,5,99,9",,,"1,99,1,+01829,5,9",,,"9,AGL   ,+99999,+99999","02,99,5,99,9,99,9,01829,1,99,9,99,9",,,,,,,,,,,"10261,5,10243,5","3,9,005,9,+999,9",,,,,,,,,"MET10501/02/22 06:53:02 METAR KSJC 021453Z 00000KT 10SM FEW060 01/M02 A3030 RMK AO2 SLP258 T00111022 53005 (DR)","D01      0ADE726"
"72494523293","2022-01-02T15:53:00","7","37.35938","-121.92444","15.0","SAN JOSE, CA US","FM-15","KSJC ","V020","150,5,N,0015,5","22000,5,9,N","016093,5,N,5","+0006,5","-0011,5","10261,5","01,0000,9,5",,,,,,,,,,,,,,,,,,,,,,,,,,"02,5,+01829,5,99,9","02,5,+03658,5,99,9",,"1,99,1,+01829,5,9","1,99,1,+03658,5,9",,"9,AGL   ,+99999,+99999","02,99,5,99,9,99,9,01829,1,99,9,99,9",,,,,,,,,,,"10261,5,10243,5",,,,,,,,,,"MET10601/02/22 07:53:02 METAR KSJC 021553Z 15003KT 10SM FEW060 FEW120 01/M01 A3030 RMK AO2 SLP261 T00061011 (DR)","D01      0ADE726"
"72494523293","2022-01-02T16:53:00","7","37.35938","-121.92444","15.0","SAN JOSE, CA US","FM-15","KSJC ","V020","999,9,C,0000,5","22000,5,9,N","016093,5,N,5","+0039,5","+0006,5","10266,5","01,0000,9,5",,,,,,,,,,,,,,,,,,,,,,,,,,"02,5,+02134,5,99,9","02,5,+03658,5,99,9","02,5,+06096,5,99,9","1,99,1,+02134,5,9","1,99,1,+03658,5,9","1,99,1,+06096,5,9","9,AGL   ,+99999,+99999","02,99,5,99,9,99,9,02134,1,99,9,99,9",,,,,,,,,,,"10268,5,10249,5",,,,,,,,,,"MET11201/02/22 08:53:02 METAR KSJC 021653Z 00000KT 10SM FEW070 FEW120 FEW200 04/01 A3032 RMK AO2 SLP266 T00390006 (DR)","D01      0ADE726"
"72494523293","2022-01-02T17:53:00","7","37.35938","-121.92444","15.0","SAN JOSE, CA US","FM-15","KSJC ","V020","999,9,C,0000,5","22000,5,9,N","016093,5,N,5","+0067,5","+0006,5","10267,5","01,0000,9,5",,,,,,,,,,,,,,,,,,,,,,,,,,"02,5,+00366,5,99,9","02,5,+03658,5,99,9","02,5,+06096,5,99,9","1,99,1,+00366,5,9","1,99,1,+03658,5,9","1,99,1,+06096,5,9","9,AGL   ,+99999,+99999","02,99,5,99,9,99,9,00366,1,99,9,99,9","060,M,+0067,1","060,N,+0000,1",,,,,,,,,"10268,5,10249,5","1,9,009,9,+999,9",,,,,,,,,"MET13001/02/22 09:53:02 METAR KSJC 021753Z 00000KT 10SM FEW012 FEW120 FEW200 07/01 A3032 RMK AO2 SLP267 T00670006 10067 20000 51009 (DR)","D01      0ADE726"
"72494523293","2022-01-02T18:53:00","7","37.35938","-121.92444","15.0","SAN JOSE, CA US","FM-15","KSJC ","V020","999,9,C,0000,5","22000,5,9,N","016093,5,N,5","+0083,5","+0011,5","10260,5","01,0000,9,5",,,,,,,,,,,,,,,,,,,,,,,,,,"02,5,+00396,5,99,9","02,5,+02134,5,99,9","02,5,+06096,5,99,9","1,99,1,+00396,5,9","1,99,1,+02134,5,9","1,99,1,+06096,5,9","9,AGL   ,+99999,+99999","02,99,5,99,9,99,9,00396,1,99,9,99,9",,,,,,,,,,,"10261,5,10243,5",,,,,,,,,,"MET11201/02/22 10:53:02 METAR KSJC 021853Z 00000KT 10SM FEW013 FEW070 FEW200 08/01 A3030 RMK AO2 SLP260 T00830011 (DR)","D01      0ADE726"
"72494523293","2022-01-02T19:53:00","7","37.35938","-121.92444","15.0","SAN JOSE, CA US","FM-15","KSJC ","V020","140,5,N,0021,5","22000,5,9,N","016093,5,N,5","+0111,5","+0006,5","10246,5","01,0000,9,5",,,,,,,,,,,,,,,,,,,,,,,,,,"02,5,+00457,5,99,9","02,5,+02286,5,99,9","02,5,+06096,5,99,9","1,99,1,+00457,5,9","1,99,1,+02286,5,9","1,99,1,+06096,5,9","9,AGL   ,+99999,+99999","02,99,5,99,9,99,9,00457,1,99,9,99,9",,,,,,,,,,,"10247,5,10229,5",,,,,,,,,,"MET11201/02/22 11:53:02 METAR KSJC 021953Z 14004KT 10SM FEW015 FEW075 FEW200 11/01 A3026 RMK AO2 SLP246 T01110006 (DR)","D01      0ADE726"
"72494523293","2022-01-02T20:53:00","7","37.35938","-121.92444","15.0","SAN JOSE, CA US","FM-15","KSJC ","V020","140,5,N,0021,5","22000,5,9,N","016093,5,N,5","+0144,5","+0000,5","10234,5","01,0000,9,5",,,,,,,,,,,,,,,,,,,,,,,,,,"02,5,+00488,5,99,9","02,5,+02286,5,99,9","02,5,+06096,5,99,9","1,99,1,+00488,5,9","1,99,1,+02286,5,9","1,99,1,+06096,5,9","9,AGL   ,+99999,+99999","02,99,5,99,9,99,9,00488,1,99,9,99,9",,,,,,,,,,,"10237,5,10219,5","8,9,033,9,+999,9",,,,,,,,,"MET11801/02/22 12:53:02 METAR KSJC 022053Z 14004KT 10SM FEW016 FEW075 FEW200 14/00 A3023 RMK AO2 SLP234 T01440000 58033 (DR)","D01      0ADE726"
"72494523293","2022-01-02T21:53:00","7","37.35938","-121.92444","15.0","SAN JOSE, CA US","FM-15","KSJC ","V020","130,5,N,0031,5","22000,5,9,N","016093,5,N,5","+0156,5","+0017,5","10226,5","01,0000,9,5",,,,,,,,,,,,,,,,,,,,,,,,,,"02,5,+00488,5,99,9","02,5,+02286,5,99,9","02,5,+06096,5,99,9","1,99,1,+00488,5,9","1,99,1,+02286,5,9","1,99,1,+06096,5,9","9,AGL   ,+99999,+99999","02,99,5,99,9,99,9,00488,1,99,9,99,9",,,,,,,,,,,"10227,5,10209,5",,,,,,,,,,"MET11201/02/22 13:53:02 METAR KSJC 022153Z 13006KT 10SM FEW016 FEW075 FEW200 16/02 A3020 RMK AO2 SLP226 T01560017 (CN)","D01      0ADE726"
"72494523293","2022-01-02T22:53:00","7","37.35938","-121.92444","15.0","SAN JOSE, CA US","FM-15","KSJC ","V020","220,5,N,0041,5","22000,5,9,N","016093,5,N,5","+0156,5","+0017,5","10224,5","01,0000,9,5",,,,,,,,,,,,,,,,,,,,,,,,,,"02,5,+00488,5,99,9","02,5,+02438,5,99,9","02,5,+06096,5,99,9","1,99,1,+00488,5,9","1,99,1,+02438,5,9","1,99,1,+06096,5,9","9,AGL   ,+99999,+99999","02,99,5,99,9,99,9,00488,1,99,9,99,9",,,,,,,,,,,"10227,5,10209,5",,,,,,,,,,"MET11201/02/22 14:53:02 METAR KSJC 022253Z 22008KT 10SM FEW016 FEW080 FEW200 16/02 A3020 RMK AO2 SLP224 T01560017 (CN)","D01      0ADE726"
"72494523293","2022-01-02T23:53:00","7","37.35938","-121.92444","15.0","SAN JOSE, CA US","FM-15","KSJC ","V020","330,5,N,0041,5","22000,5,9,N","016093,5,N,5","+0117,5","+0033,5","10230,5","01,0000,9,5",,,,,,,,,,,,,,,,,,,,,,,,,,"02,5,+00762,5,99,9","02,5,+02438,5,99,9","02,5,+06096,5,99,9","1,99,1,+00762,5,9","1,99,1,+02438,5,9","1,99,1,+06096,5,9","9,AGL   ,+99999,+99999","02,99,5,99,9,99,9,00762,1,99,9,99,9","060,M,+0156,1","060,N,+0067,1",,,,,,,,,"10230,5,10212,5","5,9,004,9,+999,9",,,,,,,,,"MET13001/02/22 15:53:02 METAR KSJC 022353Z 33008KT 10SM FEW025 FEW080 FEW200 12/03 A3021 RMK AO2 SLP230 T01170033 10156 20067 55004 (CN)","D01      0ADE726"
"72494523293","2022-01-03T00:53:00","7","37.35938","-121.92444","15.0","SAN JOSE, CA US","FM-15","KSJC ","V020","330,5,N,0026,5","22000,5,9,N","016093,5,N,5","+0089,5","+0033,5","10231,5","01,0000,9,5",,,,,,,,,,,,,,,,,,,,,,,,,,"02,5,+00853,5,99,9","02,5,+02438,5,99,9","04,5,+06096,5,99,9","1,99,1,+00853,5,9","1,99,1,+02438,5,9","2,99,1,+06096,5,9","9,AGL   ,+99999,+99999","04,99,5,99,9,99,9,00853,1,99,9,99,9",,,,,,,,,,,"10234,5,10216,5",,,,,,,,,,"MET10701/02/22 16:53:01 METAR KSJC 030053Z 33005KT 10SM FEW028 FEW080 SCT200 09/03 A3022 RMK AO2 SLP231 T00890033","D01      0ADE726"
"72494523293","2022-01-03T01:53:00","7","37.35938","-121.92444","15.0","SAN JOSE, CA US","FM-15","KSJC ","V020","180,5,N,0021,5","22000,5,9,N","016093,5,N,5","+0094,5","+0033,5","10226,5","01,0000,9,5",,,,,,,,,,,,,,,,,,,,,,,,,,"02,5,+00853,5,99,9","02,5,+02438,5,99,9","04,5,+06096,5,99,9","1,99,1,+00853,5,9","1,99,1,+02438,5,9","2,99,1,+06096,5,9","9,AGL   ,+99999,+99999","04,99,5,99,9,99,9,00853,1,99,9,99,9",,,,,,,,,,,"10227,5,10209,5",,,,,,,,,,"MET10701/02/22 17:53:01 METAR KSJC 030153Z 18004KT 10SM FEW028 FEW080 SCT200 09/03 A3020 RMK AO2 SLP226 T00940033","D01      0ADE726"
"72494523293","2022-01-03T02:53:00","7","37.35938","-121.92444","15.0","SAN JOSE, CA US","FM-15","KSJC ","V020","999,9,C,0000,5","22000,5,9,N","016093,5,N,5","+0089,5","+0028,5","10224,5","01,0000,9,5",,,,,,,,,,,,,,,,,,,,,,,,,,"02,5,+00853,5,99,9","02,5,+02438,5,99,9",,"1,99,1,+00853,5,9","1,99,1,+02438,5,9",,"9,AGL   ,+99999,+99999","02,99,5,99,9,99,9,00853,1,99,9,99,9",,,,,,,,,,,"10224,5,10205,5","8,9,006,9,+999,9",,,,,,,,,"MET10601/02/22 18:53:01 METAR KSJC 030253Z 00000KT 10SM FEW028 FEW080 09/03 A3019 RMK AO2 SLP224 T00890028 58006","D01      0ADE726"
"72494523293","2022-01-03T03:53:00","7","37.35938","-121.92444","15.0","SAN JOSE, CA US","FM-15","KSJC ","V020","999,9,C,0000,5","22000,5,9,N","016093,5,N,5","+0083,5","+0033,5","10225,5","01,0000,9,5",,,,,,,,,,,,,,,,,,,,,,,,,,"02,5,+00853,5,99,9","02,5,+02438,5,99,9",,"1,99,1,+00853,5,9","1,99,1,+02438,5,9",,"9,AGL   ,+99999,+99999","02,99,5,99,9,99,9,00853,1,99,9,99,9",,,,,,,,,,,"10227,5,10209,5",,,,,,,,,,"MET10001/02/22 19:53:01 METAR KSJC 030353Z 00000KT 10SM FEW028 FEW080 08/03 A3020 RMK AO2 SLP225 T00830033","D01      0ADE726"
"72494523293","2022-01-03T04:53:00","7","37.35938","-121.92444","15.0","SAN JOSE, CA US","FM-15","KSJC ","V020","130,5,N,0015,5","22000,5,9,N","016093,5,N,5","+0083,5","+0033,5","10226,5","01,0000,9,5",,,,,,,,,,,,,,,,,,,,,,,,,,"02,5,+00853,5,99,9","02,5,+02438,5,99,9",,"1,99,1,+00853,5,9","1,99,1,+02438,5,9",,"9,AGL   ,+99999,+99999","02,99,5,99,9,99,9,00853,1,99,9,99,9",,,,,,,,,,,"10227,5,10209,5",,,,,,,,,,"MET10001/02/22 20:53:02 METAR KSJC 030453Z 13003KT 10SM FEW028 FEW080 08/03 A3020 RMK AO2 SLP226 T00830033","D01      0ADE726"
"72494523293","2022-01-03T05:53:00","7","37.35938","-121.92444","15.0","SAN JOSE, CA US","FM-15","KSJC ","V020","150,5,N,0026,5","22000,5,9,N","016093,5,N,5","+0072,5","+0033,5","10227,5","01,0000,9,5",,,,,,,,,,,,,,,,,,,,,,,,,,"02,5,+01311,5,99,9","02,5,+02438,5,99,9",,"1,99,1,+01311,5,9","1,99,1,+02438,5,9",,"9,AGL   ,+99999,+99999","02,99,5,99,9,99,9,01311,1,99,9,99,9","060,M,+0117,1","060,N,+0067,1",,,,,,,,,"10227,5,10209,5","3,9,003,9,+999,9",,,,,,,,,"MET11801/02/22 21:53:02 METAR KSJC 030553Z 15005KT 10SM FEW043 FEW080 07/03 A3020 RMK AO2 SLP227 T00720033 10117 20067 53003","D01      0ADE726"
"72494523293","2022-01-03T06:53:00","7","37.35938","-121.92444","15.0","SAN JOSE, CA US","FM-15","KSJC ","V020","170,5,N,0015,5","01250,5,M,N","016093,5,N,5","+0083,5","+0044,5","10233,5","01,0000,9,5",,,,,,,,,,,,,,,,,,,,,,,,,,"07,5,+01250,5,99,9","07,5,+02438,5,99,9",,"3,99,1,+01250,5,9","3,99,1,+02438,5,9",,"9,AGL   ,+99999,+99999","99,99,9,99,9,99,9,01250,1,99,9,99,9",,,,,,,,,,,"10234,5,10216,5",,,,,,,,,,"MET10001/02/22 22:53:02 METAR KSJC 030653Z 17003KT 10SM BKN041 BKN080 08/04 A3022 RMK AO2 SLP233 T00830044",
"72494523293","2022-01-03T07:53:00","7","37.35938","-121.92444","15.0","SAN JOSE, CA US","FM-15","KSJC ","V020","150,5,N,0031,5","01067,5,M,N","016093,5,N,5","+0089,5","+0050,5","10237,5","01,0000,9,5",,,,,,,,,,,,,,,,,,,,,,,,,,"07,5,+01067,5,99,9",,,"3,99,1,+01067,5,9",,,"9,AGL   ,+99999,+99999","99,99,9,99,9,99,9,01067,1,99,9,99,9","240,M,+0156,1","240,N,+0000,1",,,,,,,,,"10237,5,10219,5",,,,,,,,,,"MET10801/02/22 23:53:02 METAR KSJC 030753Z 15006KT 10SM BKN035 09/05 A3023 RMK AO2 SLP237 LAST T00890050 401560000",
"72494523293","2022-01-03T07:59:00","6","37.35938","-121.92444","15.0","SAN JOSE, CA US","SOD  ","KSJC ","V020","999,9,9,9999,9","99999,9,9,9","999999,9,9,9","+9999,9","+9999,9","99999,9","24,0000,9,5",,,,,,,,,,,,,,,,,,,,,,,,,,,,,,,,,,"240,M,+0156,5","240,N,+0000,5",,,,,,,,,,,"10225,4,10224,4",,,,,"1,24,00849,220,9999,5","2,24,00626,310,9999,5","3,24,00143,999,9999,5","SOD69224 HR PRECIPITATION (IN): 0.00 24 HR MAX TEMP (F): 6024 HR MIN TEMP (F): 32AVERAGE STATION PRESSURE:30.195 MINIMUM SEA LEVEL PRESSURE:30.19 TIME OF OCCURRENCE:2105 PEAK WIND SPEED (MPH): 19 PEAK WIND DIR (DEG):220 PEAK WIND TIME (LST):      FASTEST 2MIN SPEED (MPH): 14FASTEST 2MIN DIR (DEG):310 FASTEST 2MIN TIME (LST):     AVERAGE WIND SPEED (MPH): 3.2 24 HR AVG TEMP (F): 46DEPART FROM NORMAL: -4  HEATING DEGREE DAYS: 19 COOLING DEGREE DAYS:  0 LATEST DAY MAX TEMP (0700-1900 LST):60  LATEST NIGHT MIN TEMP(1900-0800 LST):32 HOURLY INCREMENTAL PRECIPITATION VALUES (IN):.00 0.00 0.00 0.00 0.00 0.00 0.00 0.00 0.00 0.00 0.00 0.00 0.00 0.00 0.00 0.00 0.00 0.00 0.00 0.00 0.00 0.00 0.00 0.00",
"72494523293","2022-01-03T08:53:00","7","37.35938","-121.92444","15.0","SAN JOSE, CA US","FM-15","KSJC ","V020","140,5,N,0041,5","01311,5,M,N","016093,5,N,5","+0089,5","+0050,5","10233,5","01,0000,9,5",,,,,,,,,,,,,,,,,,,,,,,,,,"08,5,+01311,5,99,9",,,"4,99,1,+01311,5,9",,,"9,AGL   ,+99999,+99999","99,99,9,99,9,99,9,01311,1,99,9,99,9",,,,,,,,,,,"10234,5,10216,5","0,9,005,9,+999,9",,,,,,,,,"MET09901/03/22 00:53:02 METAR KSJC 030853Z 14008KT 10SM OVC043 09/05 A3022 RMK AO2 SLP233 T00890050 50005",
"72494523293","2022-01-03T09:53:00","7","37.35938","-121.92444","15.0","SAN JOSE, CA US","FM-15","KSJC ","V020","140,5,N,0031,5","01341,5,M,N","016093,5,N,5","+0072,5","+0044,5","10228,5","01,0000,9,5",,,,,,,,,,,,,,,,,,,,,,,,,,"07,5,+01341,5,99,9",,,"3,99,1,+01341,5,9",,,"9,AGL   ,+99999,+99999","99,99,9,99,9,99,9,01341,1,99,9,99,9",,,,,,,,,,,"10230,5,10212,5",,,,,,,,,,"MET09301/03/22 01:53:02 METAR KSJC 030953Z 14006KT 10SM BKN044 07/04 A3021 RMK AO2 SLP228 T00720044",
"72494523293","2022-01-03T10:53:00","7","37.35938","-121.92444","15.0","SAN JOSE, CA US","FM-15","KSJC ","V020","160,5,N,0021,5","01341,5,M,N","016093,5,N,5","+0078,5","+0044,5","10230,5","01,0000,9,5",,,,,,,,,,,,,,,,,,,,,,,,,,"07,5,+01341,5,99,9",,,"3,99,1,+01341,5,9",,,"9,AGL   ,+99999,+99999","99,99,9,99,9,99,9,01341,1,99,9,99,9",,,,,,,,,,,"10230,5,10212,5",,,,,,,,,,"MET09301/03/22 02:53:02 METAR KSJC 031053Z 16004KT 10SM BKN044 08/04 A3021 RMK AO2 SLP230 T00780044",
"72494523293","2022-01-03T11:53:00","7","37.35938","-121.92444","15.0","SAN JOSE, CA US","FM-15","KSJC ","V020","150,5,N,0021,5","01158,5,M,N","016093,5,N,5","+0078,5","+0044,5","10228,5","01,0000,9,5",,,,,,,,,,,,,,,,,,,,,,,,,,"08,5,+01158,5,99,9",,,"4,99,1,+01158,5,9",,,"9,AGL   ,+99999,+99999","99,99,9,99,9,99,9,01158,1,99,9,99,9","060,M,+0089,1","060,N,+0067,1",,,,,,,,,"10230,5,10212,5","6,9,004,9,+999,9",,,,,,,,,"MET11101/03/22 03:53:02 METAR KSJC 031153Z 15004KT 10SM OVC038 08/04 A3021 RMK AO2 SLP228 T00780044 10089 20067 56004",
"72494523293","2022-01-03T12:53:00","7","37.35938","-121.92444","15.0","SAN JOSE, CA US","FM-15","KSJC ","V020","140,5,N,0036,5","01158,5,M,N","016093,5,N,5","+0072,5","+0044,5","10225,5","01,0000,9,5",,,,,,,,,,,,,,,,,,,,,,,,,,"07,5,+01158,5,99,9",,,"3,99,1,+01158,5,9",,,"9,AGL   ,+99999,+99999","99,99,9,99,9,99,9,01158,1,99,9,99,9",,,,,,,,,,,"10227,5,10209,5",,,,,,,,,,"MET09301/03/22 04:53:02 METAR KSJC 031253Z 14007KT 10SM BKN038 07/04 A3020 RMK AO2 SLP225 T00720044",
"72494523293","2022-01-03T13:53:00","7","37.35938","-121.92444","15.0","SAN JOSE, CA US","FM-15","KSJC ","V020","150,5,N,0041,5","22000,5,9,N","016093,5,N,5","+0072,5","+0044,5","10224,5","01,0000,9,5",,,,,,,,,,,,,,,,,,,,,,,,,,"02,5,+01067,5,99,9",,,"1,99,1,+01067,5,9",,,"9,AGL   ,+99999,+99999","02,99,5,99,9,99,9,01067,1,99,9,99,9",,,,,,,,,,,"10227,5,10209,5",,,,,,,,,,"MET09801/03/22 05:53:02 METAR KSJC 031353Z 15008KT 10SM FEW035 07/04 A3020 RMK AO2 SLP224 T00720044 (TC)","D01      0ADE726"
"72494523293","2022-01-03T14:53:00","7","37.35938","-121.92444","15.0","SAN JOSE, CA US","FM-15","KSJC ","V020","150,5,N,0031,5","03048,5,M,N","016093,5,N,5","+0072,5","+0039,5","10226,5","01,0000,9,5",,,,,,,,,,,,,,,,,,,,,,,,,,"02,5,+00853,5,99,9","04,5,+01067,5,99,9","07,5,+03048,5,99,9","1,99,1,+00853,5,9","2,99,1,+01067,5,9","3,99,1,+03048,5,9","9,AGL   ,+99999,+99999","99,99,9,99,9,99,9,00853,1,99,9,99,9",,,,,,,,,,,"10227,5,10209,5","5,9,002,9,+999,9",,,,,,,,,"MET11801/03/22 06:53:02 METAR KSJC 031453Z 15006KT 10SM FEW028 SCT035 BKN100 07/04 A3020 RMK AO2 SLP226 T00720039 55002 (TC)",
"72494523293","2022-01-03T15:53:00","7","37.35938","-121.92444","15.0","SAN JOSE, CA US","FM-15","KSJC ","V020","130,5,N,0036,5","04572,5,M,N","016093,5,N,5","+0067,5","+0044,5","10229,5","01,0000,9,5",,,,,,,,,,,,,,,,,,,,,,,,,,"02,5,+00823,5,99,9","04,5,+02134,5,99,9","07,5,+04572,5,99,9","1,99,1,+00823,5,9","2,99,1,+02134,5,9","3,99,1,+04572,5,9","9,AGL   ,+99999,+99999","99,99,9,99,9,99,9,00823,1,99,9,99,9",,,,,,,,,,,"10230,5,10212,5",,,,,,,,,,"MET11201/03/22 07:53:02 METAR KSJC 031553Z 13007KT 10SM FEW027 SCT070 BKN150 07/04 A3021 RMK AO2 SLP229 T00670044 (TC)",
"72494523293","2022-01-03T16:53:00","7","37.35938","-121.92444","15.0","SAN JOSE, CA US","FM-15","KSJC ","V020","160,5,N,0036,5","01280,5,M,N","016093,5,N,5","+0089,5","+0056,5","10235,5","01,0000,9,5",,,,,,,,,,,,,,,,,,,,,,,,,,"02,5,+00823,5,99,9","07,5,+01280,5,99,9","07,5,+03658,5,99,9","1,99,1,+00823,5,9","3,99,1,+01280,5,9","3,99,1,+03658,5,9","9,AGL   ,+99999,+99999","99,99,9,99,9,99,9,00823,1,99,9,99,9",,,,,,,,,,,"10237,5,10219,5",,,,,,,,,,"MET11201/03/22 08:53:02 METAR KSJC 031653Z 16007KT 10SM FEW027 BKN042 BKN120 09/06 A3023 RMK AO2 SLP235 T00890056 (TC)",
"72494523293","2022-01-03T17:53:00","7","37.35938","-121.92444","15.0","SAN JOSE, CA US","FM-15","KSJC ","V020","140,5,N,0046,5","01463,5,M,N","016093,5,N,5","+0111,5","+0067,5","10240,5","01,0000,9,5",,,,,,,,,,,,,,,,,,,,,,,,,,"02,5,+00792,5,99,9","07,5,+01463,5,99,9","08,5,+03658,5,99,9","1,99,1,+00792,5,9","3,99,1,+01463,5,9","4,99,1,+03658,5,9","9,AGL   ,+99999,+99999","99,99,9,99,9,99,9,00792,1,99,9,99,9","060,M,+0111,1","060,N,+0067,1",,,,,,,,,"10240,5,10222,5","3,9,014,9,+999,9",,,,,,,,,"MET13001/03/22 09:53:02 METAR KSJC 031753Z 14009KT 10SM FEW026 BKN048 OVC120 11/07 A3024 RMK AO2 SLP240 T01110067 10111 20067 53014 (TC)",
"72494523293","2022-01-03T18:53:00","7","37.35938","-121.92444","15.0","SAN JOSE, CA US","FM-15","KSJC ","V020","140,5,N,0046,5","01402,5,M,N","016093,5,N,5","+0117,5","+0067,5","10241,5","01,0000,9,5",,,,,,,,,,,,,,,,,,,,,,,,,,"02,5,+00792,5,99,9","07,5,+01402,5,99,9","08,5,+03658,5,99,9","1,99,1,+00792,5,9","3,99,1,+01402,5,9","4,99,1,+03658,5,9","9,AGL   ,+99999,+99999","99,99,9,99,9,99,9,00792,1,99,9,99,9",,,,,,,,,,,"10240,5,10222,5",,,,,,,,,,"MET11201/03/22 10:53:02 METAR KSJC 031853Z 14009KT 10SM FEW026 BKN046 OVC120 12/07 A3024 RMK AO2 SLP241 T01170067 (TC)",
"72494523293","2022-01-03T19:53:00","7","37.35938","-121.92444","15.0","SAN JOSE, CA US","FM-15","KSJC ","V020","150,5,N,0051,5","01402,5,M,N","016093,5,N,5","+0128,5","+0072,5","10232,5","01,0000,9,5",,,,,,,,,,,,,,,,,,,,,,,,,,"02,5,+00792,5,99,9","07,5,+01402,5,99,9","08,5,+03658,5,99,9","1,99,1,+00792,5,9","3,99,1,+01402,5,9","4,99,1,+03658,5,9","9,AGL   ,+99999,+99999","99,99,9,99,9,99,9,00792,1,99,9,99,9",,,,,,,,,,,"10234,5,10216,5",,,,,,,,,,"MET11201/03/22 11:53:02 METAR KSJC 031953Z 15010KT 10SM FEW026 BKN046 OVC120 13/07 A3022 RMK AO2 SLP232 T01280072 (TC)",
"72494523293","2022-01-03T20:53:00","7","37.35938","-121.92444","15.0","SAN JOSE, CA US","FM-15","KSJC ","V020","190,5,N,0026,5","01097,5,M,N","016093,5,N,5","+0128,5","+0072,5","10228,5","01,0000,9,5",,,,,,,,,,,,,,,,,,,,,,,,,,"02,5,+00732,5,99,9","07,5,+01097,5,99,9","08,5,+03658,5,99,9","1,99,1,+00732,5,9","3,99,1,+01097,5,9","4,99,1,+03658,5,9","9,AGL   ,+99999,+99999","99,99,9,99,9,99,9,00732,1,99,9,99,9",,,,,,,,,,,"10230,5,10212,5","8,9,011,9,+999,9",,,,,,,,,"MET11801/03/22 12:53:02 METAR KSJC 032053Z 19005KT 10SM FEW024 BKN036 OVC120 13/07 A3021 RMK AO2 SLP228 T01280072 58011 (TC)",
"72494523293","2022-01-03T21:53:00","7","37.35938","-121.92444","15.0","SAN JOSE, CA US","FM-15","KSJC ","V020","200,5,N,0046,5","00945,5,M,N","016093,5,N,5","+0128,5","+0072,5","10228,5","01,0000,9,5",,,,,,,,,,,,,,,,,,,,,,,,,,"02,5,+00732,5,99,9","07,5,+00945,5,99,9","08,5,+03658,5,99,9","1,99,1,+00732,5,9","3,99,1,+00945,5,9","4,99,1,+03658,5,9","9,AGL   ,+99999,+99999","99,99,9,99,9,99,9,00732,1,99,9,99,9",,,,,,,,,,,"10230,5,10212,5",,,,,,,,,,"MET11201/03/22 13:53:02 METAR KSJC 032153Z 20009KT 10SM FEW024 BKN031 OVC120 13/07 A3021 RMK AO2 SLP228 T01280072 (JK)",
"72494523293","2022-01-03T22:53:00","7","37.35938","-121.92444","15.0","SAN JOSE, CA US","FM-15","KSJC ","V020","170,5,N,0041,5","00975,5,M,N","016093,5,N,5","+0133,5","+0072,5","10227,5","01,0000,9,5",,,,,,,,,,,,,,,,,,,,,,,,,,"02,5,+00732,5,99,9","07,5,+00975,5,99,9","08,5,+03658,5,99,9","1,99,1,+00732,5,9","3,99,1,+00975,5,9","4,99,1,+03658,5,9","9,AGL   ,+99999,+99999","99,99,9,99,9,99,9,00732,1,99,9,99,9",,,,,,,,,,,"10227,5,10209,5",,,,,,,,,,"MET11201/03/22 14:53:02 METAR KSJC 032253Z 17008KT 10SM FEW024 BKN032 OVC120 13/07 A3020 RMK AO2 SLP227 T01330072 (JK)",
"72494523293","2022-01-03T23:53:00","7","37.35938","-121.92444","15.0","SAN JOSE, CA US","FM-15","KSJC ","V020","130,5,N,0051,5","00975,5,M,N","016093,5,N,5","+0133,5","+0078,5","10224,5","01,0000,9,5",,,,,,,,,,,,,,,,,,,,,,,,,,"02,5,+00732,5,99,9","07,5,+00975,5,99,9","08,5,+06096,5,99,9","1,99,1,+00732,5,9","3,99,1,+00975,5,9","4,99,1,+06096,5,9","9,AGL   ,+99999,+99999","99,99,9,99,9,99,9,00732,1,99,9,99,9","060,M,+0133,1","060,N,+0111,1",,,,,,,,,"10227,5,10209,5","8,9,004,9,+999,9",,,,,,,,,"MET13001/03/22 15:53:02 METAR KSJC 032353Z 13010KT 10SM FEW024 BKN032 OVC200 13/08 A3020 RMK AO2 SLP224 T01330078 10133 20111 58004 (JK)",
"72494523293","2022-01-04T00:53:00","7","37.35938","-121.92444","15.0","SAN JOSE, CA US","FM-15","KSJC ","V020","130,5,N,0057,5","00975,5,M,N","016093,5,N,5","+0122,5","+0072,5","10229,5","01,0000,9,5",,,,,,,,,,,,,,,,,,,,,,,,,,"10,5,+00000,5,99,9","07,5,+00975,5,99,9","08,5,+01372,5,99,9","6,99,1,+00000,5,9","3,99,1,+00975,5,9","4,99,1,+01372,5,9","9,AGL   ,+99999,+99999","99,99,9,99,9,99,9,00000,1,99,9,99,9",,,,,,,,,,,"10230,5,10212,5",,,,,,,,,,"MET11701/03/22 16:53:01 METAR KSJC 040053Z 13011KT 10SM FEW000 BKN032 OVC045 12/07 A3021 RMK AO2 SLP229 RA FEW000 T01220072",
"72494523293","2022-01-04T01:53:00","7","37.35938","-121.92444","15.0","SAN JOSE, CA US","FM-15","KSJC ","V020","140,5,N,0051,5","00975,5,M,N","016093,5,N,5","+0117,5","+0078,5","10231,5","01,0000,9,5",,,,,,,,,,,,,,,,,,,,,,,,,,"02,5,+00732,5,99,9","07,5,+00975,5,99,9","08,5,+01981,5,99,9","1,99,1,+00732,5,9","3,99,1,+00975,5,9","4,99,1,+01981,5,9","9,AGL   ,+99999,+99999","99,99,9,99,9,99,9,00732,1,99,9,99,9",,,,,,,,,,,"10234,5,10216,5",,,,,,,,,,"MET10901/03/22 17:53:01 METAR KSJC 040153Z 14010KT 10SM FEW024 BKN032 OVC065 12/08 A3022 RMK AO2 SLP231 T01170078 $",
"72494523293","2022-01-04T02:53:00","7","37.35938","-121.92444","15.0","SAN JOSE, CA US","FM-15","KSJC ","V020","130,5,N,0057,5","01981,5,M,N","016093,5,N,5","+0117,5","+0078,5","10234,5","01,0000,9,5",,,,,,,,,,,,,,,,,,,,,,,,,,"02,5,+00975,5,99,9","07,5,+01981,5,99,9","08,5,+06096,5,99,9","1,99,1,+00975,5,9","3,99,1,+01981,5,9","4,99,1,+06096,5,9","9,AGL   ,+99999,+99999","99,99,9,99,9,99,9,00975,1,99,9,99,9",,,,,,,,,,,"10234,5,10216,5","1,9,010,9,+999,9",,,,,,,,,"MET11501/03/22 18:53:01 METAR KSJC 040253Z 13011KT 10SM FEW032 BKN065 OVC200 12/08 A3022 RMK AO2 SLP234 T01170078 51010 $",
"72494523293","2022-01-04T03:53:00","7","37.35938","-121.92444","15.0","SAN JOSE, CA US","FM-15","KSJC ","V020","130,5,N,0051,5","01981,5,M,N","016093,5,N,5","+0122,5","+0083,5","10236,5","01,0000,9,5",,,,,,,,,,,,,,,,,,,,,,,,,,"02,5,+00975,5,99,9","07,5,+01981,5,99,9","08,5,+06096,5,99,9","1,99,1,+00975,5,9","3,99,1,+01981,5,9","4,99,1,+06096,5,9","9,AGL   ,+99999,+99999","99,99,9,99,9,99,9,00975,1,99,9,99,9",,,,,,,,,,,"10237,5,10219,5",,,,,,,,,,"MET10901/03/22 19:53:02 METAR KSJC 040353Z 13010KT 10SM FEW032 BKN065 OVC200 12/08 A3023 RMK AO2 SLP236 T01220083 $",
"72494523293","2022-01-04T04:53:00","7","37.35938","-121.92444","15.0","SAN JOSE, CA US","FM-15","KSJC ","V020","140,5,N,0062,5","00762,5,M,N","016093,5,N,5","+0117,5","+0083,5","10244,5","01,0000,9,5",,,,,,,,,,,,,,,,,,,,,,,,,,"10,5,+00000,5,99,9","07,5,+00762,5,99,9","07,5,+01219,5,99,9","6,99,1,+00000,5,9","3,99,1,+00762,5,9","3,99,1,+01219,5,9","9,AGL   ,+99999,+99999","99,99,9,99,9,99,9,00000,1,99,9,99,9",,,,,,,,,,,"10244,5,10226,5",,,,,,,,,,"MET10901/03/22 20:53:02 METAR KSJC 040453Z 14012KT 10SM FEW000 BKN025 BKN040 12/08 A3025 RMK AO2 SLP244 T01170083 $",
"72494523293","2022-01-04T05:53:00","7","37.35938","-121.92444","15.0","SAN JOSE, CA US","FM-15","KSJC ","V020","140,5,N,0041,5","01219,5,M,N","016093,5,N,5","+0117,5","+0083,5","10249,5","01,0000,9,5",,,,,,,,,,,,,,,,,,,,,,,,,,"10,5,+00000,5,99,9","04,5,+00762,5,99,9","07,5,+01219,5,99,9","6,99,1,+00000,5,9","2,99,1,+00762,5,9","3,99,1,+01219,5,9","9,AGL   ,+99999,+99999","99,99,9,99,9,99,9,00000,1,99,9,99,9","060,M,+0133,1","060,N,+0117,1",,,,,,,,,"10251,5,10232,5","3,9,015,9,+999,9",,,,,,,,,"MET12701/03/22 21:53:02 METAR KSJC 040553Z 14008KT 10SM FEW000 SCT025 BKN040 12/08 A3027 RMK AO2 SLP249 T01170083 10133 20117 53015 $",
"72494523293","2022-01-04T06:53:00","7","37.35938","-121.92444","15.0","SAN JOSE, CA US","FM-15","KSJC ","V020","130,5,N,0041,5","02438,5,M,N","016093,5,N,5","+0117,5","+0089,5","10252,5","01,0000,9,5",,,,,,,,,,,,,,,,,,,,,,,,,,"02,5,+00762,5,99,9","04,5,+01219,5,99,9","07,5,+02438,5,99,9","1,99,1,+00762,5,9","2,99,1,+01219,5,9","3,99,1,+02438,5,9","9,AGL   ,+99999,+99999","99,99,9,99,9,99,9,00762,1,99,9,99,9",,,,,,,,,,,"10254,5,10236,5",,,,,,"0088,5",,,,"MET11201/03/22 22:53:02 METAR KSJC 040653Z 13008G17KT 10SM FEW025 SCT040 BKN080 12/09 A3028 RMK AO2 SLP252 T01170089 $",
"72494523293","2022-01-04T07:53:00","7","37.35938","-121.92444","15.0","SAN JOSE, CA US","FM-15","KSJC ","V020","150,5,N,0026,5","01219,5,M,N","016093,5,N,5","+0111,5","+0083,5","10251,5","01,0000,9,5",,,,,,,,,,,,,,,,,,,,,,,,,,"02,5,+00335,5,99,9","02,5,+00762,5,99,9","07,5,+01219,5,99,9","1,99,1,+00335,5,9","1,99,1,+00762,5,9","3,99,1,+01219,5,9","9,AGL   ,+99999,+99999","99,99,9,99,9,99,9,00335,1,99,9,99,9","240,M,+0133,1","240,N,+0067,1",,,,,,,,,"10251,5,10232,5",,,,,,,,,,"MET12401/03/22 23:53:02 METAR KSJC 040753Z 15005KT 10SM FEW011 FEW025 BKN040 11/08 A3027 RMK AO2 SLP251 LAST T01110083 401330067 $",
"72494523293","2022-01-04T07:59:00","6","37.35938","-121.92444","15.0","SAN JOSE, CA US","SOD  ","KSJC ","V020","999,9,9,9999,9","99999,9,9,9","999999,9,9,9","+9999,9","+9999,9","99999,9","24,0000,9,5",,,,,,,,,,,,,,,,,,,,,,,,,,,,,,,,,,"240,M,+0133,5","240,N,+0067,5",,,,,,,,,,,"10217,4,10224,4",,,,,"1,24,00894,130,9999,5","2,24,00715,150,9999,5","3,24,00411,999,9999,5","SOD69224 HR PRECIPITATION (IN): 0.00 24 HR MAX TEMP (F): 5624 HR MIN TEMP (F): 44AVERAGE STATION PRESSURE:30.170 MINIMUM SEA LEVEL PRESSURE:30.19 TIME OF OCCURRENCE:1625 PEAK WIND SPEED (MPH): 20 PEAK WIND DIR (DEG):130 PEAK WIND TIME (LST):      FASTEST 2MIN SPEED (MPH): 16FASTEST 2MIN DIR (DEG):150 FASTEST 2MIN TIME (LST):     AVERAGE WIND SPEED (MPH): 9.2 24 HR AVG TEMP (F): 50DEPART FROM NORMAL:  0  HEATING DEGREE DAYS: 15 COOLING DEGREE DAYS:  0 LATEST DAY MAX TEMP (0700-1900 LST):56  LATEST NIGHT MIN TEMP(1900-0800 LST):44 HOURLY INCREMENTAL PRECIPITATION VALUES (IN):.00 0.00 0.00 0.00 0.00 0.00 0.00 0.00 0.00 0.00 0.00 0.00 0.00 0.00 0.00 0.00 0.00 0.00 0.00 0.00 0.00 0.00 0.00 0.00",
"72494523293","2022-01-04T08:53:00","7","37.35938","-121.92444","15.0","SAN JOSE, CA US","FM-15","KSJC ","V020","180,5,N,0026,5","01676,5,M,N","016093,5,N,5","+0117,5","+0089,5","10248,5","01,0000,9,5",,,,,,,,,,,,,,,,,,,,,,,,,,"08,5,+01676,5,99,9",,,"4,99,1,+01676,5,9",,,"9,AGL   ,+99999,+99999","99,99,9,99,9,99,9,01676,1,99,9,99,9",,,,,,,,,,,"10251,5,10232,5","8,9,001,9,+999,9",,,,,,,,,"MET10101/04/22 00:53:02 METAR KSJC 040853Z 18005KT 10SM OVC055 12/09 A3027 RMK AO2 SLP248 T01170089 58001 $",
"72494523293","2022-01-04T09:53:00","7","37.35938","-121.92444","15.0","SAN JOSE, CA US","FM-15","KSJC ","V020","170,5,N,0021,5","01402,5,M,N","016093,5,N,5","+0117,5","+0089,5","10252,5","01,0000,9,5",,,,,,,,,,,,,,,,,,,,,,,,,,"08,5,+01402,5,99,9",,,"4,99,1,+01402,5,9",,,"9,AGL   ,+99999,+99999","99,99,9,99,9,99,9,01402,1,99,9,99,9",,,,,,,,,,,"10254,5,10236,5",,,,,,,,,,"MET09501/04/22 01:53:02 METAR KSJC 040953Z 17004KT 10SM OVC046 12/09 A3028 RMK AO2 SLP252 T01170089 $",
"72494523293","2022-01-04T10:53:00","7","37.35938","-121.92444","15.0","SAN JOSE, CA US","FM-15","KSJC ","V020","170,5,N,0015,5","01676,5,M,N","016093,5,N,5","+0111,5","+0089,5","10254,5","01,0000,9,5",,,,,,,,,,,,,,,,,,,,,,,,,,"04,5,+01158,5,99,9","07,5,+01676,5,99,9","07,5,+01981,5,99,9","2,99,1,+01158,5,9","3,99,1,+01676,5,9","3,99,1,+01981,5,9","9,AGL   ,+99999,+99999","99,99,9,99,9,99,9,01158,1,99,9,99,9",,,,,,,,,,,"10254,5,10236,5",,,,,,,,,,"MET10901/04/22 02:53:02 METAR KSJC 041053Z 17003KT 10SM SCT038 BKN055 BKN065 11/09 A3028 RMK AO2 SLP254 T01110089 $",
"72494523293","2022-01-04T11:53:00","7","37.35938","-121.92444","15.0","SAN JOSE, CA US","FM-15","KSJC ","V020","170,5,N,0026,5","22000,5,9,N","016093,5,N,5","+0100,5","+0083,5","10252,5","01,0000,9,5",,,,,,,,,,,,,,,,,,,,,,,,,,"02,5,+01128,5,99,9",,,"1,99,1,+01128,5,9",,,"9,AGL   ,+99999,+99999","02,99,5,99,9,99,9,01128,1,99,9,99,9","060,M,+0117,1","060,N,+0094,1",,,,,,,,,"10254,5,10236,5","0,9,004,9,+999,9",,,,,,,,,"MET11301/04/22 03:53:02 METAR KSJC 041153Z 17005KT 10SM FEW037 10/08 A3028 RMK AO2 SLP252 T01000083 10117 20094 50004 $","D01      0ADE726"
"72494523293","2022-01-04T12:53:00","7","37.35938","-121.92444","15.0","SAN JOSE, CA US","FM-15","KSJC ","V020","160,5,N,0021,5","22000,5,9,N","016093,5,N,5","+0106,5","+0083,5","10252,5","01,0000,9,5",,,,,,,,,,,,,,,,,,,,,,,,,,"04,5,+01829,5,99,9",,,"2,99,1,+01829,5,9",,,"9,AGL   ,+99999,+99999","04,99,5,99,9,99,9,01829,1,99,9,99,9",,,,,,,,,,,"10254,5,10236,5",,,,,,,,,,"MET09501/04/22 04:53:02 METAR KSJC 041253Z 16004KT 10SM SCT060 11/08 A3028 RMK AO2 SLP252 T01060083 $","D01      0ADE726"
"72494523293","2022-01-04T13:53:00","7","37.35938","-121.92444","15.0","SAN JOSE, CA US","FM-15","KSJC ","V020","140,5,N,0026,5","01219,5,M,N","016093,5,N,5","+0100,5","+0083,5","10254,5","01,0000,9,5",,,,,,,,,,,,,,,,,,,,,,,,,,"02,5,+00914,5,99,9","07,5,+01219,5,99,9","07,5,+01524,5,99,9","1,99,1,+00914,5,9","3,99,1,+01219,5,9","3,99,1,+01524,5,9","9,AGL   ,+99999,+99999","99,99,9,99,9,99,9,00914,1,99,9,99,9",,,,,,,,,,,"10254,5,10236,5",,,,,,,,,,"MET11401/04/22 05:53:02 METAR KSJC 041353Z 14005KT 10SM FEW030 BKN040 BKN050 10/08 A3028 RMK AO2 SLP254 T01000083 $ (TC)",
"72494523293","2022-01-04T14:53:00","7","37.35938","-121.92444","15.0","SAN JOSE, CA US","FM-15","KSJC ","V020","170,5,N,0026,5","01524,5,M,N","016093,5,N,5","+0106,5","+0089,5","10261,5","01,0000,9,5",,,,,,,,,,,,,,,,,,,,,,,,,,"02,5,+00701,5,99,9","04,5,+00914,5,99,9","07,5,+01524,5,99,9","1,99,1,+00701,5,9","2,99,1,+00914,5,9","3,99,1,+01524,5,9","9,AGL   ,+99999,+99999","99,99,9,99,9,99,9,00701,1,99,9,99,9",,,,,,,,,,,"10261,5,10243,5","3,9,009,9,+999,9",,,,,,,,,"MET12001/04/22 06:53:02 METAR KSJC 041453Z 17005KT 10SM FEW023 SCT030 BKN050 11/09 A3030 RMK AO2 SLP261 T01060089 53009 $ (TC)",
"72494523293","2022-01-04T15:53:00","7","37.35938","-121.92444","15.0","SAN JOSE, CA US","FM-15","KSJC ","V020","160,5,N,0026,5","22000,5,9,N","016093,5,N,5","+0100,5","+0078,5","10264,5","01,0000,9,5",,,,,,,,,,,,,,,,,,,,,,,,,,"02,5,+00427,5,99,9","04,5,+00792,5,99,9","04,5,+01524,5,99,9","1,99,1,+00427,5,9","2,99,1,+00792,5,9","2,99,1,+01524,5,9","9,AGL   ,+99999,+99999","04,99,5,99,9,99,9,00427,1,99,9,99,9",,,,,,,,,,,"10264,5,10246,5",,,,,,,,,,"MET11201/04/22 07:53:02 METAR KSJC 041553Z 16005KT 10SM FEW014 SCT026 SCT050 10/08 A3031 RMK AO2 SLP264 T01000078 (TC)","D01      0ADE726"
"72494523293","2022-01-04T16:23:00","7","37.35938","-121.92444","15.0","SAN JOSE, CA US","FM-16","KSJC ","V020","150,5,N,0015,5","00792,5,M,N","016093,5,N,5","+0106,5","+0094,5","99999,9",,,,,,,,,,,,,,,,,,,,,,,,,,,"10,5,+00000,5,99,9","07,5,+00792,5,99,9","07,5,+01524,5,99,9","6,99,1,+00000,5,9","3,99,1,+00792,5,9","3,99,1,+01524,5,9","9,AGL   ,+99999,+99999","99,99,9,99,9,99,9,00000,1,99,9,99,9",,,,,,,,,,,"10271,5,10253,5",,,,,,,,,,"MET10501/04/22 08:23:02 SPECI KSJC 041623Z 15003KT 10SM FEW000 BKN026 BKN050 11/09 A3033 RMK AO2 T01060094 (TC)",
"72494523293","2022-01-04T16:53:00","7","37.35938","-121.92444","15.0","SAN JOSE, CA US","FM-15","KSJC ","V020","190,5,N,0015,5","00792,5,M,N","016093,5,N,5","+0111,5","+0100,5","10272,5","01,0000,9,5",,,,,,,,,,,,,,,,,,,,,,,,,,"10,5,+00000,5,99,9","07,5,+00792,5,99,9","07,5,+01524,5,99,9","6,99,1,+00000,5,9","3,99,1,+00792,5,9","3,99,1,+01524,5,9","9,AGL   ,+99999,+99999","99,99,9,99,9,99,9,00000,1,99,9,99,9",,,,,,,,,,,"10274,5,10256,5",,,,,,,,,,"MET11201/04/22 08:53:02 METAR KSJC 041653Z 19003KT 10SM FEW000 BKN026 BKN050 11/10 A3034 RMK AO2 SLP272 T01110100 (TC)",
"72494523293","2022-01-04T17:26:00","7","37.35938","-121.92444","15.0","SAN JOSE, CA US","FM-16","KSJC ","V020","150,5,N,0031,5","03048,5,M,N","014484,5,N,5","+0117,5","+0100,5","99999,9","01,0000,2,1",,,,,,,,,,,,,,,,,,,,,,,,,,"10,5,+00000,5,99,9","04,5,+00792,5,99,9","07,5,+03048,5,99,9","6,99,1,+00000,5,9","2,99,1,+00792,5,9","3,99,1,+03048,5,9","9,AGL   ,+99999,+99999","99,99,9,99,9,99,9,00000,1,99,9,99,9",,,,,,,,,,,"10274,5,10256,5",,,,,,,,,,"MET11901/04/22 09:26:02 SPECI KSJC 041726Z 15006KT 9SM FEW000 SCT026 BKN100 12/10 A3034 RMK AO2 RAB12E21 P0000 T01170100 (TC)",
"72494523293","2022-01-04T17:53:00","7","37.35938","-121.92444","15.0","SAN JOSE, CA US","FM-15","KSJC ","V020","170,5,N,0031,5","03048,5,M,N","016093,5,N,5","+0128,5","+0111,5","10276,5","01,0000,2,5","06,0000,2,1",,,,,,,,,,,,,,,,,,,,,,,,,"02,5,+00122,5,99,9","04,5,+00884,5,99,9","07,5,+03048,5,99,9","1,99,1,+00122,5,9","2,99,1,+00884,5,9","3,99,1,+03048,5,9","9,AGL   ,+99999,+99999","99,99,9,99,9,99,9,00122,1,99,9,99,9","060,M,+0128,1","060,N,+0089,1",,,,,,,,,"10278,5,10259,5","3,9,015,9,+999,9",,,,,,,,,"MET15101/04/22 09:53:02 METAR KSJC 041753Z 17006KT 10SM FEW004 SCT029 BKN100 13/11 A3035 RMK AO2 RAB12E21 SLP276 P0000 60000 T01280111 10128 20089 53015 (TC)","Q01  00002PRCP06Q02  00008PRCP06"
"72494523293","2022-01-04T18:53:00","7","37.35938","-121.92444","15.0","SAN JOSE, CA US","FM-15","KSJC ","V020","140,5,N,0015,5","01067,5,M,N","016093,5,N,5","+0139,5","+0106,5","10276,5","01,0000,9,5",,,,,,,,,,,,,,,,,,,,,,,,,,"02,5,+00244,5,99,9","04,5,+00853,5,99,9","07,5,+01067,5,99,9","1,99,1,+00244,5,9","2,99,1,+00853,5,9","3,99,1,+01067,5,9","9,AGL   ,+99999,+99999","99,99,9,99,9,99,9,00244,1,99,9,99,9",,,,,,,,,,,"10278,5,10259,5",,,,,,,,,,"MET11201/04/22 10:53:02 METAR KSJC 041853Z 14003KT 10SM FEW008 SCT028 BKN035 14/11 A3035 RMK AO2 SLP276 T01390106 (TC)",
"72494523293","2022-01-04T19:53:00","7","37.35938","-121.92444","15.0","SAN JOSE, CA US","FM-15","KSJC ","V020","170,5,N,0015,5","01067,5,M,N","016093,5,N,5","+0156,5","+0106,5","10267,5","01,0000,9,5",,,,,,,,,,,,,,,,,,,,,,,,,,"02,5,+00335,5,99,9","04,5,+00884,5,99,9","07,5,+01067,5,99,9","1,99,1,+00335,5,9","2,99,1,+00884,5,9","3,99,1,+01067,5,9","9,AGL   ,+99999,+99999","99,99,9,99,9,99,9,00335,1,99,9,99,9",,,,,,,,,,,"10268,5,10249,5",,,,,,,,,,"MET11201/04/22 11:53:02 METAR KSJC 041953Z 17003KT 10SM FEW011 SCT029 BKN035 16/11 A3032 RMK AO2 SLP267 T01560106 (TC)",
"72494523293","2022-01-04T20:53:00","7","37.35938","-121.92444","15.0","SAN JOSE, CA US","FM-15","KSJC ","V020","999,9,C,0000,5","01219,5,M,N","016093,5,N,5","+0161,5","+0106,5","10257,5","01,0000,9,5",,,,,,,,,,,,,,,,,,,,,,,,,,"02,5,+00396,5,99,9","04,5,+00884,5,99,9","07,5,+01219,5,99,9","1,99,1,+00396,5,9","2,99,1,+00884,5,9","3,99,1,+01219,5,9","9,AGL   ,+99999,+99999","99,99,9,99,9,99,9,00396,1,99,9,99,9",,,,,,,,,,,"10257,5,10239,5","8,9,018,9,+999,9",,,,,,,,,"MET11801/04/22 12:53:02 METAR KSJC 042053Z 00000KT 10SM FEW013 SCT029 BKN040 16/11 A3029 RMK AO2 SLP257 T01610106 58018 (TC)",
"72494523293","2022-01-04T21:53:00","7","37.35938","-121.92444","15.0","SAN JOSE, CA US","FM-15","KSJC ","V020","999,9,C,0000,5","01158,5,M,N","016093,5,N,5","+0161,5","+0100,5","10252,5","01,0000,9,5",,,,,,,,,,,,,,,,,,,,,,,,,,"02,5,+00305,5,99,9","04,5,+00945,5,99,9","07,5,+01158,5,99,9","1,99,1,+00305,5,9","2,99,1,+00945,5,9","3,99,1,+01158,5,9","9,AGL   ,+99999,+99999","99,99,9,99,9,99,9,00305,1,99,9,99,9",,,,,,,,,,,"10254,5,10236,5",,,,,,,,,,"MET11201/04/22 13:53:02 METAR KSJC 042153Z 00000KT 10SM FEW010 SCT031 BKN038 16/10 A3028 RMK AO2 SLP252 T01610100 (JK)",
"72494523293","2022-01-04T22:53:00","7","37.35938","-121.92444","15.0","SAN JOSE, CA US","FM-15","KSJC ","V020","340,5,N,0026,5","01158,5,M,N","016093,5,N,5","+0161,5","+0111,5","10255,5","01,0000,9,5",,,,,,,,,,,,,,,,,,,,,,,,,,"02,5,+00305,5,99,9","04,5,+00945,5,99,9","07,5,+01158,5,99,9","1,99,1,+00305,5,9","2,99,1,+00945,5,9","3,99,1,+01158,5,9","9,AGL   ,+99999,+99999","99,99,9,99,9,99,9,00305,1,99,9,99,9",,,,,,,,,,,"10257,5,10239,5",,,,,,,,,,"MET12501/04/22 14:53:02 METAR KSJC 042253Z 34005KT 10SM FEW010 SCT031 BKN038 16/11 A3029 RMK AO2 SLP255 TCU DSNT N-S T01610111 (JK)",
"72494523293","2022-01-04T23:53:00","7","37.35938","-121.92444","15.0","SAN JOSE, CA US","FM-15","KSJC ","V020","320,5,N,0031,5","04267,5,M,N","016093,5,N,5","+0161,5","+0111,5","10253,5","01,0000,9,5",,,,,,,,,,,,,,,,,,,,,,,,,,"02,5,+00945,5,12,5","04,5,+02438,5,99,9","07,5,+04267,5,99,9","1,99,1,+00945,5,9","2,99,1,+02438,5,9","3,99,1,+04267,5,9","9,AGL   ,+99999,+99999","99,99,9,99,9,99,9,00945,1,99,9,99,9","060,M,+0172,1","060,N,+0128,1",,,,,,,,,"10254,5,10236,5","6,9,004,9,+999,9",,,,,,,,,"MET15601/04/22 15:53:02 METAR KSJC 042353Z 32006KT 10SM FEW031TCU SCT080 BKN140 16/11 A3028 RMK AO2 SLP253 TCU SE-S TCU DSNT N-SE T01610111 10172 20128 56004 (JK)",
"72494523293","2022-01-05T00:53:00","7","37.35938","-121.92444","15.0","SAN JOSE, CA US","FM-15","KSJC ","V020","330,5,N,0046,5","04267,5,M,N","016093,5,N,5","+0139,5","+0106,5","10255,5","01,0000,9,5",,,,,,,,,,,,,,,,,,,,,,,,,,"02,5,+00945,5,99,9","04,5,+02438,5,99,9","07,5,+04267,5,99,9","1,99,1,+00945,5,9","2,99,1,+02438,5,9","3,99,1,+04267,5,9","9,AGL   ,+99999,+99999","99,99,9,99,9,99,9,00945,1,99,9,99,9",,,,,,,,,,,"10257,5,10239,5",,,,,,,,,,"MET12101/04/22 16:53:01 METAR KSJC 050053Z 33009KT 10SM FEW031 SCT080 BKN140 14/11 A3029 RMK AO2 SLP255 TCU DSNT N-SE T01390106",
"72494523293","2022-01-05T01:53:00","7","37.35938","-121.92444","15.0","SAN JOSE, CA US","FM-15","KSJC ","V020","320,5,N,0026,5","22000,5,9,N","016093,5,N,5","+0122,5","+0100,5","10258,5","01,0000,9,5",,,,,,,,,,,,,,,,,,,,,,,,,,"02,5,+00914,5,99,9","04,5,+02438,5,99,9","04,5,+04267,5,99,9","1,99,1,+00914,5,9","2,99,1,+02438,5,9","2,99,1,+04267,5,9","9,AGL   ,+99999,+99999","04,99,5,99,9,99,9,00914,1,99,9,99,9",,,,,,,,,,,"10261,5,10243,5",,,,,,,,,,"MET10701/04/22 17:53:01 METAR KSJC 050153Z 32005KT 10SM FEW030 SCT080 SCT140 12/10 A3030 RMK AO2 SLP258 T01220100","D01      0ADE726"
"72494523293","2022-01-05T02:53:00","7","37.35938","-121.92444","15.0","SAN JOSE, CA US","FM-15","KSJC ","V020","360,5,N,0031,5","04267,5,M,N","016093,5,N,5","+0128,5","+0106,5","10264,5","01,0000,9,5",,,,,,,,,,,,,,,,,,,,,,,,,,"02,5,+00914,5,99,9","04,5,+02286,5,99,9","07,5,+04267,5,99,9","1,99,1,+00914,5,9","2,99,1,+02286,5,9","3,99,1,+04267,5,9","9,AGL   ,+99999,+99999","99,99,9,99,9,99,9,00914,1,99,9,99,9",,,,,,,,,,,"10264,5,10246,5","3,9,011,9,+999,9",,,,,,,,,"MET11301/04/22 18:53:01 METAR KSJC 050253Z 36006KT 10SM FEW030 SCT075 BKN140 13/11 A3031 RMK AO2 SLP264 T01280106 53011",
"72494523293","2022-01-05T03:53:00","7","37.35938","-121.92444","15.0","SAN JOSE, CA US","FM-15","KSJC ","V020","340,5,N,0015,5","04267,5,M,N","016093,5,N,5","+0128,5","+0106,5","10262,5","01,0000,9,5",,,,,,,,,,,,,,,,,,,,,,,,,,"02,5,+00610,5,99,9","04,5,+02286,5,99,9","07,5,+04267,5,99,9","1,99,1,+00610,5,9","2,99,1,+02286,5,9","3,99,1,+04267,5,9","9,AGL   ,+99999,+99999","99,99,9,99,9,99,9,00610,1,99,9,99,9",,,,,,,,,,,"10264,5,10246,5",,,,,,,,,,"MET10701/04/22 19:53:02 METAR KSJC 050353Z 34003KT 10SM FEW020 SCT075 BKN140 13/11 A3031 RMK AO2 SLP262 T01280106",
"72494523293","2022-01-05T04:53:00","7","37.35938","-121.92444","15.0","SAN JOSE, CA US","FM-15","KSJC ","V020","330,5,N,0031,5","04267,5,M,N","016093,5,N,5","+0117,5","+0100,5","10272,5","01,0000,9,5",,,,,,,,,,,,,,,,,,,,,,,,,,"02,5,+00610,5,99,9","04,5,+02438,5,99,9","07,5,+04267,5,99,9","1,99,1,+00610,5,9","2,99,1,+02438,5,9","3,99,1,+04267,5,9","9,AGL   ,+99999,+99999","99,99,9,99,9,99,9,00610,1,99,9,99,9",,,,,,,,,,,"10274,5,10256,5",,,,,,,,,,"MET10701/04/22 20:53:02 METAR KSJC 050453Z 33006KT 10SM FEW020 SCT080 BKN140 12/10 A3034 RMK AO2 SLP272 T01170100",
"72494523293","2022-01-05T05:30:00","7","37.35938","-121.92444","15.0","SAN JOSE, CA US","FM-16","KSJC ","V020","330,5,N,0026,5","00427,5,M,N","016093,5,N,5","+0111,5","+0094,5","99999,9",,,,,,,,,,,,,,,,,,,,,,,,,,,"10,5,+00000,5,99,9","07,5,+00427,5,99,9","08,5,+01067,5,99,9","6,99,1,+00000,5,9","3,99,1,+00427,5,9","4,99,1,+01067,5,9","9,AGL   ,+99999,+99999","99,99,9,99,9,99,9,00000,1,99,9,99,9",,,,,,,,,,,"10274,5,10256,5",,,,,,,,,,"MET10001/04/22 21:30:02 SPECI KSJC 050530Z 33005KT 10SM FEW000 BKN014 OVC035 11/09 A3034 RMK AO2 T01110094",
"72494523293","2022-01-05T05:53:00","7","37.35938","-121.92444","15.0","SAN JOSE, CA US","FM-15","KSJC ","V020","999,9,C,0000,5","00427,5,M,N","016093,5,N,5","+0117,5","+0100,5","10273,5","01,0000,9,5",,,,,,,,,,,,,,,,,,,,,,,,,,"10,5,+00000,5,99,9","07,5,+00427,5,99,9","08,5,+01067,5,99,9","6,99,1,+00000,5,9","3,99,1,+00427,5,9","4,99,1,+01067,5,9","9,AGL   ,+99999,+99999","99,99,9,99,9,99,9,00000,1,99,9,99,9","060,M,+0161,1","060,N,+0106,1",,,,,,,,,"10274,5,10256,5","3,9,009,9,+999,9",,,,,,,,,"MET12501/04/22 21:53:02 METAR KSJC 050553Z 00000KT 10SM FEW000 BKN014 OVC035 12/10 A3034 RMK AO2 SLP273 T01170100 10161 20106 53009",
"72494523293","2022-01-05T06:53:00","7","37.35938","-121.92444","15.0","SAN JOSE, CA US","FM-15","KSJC ","V020","999,9,C,0000,5","00305,5,M,N","016093,5,N,5","+0111,5","+0100,5","10275,5","01,0000,9,5",,,,,,,,,,,,,,,,,,,,,,,,,,"10,5,+00000,5,99,9","07,5,+00305,5,99,9","08,5,+00427,5,99,9","6,99,1,+00000,5,9","3,99,1,+00305,5,9","4,99,1,+00427,5,9","9,AGL   ,+99999,+99999","99,99,9,99,9,99,9,00000,1,99,9,99,9",,,,,,,,,,,"10274,5,10256,5",,,,,,,,,,"MET10701/04/22 22:53:02 METAR KSJC 050653Z 00000KT 10SM FEW000 BKN010 OVC014 11/10 A3034 RMK AO2 SLP275 T01110100",
"72494523293","2022-01-05T07:53:00","7","37.35938","-121.92444","15.0","SAN JOSE, CA US","FM-15","KSJC ","V020","300,5,N,0021,5","00305,5,M,N","016093,5,N,5","+0117,5","+0094,5","10275,5","01,0000,9,5",,,,,,,,,,,,,,,,,,,,,,,,,,"10,5,+00000,5,99,9","07,5,+00305,5,99,9","08,5,+00427,5,99,9","6,99,1,+00000,5,9","3,99,1,+00305,5,9","4,99,1,+00427,5,9","9,AGL   ,+99999,+99999","99,99,9,99,9,99,9,00000,1,99,9,99,9","240,M,+0172,1","240,N,+0089,1",,,,,,,,,"10274,5,10256,5",,,,,,,,,,"MET12201/04/22 23:53:02 METAR KSJC 050753Z 30004KT 10SM FEW000 BKN010 OVC014 12/09 A3034 RMK AO2 SLP275 LAST T01170094 401720089",
"72494523293","2022-01-05T07:59:00","6","37.35938","-121.92444","15.0","SAN JOSE, CA US","SOD  ","KSJC ","V020","999,9,9,9999,9","99999,9,9,9","999999,9,9,9","+9999,9","+9999,9","99999,9","24,0000,2,5",,,,,,,,,,,,,,,,,,,,,,"01,6,24,6",,,,,,,,,,,,"240,M,+0172,5","240,N,+0089,5",,,,,,,,,,,"10246,4,10247,4",,,,,"1,24,00626,330,9999,5","2,24,00536,330,9999,5","3,24,00206,999,9999,5","SOD70924 HR PRECIPITATION (IN):    T WEATHER(CODE):1  24 HR MAX TEMP (F): 6324 HR MIN TEMP (F): 48AVERAGE STATION PRESSURE:30.255 MINIMUM SEA LEVEL PRESSURE:30.26 TIME OF OCCURRENCE:0432 PEAK WIND SPEED (MPH): 14 PEAK WIND DIR (DEG):330 PEAK WIND TIME (LST):      FASTEST 2MIN SPEED (MPH): 12FASTEST 2MIN DIR (DEG):330 FASTEST 2MIN TIME (LST):     AVERAGE WIND SPEED (MPH): 4.6 24 HR AVG TEMP (F): 56DEPART FROM NORMAL:  6  HEATING DEGREE DAYS:  9 COOLING DEGREE DAYS:  0 LATEST DAY MAX TEMP (0700-1900 LST):63  LATEST NIGHT MIN TEMP(1900-0800 LST):49 HOURLY INCREMENTAL PRECIPITATION VALUES (IN):.00 0.00 0.00 0.00 0.00 0.00 0.00 0.00 0.00 T    0.00 0.00 0.00 0.00 0.00 0.00 0.00 0.00 0.00 0.00 0.00 0.00 0.00 0.00","R01     17AXW093"
"72494523293","2022-01-05T08:53:00","7","37.35938","-121.92444","15.0","SAN JOSE, CA US","FM-15","KSJC ","V020","320,5,N,0021,5","00427,5,M,N","016093,5,N,5","+0111,5","+0094,5","10274,5","01,0000,9,5",,,,,,,,,,,,,,,,,,,,,,,,,,"08,5,+00427,5,99,9",,,"4,99,1,+00427,5,9",,,"9,AGL   ,+99999,+99999","99,99,9,99,9,99,9,00427,1,99,9,99,9",,,,,,,,,,,"10274,5,10256,5","1,9,001,9,+999,9",,,,,,,,,"MET09901/05/22 00:53:02 METAR KSJC 050853Z 32004KT 10SM OVC014 11/09 A3034 RMK AO2 SLP274 T01110094 51001",
"72494523293","2022-01-05T09:53:00","7","37.35938","-121.92444","15.0","SAN JOSE, CA US","FM-15","KSJC ","V020","999,9,C,0000,5","00427,5,M,N","016093,5,N,5","+0111,5","+0100,5","10270,5","01,0000,9,5",,,,,,,,,,,,,,,,,,,,,,,,,,"08,5,+00427,5,99,9",,,"4,99,1,+00427,5,9",,,"9,AGL   ,+99999,+99999","99,99,9,99,9,99,9,00427,1,99,9,99,9",,,,,,,,,,,"10271,5,10253,5",,,,,,,,,,"MET09301/05/22 01:53:02 METAR KSJC 050953Z 00000KT 10SM OVC014 11/10 A3033 RMK AO2 SLP270 T01110100",
"72494523293","2022-01-05T10:02:00","7","37.35938","-121.92444","15.0","SAN JOSE, CA US","FM-16","KSJC ","V020","999,9,C,0000,5","00427,5,M,N","016093,5,N,5","+0111,5","+0094,5","99999,9",,,,,,,,,,,,,,,,,,,,,,,,,,,"02,5,+00244,5,99,9","08,5,+00427,5,99,9",,"1,99,1,+00244,5,9","4,99,1,+00427,5,9",,"9,AGL   ,+99999,+99999","99,99,9,99,9,99,9,00244,1,99,9,99,9",,,,,,,,,,,"10271,5,10253,5",,,,,,,,,,"MET09301/05/22 02:02:02 SPECI KSJC 051002Z 00000KT 10SM FEW008 OVC014 11/09 A3033 RMK AO2 T01110094",
"72494523293","2022-01-05T10:14:00","7","37.35938","-121.92444","15.0","SAN JOSE, CA US","FM-16","KSJC ","V020","260,5,N,0015,5","00457,5,M,N","016093,5,N,5","+0111,5","+0094,5","99999,9",,,,,,,,,,,,,,,,,,,,,,,,,,,"04,5,+00305,5,99,9","08,5,+00457,5,99,9",,"2,99,1,+00305,5,9","4,99,1,+00457,5,9",,"9,AGL   ,+99999,+99999","99,99,9,99,9,99,9,00305,1,99,9,99,9",,,,,,,,,,,"10271,5,10253,5",,,,,,,,,,"MET09301/05/22 02:14:02 SPECI KSJC 051014Z 26003KT 10SM SCT010 OVC015 11/09 A3033 RMK AO2 T01110094",
"72494523293","2022-01-05T10:40:00","7","37.35938","-121.92444","15.0","SAN JOSE, CA US","FM-16","KSJC ","V020","999,9,C,0000,5","00396,5,M,N","016093,5,N,5","+0111,5","+0094,5","99999,9",,,,,,,,,,,,,,,,,,,,,,,,,,,"08,5,+00396,5,99,9",,,"4,99,1,+00396,5,9",,,"9,AGL   ,+99999,+99999","99,99,9,99,9,99,9,00396,1,99,9,99,9",,,,,,,,,,,"10271,5,10253,5",,,,,,,,,,"MET08601/05/22 02:40:02 SPECI KSJC 051040Z 00000KT 10SM OVC013 11/09 A3033 RMK AO2 T01110094",
"72494523293","2022-01-05T10:53:00","7","37.35938","-121.92444","15.0","SAN JOSE, CA US","FM-15","KSJC ","V020","999,9,C,0000,5","00427,5,M,N","016093,5,N,5","+0111,5","+0094,5","10270,5","01,0000,9,5",,,,,,,,,,,,,,,,,,,,,,,,,,"04,5,+00305,5,99,9","08,5,+00427,5,99,9",,"2,99,1,+00305,5,9","4,99,1,+00427,5,9",,"9,AGL   ,+99999,+99999","99,99,9,99,9,99,9,00305,1,99,9,99,9",,,,,,,,,,,"10271,5,10253,5",,,,,,,,,,"MET10001/05/22 02:53:02 METAR KSJC 051053Z 00000KT 10SM SCT010 OVC014 11/09 A3033 RMK AO2 SLP270 T01110094",
"72494523293","2022-01-05T11:01:00","7","37.35938","-121.92444","15.0","SAN JOSE, CA US","FM-16","KSJC ","V020","999,9,C,0000,5","00457,5,M,N","016093,5,N,5","+0111,5","+0094,5","99999,9",,,,,,,,,,,,,,,,,,,,,,,,,,,"04,5,+00305,5,99,9","08,5,+00457,5,99,9",,"2,99,1,+00305,5,9","4,99,1,+00457,5,9",,"9,AGL   ,+99999,+99999","99,99,9,99,9,99,9,00305,1,99,9,99,9",,,,,,,,,,,"10271,5,10253,5",,,,,,,,,,"MET09301/05/22 03:01:02 SPECI KSJC 051101Z 00000KT 10SM SCT010 OVC015 11/09 A3033 RMK AO2 T01110094",
"72494523293","2022-01-05T11:22:00","7","37.35938","-121.92444","15.0","SAN JOSE, CA US","FM-16","KSJC ","V020","999,9,C,0000,5","00305,5,M,N","016093,5,N,5","+0111,5","+0094,5","99999,9",,,,,,,,,,,,,,,,,,,,,,,,,,,"07,5,+00305,5,99,9","08,5,+00457,5,99,9",,"3,99,1,+00305,5,9","4,99,1,+00457,5,9",,"9,AGL   ,+99999,+99999","99,99,9,99,9,99,9,00305,1,99,9,99,9",,,,,,,,,,,"10271,5,10253,5",,,,,,,,,,"MET09301/05/22 03:22:02 SPECI KSJC 051122Z 00000KT 10SM BKN010 OVC015 11/09 A3033 RMK AO2 T01110094",
"72494523293","2022-01-05T11:53:00","7","37.35938","-121.92444","15.0","SAN JOSE, CA US","FM-15","KSJC ","V020","999,9,C,0000,5","00366,5,M,N","016093,5,N,5","+0111,5","+0094,5","10267,5","01,0000,9,5",,,,,,,,,,,,,,,,,,,,,,,,,,"08,5,+00366,5,99,9",,,"4,99,1,+00366,5,9",,,"9,AGL   ,+99999,+99999","99,99,9,99,9,99,9,00366,1,99,9,99,9","060,M,+0117,1","060,N,+0111,1",,,,,,,,,"10268,5,10249,5","6,9,008,9,+999,9",,,,,,,,,"MET11101/05/22 03:53:02 METAR KSJC 051153Z 00000KT 10SM OVC012 11/09 A3032 RMK AO2 SLP267 T01110094 10117 20111 56008",
"72494523293","2022-01-05T12:53:00","7","37.35938","-121.92444","15.0","SAN JOSE, CA US","FM-15","KSJC ","V020","999,9,C,0000,5","00427,5,M,N","016093,5,N,5","+0111,5","+0094,5","10265,5","01,0000,9,5",,,,,,,,,,,,,,,,,,,,,,,,,,"08,5,+00427,5,99,9",,,"4,99,1,+00427,5,9",,,"9,AGL   ,+99999,+99999","99,99,9,99,9,99,9,00427,1,99,9,99,9",,,,,,,,,,,"10268,5,10249,5",,,,,,,,,,"MET09301/05/22 04:53:02 METAR KSJC 051253Z 00000KT 10SM OVC014 11/09 A3032 RMK AO2 SLP265 T01110094",
"72494523293","2022-01-05T13:53:00","7","37.35938","-121.92444","15.0","SAN JOSE, CA US","FM-15","KSJC ","V020","240,5,N,0021,5","00427,5,M,N","016093,5,N,5","+0106,5","+0089,5","10267,5","01,0000,9,5",,,,,,,,,,,,,,,,,,,,,,,,,,"08,5,+00427,5,99,9",,,"4,99,1,+00427,5,9",,,"9,AGL   ,+99999,+99999","99,99,9,99,9,99,9,00427,1,99,9,99,9",,,,,,,,,,,"10268,5,10249,5",,,,,,,,,,"MET09801/05/22 05:53:02 METAR KSJC 051353Z 24004KT 10SM OVC014 11/09 A3032 RMK AO2 SLP267 T01060089 (TC)",
"72494523293","2022-01-05T14:53:00","7","37.35938","-121.92444","15.0","SAN JOSE, CA US","FM-15","KSJC ","V020","999,9,C,0000,5","00427,5,M,N","016093,5,N,5","+0106,5","+0083,5","10268,5","01,0000,9,5",,,,,,,,,,,,,,,,,,,,,,,,,,"08,5,+00427,5,99,9",,,"4,99,1,+00427,5,9",,,"9,AGL   ,+99999,+99999","99,99,9,99,9,99,9,00427,1,99,9,99,9",,,,,,,,,,,"10268,5,10249,5","3,9,001,9,+999,9",,,,,,,,,"MET10401/05/22 06:53:02 METAR KSJC 051453Z 00000KT 10SM OVC014 11/08 A3032 RMK AO2 SLP268 T01060083 53001 (TC)",
"72494523293","2022-01-05T15:53:00","7","37.35938","-121.92444","15.0","SAN JOSE, CA US","FM-15","KSJC ","V020","999,9,C,0000,5","00427,5,M,N","016093,5,N,5","+0111,5","+0083,5","10270,5","01,0000,9,5",,,,,,,,,,,,,,,,,,,,,,,,,,"07,5,+00427,5,99,9","07,5,+04877,5,99,9",,"3,99,1,+00427,5,9","3,99,1,+04877,5,9",,"9,AGL   ,+99999,+99999","99,99,9,99,9,99,9,00427,1,99,9,99,9",,,,,,,,,,,"10271,5,10253,5",,,,,,,,,,"MET10501/05/22 07:53:02 METAR KSJC 051553Z 00000KT 10SM BKN014 BKN160 11/08 A3033 RMK AO2 SLP270 T01110083 (TC)",
"72494523293","2022-01-05T16:24:00","7","37.35938","-121.92444","15.0","SAN JOSE, CA US","FM-16","KSJC ","V020","190,5,N,0015,5","04877,5,M,N","016093,5,N,5","+0106,5","+0089,5","99999,9",,,,,,,,,,,,,,,,,,,,,,,,,,,"04,5,+00427,5,99,9","07,5,+04877,5,99,9",,"2,99,1,+00427,5,9","3,99,1,+04877,5,9",,"9,AGL   ,+99999,+99999","99,99,9,99,9,99,9,00427,1,99,9,99,9",,,,,,,,,,,"10271,5,10253,5",,,,,,,,,,"MET09801/05/22 08:24:02 SPECI KSJC 051624Z 19003KT 10SM SCT014 BKN160 11/09 A3033 RMK AO2 T01060089 (TC)",
"72494523293","2022-01-05T16:53:00","7","37.35938","-121.92444","15.0","SAN JOSE, CA US","FM-15","KSJC ","V020","999,9,C,0000,5","04877,5,M,N","016093,5,N,5","+0111,5","+0094,5","10270,5","01,0000,9,5",,,,,,,,,,,,,,,,,,,,,,,,,,"02,5,+00396,5,99,9","04,5,+01219,5,99,9","07,5,+04877,5,99,9","1,99,1,+00396,5,9","2,99,1,+01219,5,9","3,99,1,+04877,5,9","9,AGL   ,+99999,+99999","99,99,9,99,9,99,9,00396,1,99,9,99,9",,,,,,,,,,,"10271,5,10253,5",,,,,,,,,,"MET11201/05/22 08:53:02 METAR KSJC 051653Z 00000KT 10SM FEW013 SCT040 BKN160 11/09 A3033 RMK AO2 SLP270 T01110094 (TC)",
"72494523293","2022-01-05T17:53:00","7","37.35938","-121.92444","15.0","SAN JOSE, CA US","FM-15","KSJC ","V020","999,9,C,0000,5","22000,5,9,N","016093,5,N,5","+0128,5","+0094,5","10271,5","01,0000,9,5",,,,,,,,,,,,,,,,,,,,,,,,,,"02,5,+00396,5,99,9","02,5,+01219,5,99,9","04,5,+04877,5,99,9","1,99,1,+00396,5,9","1,99,1,+01219,5,9","2,99,1,+04877,5,9","9,AGL   ,+99999,+99999","04,99,5,99,9,99,9,00396,1,99,9,99,9","060,M,+0128,1","060,N,+0100,1",,,,,,,,,"10274,5,10256,5","1,9,004,9,+999,9",,,,,,,,,"MET13001/05/22 09:53:02 METAR KSJC 051753Z 00000KT 10SM FEW013 FEW040 SCT160 13/09 A3034 RMK AO2 SLP271 T01280094 10128 20100 51004 (TC)","D01      0ADE726"
"72494523293","2022-01-05T18:53:00","7","37.35938","-121.92444","15.0","SAN JOSE, CA US","FM-15","KSJC ","V020","999,9,C,0000,5","01280,5,M,N","016093,5,N,5","+0150,5","+0100,5","10264,5","01,0000,9,5",,,,,,,,,,,,,,,,,,,,,,,,,,"02,5,+00427,5,99,9","07,5,+01280,5,99,9","07,5,+04877,5,99,9","1,99,1,+00427,5,9","3,99,1,+01280,5,9","3,99,1,+04877,5,9","9,AGL   ,+99999,+99999","99,99,9,99,9,99,9,00427,1,99,9,99,9",,,,,,,,,,,"10264,5,10246,5",,,,,,,,,,"MET11201/05/22 10:53:02 METAR KSJC 051853Z 00000KT 10SM FEW014 BKN042 BKN160 15/10 A3031 RMK AO2 SLP264 T01500100 (TC)",
"72494523293","2022-01-05T19:53:00","7","37.35938","-121.92444","15.0","SAN JOSE, CA US","FM-15","KSJC ","V020","350,5,N,0036,5","22000,5,9,N","016093,5,N,5","+0172,5","+0111,5","10254,5","01,0000,9,5",,,,,,,,,,,,,,,,,,,,,,,,,,"02,5,+00518,5,99,9","02,5,+01341,5,99,9","02,5,+04877,5,99,9","1,99,1,+00518,5,9","1,99,1,+01341,5,9","1,99,1,+04877,5,9","9,AGL   ,+99999,+99999","02,99,5,99,9,99,9,00518,1,99,9,99,9",,,,,,,,,,,"10254,5,10236,5",,,,,,,,,,"MET11201/05/22 11:53:02 METAR KSJC 051953Z 35007KT 10SM FEW017 FEW044 FEW160 17/11 A3028 RMK AO2 SLP254 T01720111 (TC)","D01      0ADE726"
"72494523293","2022-01-05T20:53:00","7","37.35938","-121.92444","15.0","SAN JOSE, CA US","FM-15","KSJC ","V020","340,5,N,0051,5","22000,5,9,N","016093,5,N,5","+0167,5","+0117,5","10242,5","01,0000,9,5",,,,,,,,,,,,,,,,,,,,,,,,,,"02,5,+00427,5,99,9","02,5,+01280,5,99,9","02,5,+04572,5,99,9","1,99,1,+00427,5,9","1,99,1,+01280,5,9","1,99,1,+04572,5,9","9,AGL   ,+99999,+99999","02,99,5,99,9,99,9,00427,1,99,9,99,9",,,,,,,,,,,"10244,5,10226,5","8,9,029,9,+999,9",,,,,,,,,"MET11801/05/22 12:53:02 METAR KSJC 052053Z 34010KT 10SM FEW014 FEW042 FEW150 17/12 A3025 RMK AO2 SLP242 T01670117 58029 (TC)","D01      0ADE726"
"72494523293","2022-01-05T21:53:00","7","37.35938","-121.92444","15.0","SAN JOSE, CA US","FM-15","KSJC ","V020","350,5,N,0026,5","22000,5,9,N","016093,5,N,5","+0172,5","+0117,5","10233,5","01,0000,9,5",,,,,,,,,,,,,,,,,,,,,,,,,,"02,5,+00427,5,99,9","04,5,+01280,5,99,9","04,5,+04572,5,99,9","1,99,1,+00427,5,9","2,99,1,+01280,5,9","2,99,1,+04572,5,9","9,AGL   ,+99999,+99999","04,99,5,99,9,99,9,00427,1,99,9,99,9",,,,,,,,,,,"10234,5,10216,5",,,,,,,,,,"MET11201/05/22 13:53:02 METAR KSJC 052153Z 35005KT 10SM FEW014 SCT042 SCT150 17/12 A3022 RMK AO2 SLP233 T01720117 (JK)","D01      0ADE726"
"72494523293","2022-01-05T22:53:00","7","37.35938","-121.92444","15.0","SAN JOSE, CA US","FM-15","KSJC ","V020","320,5,N,0046,5","03658,5,M,N","016093,5,N,5","+0161,5","+0117,5","10229,5","01,0000,9,5",,,,,,,,,,,,,,,,,,,,,,,,,,"02,5,+00701,5,99,9","04,5,+01219,5,99,9","07,5,+03658,5,99,9","1,99,1,+00701,5,9","2,99,1,+01219,5,9","3,99,1,+03658,5,9","9,AGL   ,+99999,+99999","99,99,9,99,9,99,9,00701,1,99,9,99,9",,,,,,,,,,,"10230,5,10212,5",,,,,,,,,,"MET11201/05/22 14:53:02 METAR KSJC 052253Z 32009KT 10SM FEW023 SCT040 BKN120 16/12 A3021 RMK AO2 SLP229 T01610117 (JK)",
"72494523293","2022-01-05T23:53:00","7","37.35938","-121.92444","15.0","SAN JOSE, CA US","FM-15","KSJC ","V020","320,5,N,0041,5","03658,5,M,N","016093,5,N,5","+0156,5","+0122,5","10229,5","01,0000,9,5",,,,,,,,,,,,,,,,,,,,,,,,,,"02,5,+00701,5,99,9","04,5,+02438,5,99,9","07,5,+03658,5,99,9","1,99,1,+00701,5,9","2,99,1,+02438,5,9","3,99,1,+03658,5,9","9,AGL   ,+99999,+99999","99,99,9,99,9,99,9,00701,1,99,9,99,9","060,M,+0178,1","060,N,+0128,1",,,,,,,,,"10230,5,10212,5","6,9,013,9,+999,9",,,,,,,,,"MET13001/05/22 15:53:02 METAR KSJC 052353Z 32008KT 10SM FEW023 SCT080 BKN120 16/12 A3021 RMK AO2 SLP229 T01560122 10178 20128 56013 (JK)",
"72494523293","2022-01-06T00:53:00","7","37.35938","-121.92444","15.0","SAN JOSE, CA US","FM-15","KSJC ","V020","310,5,N,0046,5","02438,5,M,N","016093,5,N,5","+0139,5","+0111,5","10227,5","01,0000,9,5",,,,,,,,,,,,,,,,,,,,,,,,,,"04,5,+00671,5,99,9","07,5,+02438,5,99,9","07,5,+03658,5,99,9","2,99,1,+00671,5,9","3,99,1,+02438,5,9","3,99,1,+03658,5,9","9,AGL   ,+99999,+99999","99,99,9,99,9,99,9,00671,1,99,9,99,9",,,,,,,,,,,"10227,5,10209,5",,,,,,,,,,"MET10701/05/22 16:53:01 METAR KSJC 060053Z 31009KT 10SM SCT022 BKN080 BKN120 14/11 A3020 RMK AO2 SLP227 T01390111",
"72494523293","2022-01-06T01:53:00","7","37.35938","-121.92444","15.0","SAN JOSE, CA US","FM-15","KSJC ","V020","320,5,N,0036,5","02438,5,M,N","016093,5,N,5","+0128,5","+0111,5","10228,5","01,0000,9,5",,,,,,,,,,,,,,,,,,,,,,,,,,"04,5,+00671,5,99,9","07,5,+02438,5,99,9","07,5,+03658,5,99,9","2,99,1,+00671,5,9","3,99,1,+02438,5,9","3,99,1,+03658,5,9","9,AGL   ,+99999,+99999","99,99,9,99,9,99,9,00671,1,99,9,99,9",,,,,,,,,,,"10230,5,10212,5",,,,,,,,,,"MET10701/05/22 17:53:01 METAR KSJC 060153Z 32007KT 10SM SCT022 BKN080 BKN120 13/11 A3021 RMK AO2 SLP228 T01280111",
"72494523293","2022-01-06T02:28:00","7","37.35938","-121.92444","15.0","SAN JOSE, CA US","FM-16","KSJC ","V020","340,5,N,0036,5","00671,5,M,N","016093,5,N,5","+0128,5","+0111,5","99999,9",,,,,,,,,,,,,,,,,,,,,,,,,,,"04,5,+00488,5,99,9","07,5,+00671,5,99,9","07,5,+03658,5,99,9","2,99,1,+00488,5,9","3,99,1,+00671,5,9","3,99,1,+03658,5,9","9,AGL   ,+99999,+99999","99,99,9,99,9,99,9,00488,1,99,9,99,9",,,,,,,,,,,"10230,5,10212,5",,,,,,,,,,"MET10001/05/22 18:28:01 SPECI KSJC 060228Z 34007KT 10SM SCT016 BKN022 BKN120 13/11 A3021 RMK AO2 T01280111",
"72494523293","2022-01-06T02:53:00","7","37.35938","-121.92444","15.0","SAN JOSE, CA US","FM-15","KSJC ","V020","340,5,N,0015,5","00488,5,M,N","016093,5,N,5","+0128,5","+0111,5","10227,5","01,0000,9,5",,,,,,,,,,,,,,,,,,,,,,,,,,"07,5,+00488,5,99,9","07,5,+00701,5,99,9","08,5,+04877,5,99,9","3,99,1,+00488,5,9","3,99,1,+00701,5,9","4,99,1,+04877,5,9","9,AGL   ,+99999,+99999","99,99,9,99,9,99,9,00488,1,99,9,99,9",,,,,,,,,,,"10227,5,10209,5","6,9,002,9,+999,9",,,,,,,,,"MET11301/05/22 18:53:01 METAR KSJC 060253Z 34003KT 10SM BKN016 BKN023 OVC160 13/11 A3020 RMK AO2 SLP227 T01280111 56002",
"72494523293","2022-01-06T03:44:00","7","37.35938","-121.92444","15.0","SAN JOSE, CA US","FM-16","KSJC ","V020","330,5,N,0015,5","00396,5,M,N","016093,5,N,5","+0128,5","+0111,5","99999,9",,,,,,,,,,,,,,,,,,,,,,,,,,,"02,5,+00305,5,99,9","07,5,+00396,5,99,9","08,5,+04877,5,99,9","1,99,1,+00305,5,9","3,99,1,+00396,5,9","4,99,1,+04877,5,9","9,AGL   ,+99999,+99999","99,99,9,99,9,99,9,00305,1,99,9,99,9",,,,,,,,,,,"10227,5,10209,5",,,,,,,,,,"MET10001/05/22 19:44:01 SPECI KSJC 060344Z 33003KT 10SM FEW010 BKN013 OVC160 13/11 A3020 RMK AO2 T01280111",
"72494523293","2022-01-06T03:53:00","7","37.35938","-121.92444","15.0","SAN JOSE, CA US","FM-15","KSJC ","V020","360,5,N,0015,5","00396,5,M,N","016093,5,N,5","+0133,5","+0117,5","10228,5","01,0000,9,5",,,,,,,,,,,,,,,,,,,,,,,,,,"02,5,+00244,5,99,9","07,5,+00396,5,99,9","08,5,+04877,5,99,9","1,99,1,+00244,5,9","3,99,1,+00396,5,9","4,99,1,+04877,5,9","9,AGL   ,+99999,+99999","99,99,9,99,9,99,9,00244,1,99,9,99,9",,,,,,,,,,,"10230,5,10212,5",,,,,,,,,,"MET10701/05/22 19:53:01 METAR KSJC 060353Z 36003KT 10SM FEW008 BKN013 OVC160 13/12 A3021 RMK AO2 SLP228 T01330117",
"72494523293","2022-01-06T04:53:00","7","37.35938","-121.92444","15.0","SAN JOSE, CA US","FM-15","KSJC ","V020","060,5,N,0015,5","00396,5,M,N","016093,5,N,5","+0133,5","+0117,5","10224,5","01,0000,9,5",,,,,,,,,,,,,,,,,,,,,,,,,,"02,5,+00244,5,99,9","08,5,+00396,5,99,9",,"1,99,1,+00244,5,9","4,99,1,+00396,5,9",,"9,AGL   ,+99999,+99999","99,99,9,99,9,99,9,00244,1,99,9,99,9",,,,,,,,,,,"10224,5,10205,5",,,,,,,,,,"MET10001/05/22 20:53:02 METAR KSJC 060453Z 06003KT 10SM FEW008 OVC013 13/12 A3019 RMK AO2 SLP224 T01330117",
"72494523293","2022-01-06T05:27:00","7","37.35938","-121.92444","15.0","SAN JOSE, CA US","FM-16","KSJC ","V020","999,9,C,0000,5","00457,5,M,N","014484,5,N,5","+0133,5","+0117,5","99999,9",,,,,,,,,,,,,,,,,,,,,,,,,,,"08,5,+00457,5,99,9",,,"4,99,1,+00457,5,9",,,"9,AGL   ,+99999,+99999","99,99,9,99,9,99,9,00457,1,99,9,99,9",,,,,,,,,,,"10227,5,10209,5",,,,,,,,,,"MET08501/05/22 21:27:02 SPECI KSJC 060527Z 00000KT 9SM OVC015 13/12 A3020 RMK AO2 T01330117",
"72494523293","2022-01-06T05:53:00","7","37.35938","-121.92444","15.0","SAN JOSE, CA US","FM-15","KSJC ","V020","330,5,N,0021,5","00457,5,M,N","014484,5,N,5","+0133,5","+0117,5","10222,5","01,0000,9,5",,,,,,,,,,,,,,,,,,,,,,,,,,"02,5,+00305,5,99,9","08,5,+00457,5,99,9",,"1,99,1,+00305,5,9","4,99,1,+00457,5,9",,"9,AGL   ,+99999,+99999","99,99,9,99,9,99,9,00305,1,99,9,99,9","060,M,+0156,1","060,N,+0122,1",,,,,,,,,"10224,5,10205,5","8,9,005,9,+999,9",,,,,,,,,"MET11701/05/22 21:53:02 METAR KSJC 060553Z 33004KT 9SM FEW010 OVC015 13/12 A3019 RMK AO2 SLP222 T01330117 10156 20122 58005",
"72494523293","2022-01-06T06:53:00","7","37.35938","-121.92444","15.0","SAN JOSE, CA US","FM-15","KSJC ","V020","320,5,N,0021,5","00457,5,M,N","012875,5,N,5","+0133,5","+0117,5","10220,5","01,0000,9,5",,,,,,,,,,,,,,,,,,,,,,,,,,"08,5,+00457,5,99,9",,,"4,99,1,+00457,5,9",,,"9,AGL   ,+99999,+99999","99,99,9,99,9,99,9,00457,1,99,9,99,9",,,,,,,,,,,"10220,5,10202,5",,,,,,,,,,"MET09201/05/22 22:53:02 METAR KSJC 060653Z 32004KT 8SM OVC015 13/12 A3018 RMK AO2 SLP220 T01330117",
"72494523293","2022-01-06T07:03:00","7","37.35938","-121.92444","15.0","SAN JOSE, CA US","FM-16","KSJC ","V020","999,9,C,0000,5","00396,5,M,N","012875,5,N,5","+0133,5","+0117,5","99999,9",,,,,,,,,,,,,,,,,,,,,,,,,,,"08,5,+00396,5,99,9",,,"4,99,1,+00396,5,9",,,"9,AGL   ,+99999,+99999","99,99,9,99,9,99,9,00396,1,99,9,99,9",,,,,,,,,,,"10220,5,10202,5",,,,,,,,,,"MET08501/05/22 23:03:02 SPECI KSJC 060703Z 00000KT 8SM OVC013 13/12 A3018 RMK AO2 T01330117",
"72494523293","2022-01-06T07:53:00","7","37.35938","-121.92444","15.0","SAN JOSE, CA US","FM-15","KSJC ","V020","010,5,N,0021,5","00396,5,M,N","012875,5,N,5","+0139,5","+0117,5","10216,5","01,0000,9,5",,,,,,,,,,,,,,,,,,,,,,,,,,"08,5,+00396,5,99,9",,,"4,99,1,+00396,5,9",,,"9,AGL   ,+99999,+99999","99,99,9,99,9,99,9,00396,1,99,9,99,9","240,M,+0178,1","240,N,+0100,1",,,,,,,,,"10217,5,10199,5",,,,,,,,,,"MET10701/05/22 23:53:02 METAR KSJC 060753Z 01004KT 8SM OVC013 14/12 A3017 RMK AO2 SLP216 LAST T01390117 401780100",
"72494523293","2022-01-06T07:59:00","6","37.35938","-121.92444","15.0","SAN JOSE, CA US","SOD  ","KSJC ","V020","999,9,9,9999,9","99999,9,9,9","999999,9,9,9","+9999,9","+9999,9","99999,9","24,0000,9,5",,,,,,,,,,,,,,,,,,,,,,,,,,,,,,,,,,"240,M,+0178,5","240,N,+0100,5",,,,,,,,,,,"10229,4,10217,4",,,,,"1,24,00671,310,9999,5","2,24,00581,310,9999,5","3,24,00179,999,9999,5","SOD69224 HR PRECIPITATION (IN): 0.00 24 HR MAX TEMP (F): 6424 HR MIN TEMP (F): 50AVERAGE STATION PRESSURE:30.205 MINIMUM SEA LEVEL PRESSURE:30.17 TIME OF OCCURRENCE:2359 PEAK WIND SPEED (MPH): 15 PEAK WIND DIR (DEG):310 PEAK WIND TIME (LST):      FASTEST 2MIN SPEED (MPH): 13FASTEST 2MIN DIR (DEG):310 FASTEST 2MIN TIME (LST):     AVERAGE WIND SPEED (MPH): 4.0 24 HR AVG TEMP (F): 57DEPART FROM NORMAL:  7  HEATING DEGREE DAYS:  8 COOLING DEGREE DAYS:  0 LATEST DAY MAX TEMP (0700-1900 LST):64  LATEST NIGHT MIN TEMP(1900-0800 LST):50 HOURLY INCREMENTAL PRECIPITATION VALUES (IN):.00 0.00 0.00 0.00 0.00 0.00 0.00 0.00 0.00 0.00 0.00 0.00 0.00 0.00 0.00 0.00 0.00 0.00 0.00 0.00 0.00 0.00 0.00 0.00",
"72494523293","2022-01-06T08:53:00","7","37.35938","-121.92444","15.0","SAN JOSE, CA US","FM-15","KSJC ","V020","310,5,N,0031,5","00396,5,M,N","016093,5,N,5","+0133,5","+0111,5","10216,5","01,0000,9,5",,,,,,,,,,,,,,,,,,,,,,,,,,"08,5,+00396,5,99,9",,,"4,99,1,+00396,5,9",,,"9,AGL   ,+99999,+99999","99,99,9,99,9,99,9,00396,1,99,9,99,9",,,,,,,,,,,"10217,5,10199,5","6,9,007,9,+999,9",,,,,,,,,"MET09901/06/22 00:53:02 METAR KSJC 060853Z 31006KT 10SM OVC013 13/11 A3017 RMK AO2 SLP216 T01330111 56007",
"72494523293","2022-01-06T09:53:00","7","37.35938","-121.92444","15.0","SAN JOSE, CA US","FM-15","KSJC ","V020","320,5,N,0026,5","00366,5,M,N","016093,5,N,5","+0133,5","+0111,5","10213,5","01,0000,9,5",,,,,,,,,,,,,,,,,,,,,,,,,,"08,5,+00366,5,99,9",,,"4,99,1,+00366,5,9",,,"9,AGL   ,+99999,+99999","99,99,9,99,9,99,9,00366,1,99,9,99,9",,,,,,,,,,,"10213,5,10195,5",,,,,,,,,,"MET09301/06/22 01:53:02 METAR KSJC 060953Z 32005KT 10SM OVC012 13/11 A3016 RMK AO2 SLP213 T01330111",
"72494523293","2022-01-06T10:53:00","7","37.35938","-121.92444","15.0","SAN JOSE, CA US","FM-15","KSJC ","V020","999,9,C,0000,5","00366,5,M,N","016093,5,N,5","+0133,5","+0111,5","10211,5","01,0000,9,5",,,,,,,,,,,,,,,,,,,,,,,,,,"08,5,+00366,5,99,9",,,"4,99,1,+00366,5,9",,,"9,AGL   ,+99999,+99999","99,99,9,99,9,99,9,00366,1,99,9,99,9",,,,,,,,,,,"10213,5,10195,5",,,,,,,,,,"MET09301/06/22 02:53:02 METAR KSJC 061053Z 00000KT 10SM OVC012 13/11 A3016 RMK AO2 SLP211 T01330111",
"72494523293","2022-01-06T11:53:00","7","37.35938","-121.92444","15.0","SAN JOSE, CA US","FM-15","KSJC ","V020","250,5,N,0015,5","00396,5,M,N","016093,5,N,5","+0133,5","+0111,5","10206,5","01,0000,9,5",,,,,,,,,,,,,,,,,,,,,,,,,,"08,5,+00396,5,99,9",,,"4,99,1,+00396,5,9",,,"9,AGL   ,+99999,+99999","99,99,9,99,9,99,9,00396,1,99,9,99,9","060,M,+0139,1","060,N,+0128,1",,,,,,,,,"10207,5,10188,5","8,9,010,9,+999,9",,,,,,,,,"MET11101/06/22 03:53:02 METAR KSJC 061153Z 25003KT 10SM OVC013 13/11 A3014 RMK AO2 SLP206 T01330111 10139 20128 58010",
"72494523293","2022-01-06T12:53:00","7","37.35938","-121.92444","15.0","SAN JOSE, CA US","FM-15","KSJC ","V020","999,9,C,0000,5","00335,5,M,N","014484,5,N,5","+0128,5","+0111,5","10202,5","01,0000,9,5",,,,,,,,,,,,,,,,,,,,,,,,,,"08,5,+00335,5,99,9",,,"4,99,1,+00335,5,9",,,"9,AGL   ,+99999,+99999","99,99,9,99,9,99,9,00335,1,99,9,99,9",,,,,,,,,,,"10203,5,10185,5",,,,,,,,,,"MET09201/06/22 04:53:02 METAR KSJC 061253Z 00000KT 9SM OVC011 13/11 A3013 RMK AO2 SLP202 T01280111",
"72494523293","2022-01-06T13:53:00","7","37.35938","-121.92444","15.0","SAN JOSE, CA US","FM-15","KSJC ","V020","999,9,C,0000,5","00335,5,M,N","014484,5,N,5","+0133,5","+0111,5","10202,5","01,0000,9,5",,,,,,,,,,,,,,,,,,,,,,,,,,"08,5,+00335,5,99,9",,,"4,99,1,+00335,5,9",,,"9,AGL   ,+99999,+99999","99,99,9,99,9,99,9,00335,1,99,9,99,9",,,,,,,,,,,"10203,5,10185,5",,,,,,,,,,"MET09701/06/22 05:53:02 METAR KSJC 061353Z 00000KT 9SM OVC011 13/11 A3013 RMK AO2 SLP202 T01330111 (TC)",
"72494523293","2022-01-06T14:53:00","7","37.35938","-121.92444","15.0","SAN JOSE, CA US","FM-15","KSJC ","V020","999,9,C,0000,5","00366,5,M,N","016093,5,N,5","+0128,5","+0106,5","10200,5","01,0000,9,5",,,,,,,,,,,,,,,,,,,,,,,,,,"08,5,+00366,5,99,9",,,"4,99,1,+00366,5,9",,,"9,AGL   ,+99999,+99999","99,99,9,99,9,99,9,00366,1,99,9,99,9",,,,,,,,,,,"10203,5,10185,5","6,9,005,9,+999,9",,,,,,,,,"MET10401/06/22 06:53:02 METAR KSJC 061453Z 00000KT 10SM OVC012 13/11 A3013 RMK AO2 SLP200 T01280106 56005 (TC)",
"72494523293","2022-01-06T15:53:00","7","37.35938","-121.92444","15.0","SAN JOSE, CA US","FM-15","KSJC ","V020","999,9,C,0000,5","00366,5,M,N","012875,5,N,5","+0128,5","+0106,5","10200,5","01,0000,9,5",,,,,,,,,,,,,,,,,,,,,,,,,,"10,5,+00000,5,99,9","08,5,+00366,5,99,9",,"6,99,1,+00000,5,9","4,99,1,+00366,5,9",,"9,AGL   ,+99999,+99999","99,99,9,99,9,99,9,00000,1,99,9,99,9",,,,,,,,,,,"10200,5,10182,5",,,,,,,,,,"MET10401/06/22 07:53:02 METAR KSJC 061553Z 00000KT 8SM FEW000 OVC012 13/11 A3012 RMK AO2 SLP200 T01280106 (TC)",
"72494523293","2022-01-06T16:53:00","7","37.35938","-121.92444","15.0","SAN JOSE, CA US","FM-15","KSJC ","V020","130,5,N,0015,5","00366,5,M,N","012875,5,N,5","+0133,5","+0106,5","10197,5","01,0000,9,5",,,,,,,,,,,,,,,,,,,,,,,,,,"10,5,+00000,5,99,9","08,5,+00366,5,99,9",,"6,99,1,+00000,5,9","4,99,1,+00366,5,9",,"9,AGL   ,+99999,+99999","99,99,9,99,9,99,9,00000,1,99,9,99,9",,,,,,,,,,,"10196,5,10178,5",,,,,,,,,,"MET10401/06/22 08:53:02 METAR KSJC 061653Z 13003KT 8SM FEW000 OVC012 13/11 A3011 RMK AO2 SLP197 T01330106 (TC)",
"72494523293","2022-01-06T17:53:00","7","37.35938","-121.92444","15.0","SAN JOSE, CA US","FM-15","KSJC ","V020","999,9,C,0000,5","00366,5,M,N","012875,5,N,5","+0133,5","+0106,5","10197,5","01,0000,9,5",,,,,,,,,,,,,,,,,,,,,,,,,,"10,5,+00000,5,99,9","08,5,+00366,5,99,9",,"6,99,1,+00000,5,9","4,99,1,+00366,5,9",,"9,AGL   ,+99999,+99999","99,99,9,99,9,99,9,00000,1,99,9,99,9","060,M,+0133,1","060,N,+0128,1",,,,,,,,,"10200,5,10182,5","5,9,003,9,+999,9",,,,,,,,,"MET12201/06/22 09:53:02 METAR KSJC 061753Z 00000KT 8SM FEW000 OVC012 13/11 A3012 RMK AO2 SLP197 T01330106 10133 20128 55003 (TC)",
"72494523293","2022-01-06T18:53:00","7","37.35938","-121.92444","15.0","SAN JOSE, CA US","FM-15","KSJC ","V020","999,9,C,0000,5","00366,5,M,N","012875,5,N,5","+0139,5","+0106,5","10197,5","01,0000,9,5",,,,,,,,,,,,,,,,,,,,,,,,,,"10,5,+00000,5,99,9","07,5,+00366,5,99,9","08,5,+00457,5,99,9","6,99,1,+00000,5,9","3,99,1,+00366,5,9","4,99,1,+00457,5,9","9,AGL   ,+99999,+99999","99,99,9,99,9,99,9,00000,1,99,9,99,9",,,,,,,,,,,"10196,5,10178,5",,,,,,,,,,"MET11101/06/22 10:53:02 METAR KSJC 061853Z 00000KT 8SM FEW000 BKN012 OVC015 14/11 A3011 RMK AO2 SLP197 T01390106 (TC)",
"72494523293","2022-01-06T19:53:00","7","37.35938","-121.92444","15.0","SAN JOSE, CA US","FM-15","KSJC ","V020","999,9,C,0000,5","00366,5,M,N","012875,5,N,5","+0144,5","+0106,5","10185,5","01,0000,9,5",,,,,,,,,,,,,,,,,,,,,,,,,,"02,5,+00152,5,99,9","07,5,+00366,5,99,9","08,5,+00457,5,99,9","1,99,1,+00152,5,9","3,99,1,+00366,5,9","4,99,1,+00457,5,9","9,AGL   ,+99999,+99999","99,99,9,99,9,99,9,00152,1,99,9,99,9",,,,,,,,,,,"10186,5,10168,5",,,,,,,,,,"MET11101/06/22 11:53:02 METAR KSJC 061953Z 00000KT 8SM FEW005 BKN012 OVC015 14/11 A3008 RMK AO2 SLP185 T01440106 (TC)",
"72494523293","2022-01-06T20:53:00","7","37.35938","-121.92444","15.0","SAN JOSE, CA US","FM-15","KSJC ","V020","360,5,N,0036,5","00427,5,M,N","012875,5,N,5","+0156,5","+0111,5","10173,5","01,0000,9,5",,,,,,,,,,,,,,,,,,,,,,,,,,"02,5,+00152,5,99,9","07,5,+00427,5,99,9","08,5,+00518,5,99,9","1,99,1,+00152,5,9","3,99,1,+00427,5,9","4,99,1,+00518,5,9","9,AGL   ,+99999,+99999","99,99,9,99,9,99,9,00152,1,99,9,99,9",,,,,,,,,,,"10176,5,10158,5","8,9,024,9,+999,9",,,,,,,,,"MET11701/06/22 12:53:02 METAR KSJC 062053Z 36007KT 8SM FEW005 BKN014 OVC017 16/11 A3005 RMK AO2 SLP173 T01560111 58024 (TC)",
"72494523293","2022-01-06T21:03:00","7","37.35938","-121.92444","15.0","SAN JOSE, CA US","FM-16","KSJC ","V020","350,5,N,0031,5","00488,5,M,N","012875,5,N,5","+0150,5","+0111,5","99999,9",,,,,,,,,,,,,,,,,,,,,,,,,,,"10,5,+00000,5,99,9","07,5,+00488,5,99,9","08,5,+01524,5,99,9","6,99,1,+00000,5,9","3,99,1,+00488,5,9","4,99,1,+01524,5,9","9,AGL   ,+99999,+99999","99,99,9,99,9,99,9,00000,1,99,9,99,9",,,,,,,,,,,"10173,5,10155,5",,,,,,,,,,"MET10401/06/22 13:03:02 SPECI KSJC 062103Z 35006KT 8SM FEW000 BKN016 OVC050 15/11 A3004 RMK AO2 T01500111 (JK)",
"72494523293","2022-01-06T21:53:00","7","37.35938","-121.92444","15.0","SAN JOSE, CA US","FM-15","KSJC ","V020","350,5,N,0026,5","00488,5,M,N","012875,5,N,5","+0144,5","+0111,5","10162,5","01,0000,9,5",,,,,,,,,,,,,,,,,,,,,,,,,,"10,5,+00000,5,99,9","07,5,+00488,5,99,9","07,5,+00701,5,99,9","6,99,1,+00000,5,9","3,99,1,+00488,5,9","3,99,1,+00701,5,9","9,AGL   ,+99999,+99999","99,99,9,99,9,99,9,00000,1,99,9,99,9",,,,,,,,,,,"10163,5,10144,5",,,,,,,,,,"MET11101/06/22 13:53:02 METAR KSJC 062153Z 35005KT 8SM FEW000 BKN016 BKN023 14/11 A3001 RMK AO2 SLP162 T01440111 (JK)",
"72494523293","2022-01-06T22:41:00","7","37.35938","-121.92444","15.0","SAN JOSE, CA US","FM-16","KSJC ","V020","320,5,N,0031,5","22000,5,9,N","012875,5,N,5","+0150,5","+0111,5","99999,9",,,,,,,,,,,,,,,,,,,,,,,,,,,"10,5,+00000,5,99,9","04,5,+00457,5,99,9","04,5,+00701,5,99,9","6,99,1,+00000,5,9","2,99,1,+00457,5,9","2,99,1,+00701,5,9","9,AGL   ,+99999,+99999","04,99,5,99,9,99,9,00000,1,99,9,99,9",,,,,,,,,,,"10159,5,10141,5",,,,,,,,,,"MET10401/06/22 14:41:02 SPECI KSJC 062241Z 32006KT 8SM FEW000 SCT015 SCT023 15/11 A3000 RMK AO2 T01500111 (JK)","D01      0ADE726"
"72494523293","2022-01-06T22:53:00","7","37.35938","-121.92444","15.0","SAN JOSE, CA US","FM-15","KSJC ","V020","350,5,N,0026,5","22000,5,9,N","014484,5,N,5","+0150,5","+0111,5","10157,5","01,0000,9,5",,,,,,,,,,,,,,,,,,,,,,,,,,"10,5,+00000,5,99,9","04,5,+00457,5,99,9","04,5,+00701,5,99,9","6,99,1,+00000,5,9","2,99,1,+00457,5,9","2,99,1,+00701,5,9","9,AGL   ,+99999,+99999","04,99,5,99,9,99,9,00000,1,99,9,99,9",,,,,,,,,,,"10159,5,10141,5",,,,,,,,,,"MET11101/06/22 14:53:02 METAR KSJC 062253Z 35005KT 9SM FEW000 SCT015 SCT023 15/11 A3000 RMK AO2 SLP157 T01500111 (JK)","D01      0ADE726"
"72494523293","2022-01-06T23:53:00","7","37.35938","-121.92444","15.0","SAN JOSE, CA US","FM-15","KSJC ","V020","310,5,N,0036,5","22000,5,9,N","014484,5,N,5","+0133,5","+0106,5","10154,5","01,0000,9,5",,,,,,,,,,,,,,,,,,,,,,,,,,"10,5,+00000,5,99,9","04,5,+00457,5,99,9","04,5,+00701,5,99,9","6,99,1,+00000,5,9","2,99,1,+00457,5,9","2,99,1,+00701,5,9","9,AGL   ,+99999,+99999","04,99,5,99,9,99,9,00000,1,99,9,99,9","060,M,+0156,1","060,N,+0128,1",,,,,,,,,"10156,5,10138,5","6,9,019,9,+999,9",,,,,,,,,"MET12901/06/22 15:53:02 METAR KSJC 062353Z 31007KT 9SM FEW000 SCT015 SCT023 13/11 A2999 RMK AO2 SLP154 T01330106 10156 20128 56019 (JK)","D01      0ADE726"
"72494523293","2022-01-07T00:48:00","7","37.35938","-121.92444","15.0","SAN JOSE, CA US","FM-16","KSJC ","V020","320,5,N,0036,5","00305,5,M,N","014484,5,N,5","+0130,5","+0110,5","99999,9",,,,,,,,,,,,,,,,,,,,,,,,,,,"10,5,+00000,5,99,9","07,5,+00305,5,99,9","08,5,+01524,5,99,9","6,99,1,+00000,5,9","3,99,1,+00305,5,9","4,99,1,+01524,5,9","9,AGL   ,+99999,+99999","99,99,9,99,9,99,9,00000,1,99,9,99,9",,,,,,,,,,,"10152,5,10134,5",,,,,,,,,,"MET08901/06/22 16:48:01 SPECI KSJC 070048Z 32007KT 9SM FEW000 BKN010 OVC050 13/11 A2998 RMK AO2",
"72494523293","2022-01-07T00:53:00","7","37.35938","-121.92444","15.0","SAN JOSE, CA US","FM-15","KSJC ","V020","330,5,N,0031,5","00305,5,M,N","014484,5,N,5","+0128,5","+0106,5","10152,5","01,0000,9,5",,,,,,,,,,,,,,,,,,,,,,,,,,"10,5,+00000,5,99,9","07,5,+00305,5,99,9","08,5,+01524,5,99,9","6,99,1,+00000,5,9","3,99,1,+00305,5,9","4,99,1,+01524,5,9","9,AGL   ,+99999,+99999","99,99,9,99,9,99,9,00000,1,99,9,99,9",,,,,,,,,,,"10152,5,10134,5",,,,,,,,,,"MET10601/06/22 16:53:01 METAR KSJC 070053Z 33006KT 9SM FEW000 BKN010 OVC050 13/11 A2998 RMK AO2 SLP152 T01280106",
"72494523293","2022-01-07T01:53:00","7","37.35938","-121.92444","15.0","SAN JOSE, CA US","FM-15","KSJC ","V020","310,5,N,0026,5","00305,5,M,N","009656,5,N,5","+0128,5","+0106,5","10152,5","01,0000,9,5",,,,,,,,,,,,,,,,,,,,"0,0,00,1,0,1,5","10,5",,,,,"10,5,+00000,5,99,9","07,5,+00305,5,99,9","08,5,+00488,5,99,9","6,99,1,+00000,5,9","3,99,1,+00305,5,9","4,99,1,+00488,5,9","9,AGL   ,+99999,+99999","99,99,9,99,9,99,9,00000,1,99,9,99,9",,,,,,,,,,,"10152,5,10134,5",,,,,,,,,,"MET10901/06/22 17:53:01 METAR KSJC 070153Z 31005KT 6SM BR FEW000 BKN010 OVC016 13/11 A2998 RMK AO2 SLP152 T01280106",
"72494523293","2022-01-07T02:53:00","7","37.35938","-121.92444","15.0","SAN JOSE, CA US","FM-15","KSJC ","V020","270,5,N,0021,5","00305,5,M,N","009656,5,N,5","+0122,5","+0106,5","10150,5","01,0000,9,5",,,,,,,,,,,,,,,,,,,,"0,0,00,1,0,1,5","10,5",,,,,"10,5,+00000,5,99,9","07,5,+00305,5,99,9","08,5,+00488,5,99,9","6,99,1,+00000,5,9","3,99,1,+00305,5,9","4,99,1,+00488,5,9","9,AGL   ,+99999,+99999","99,99,9,99,9,99,9,00000,1,99,9,99,9",,,,,,,,,,,"10152,5,10134,5","7,9,004,9,+999,9",,,,,,,,,"MET11501/06/22 18:53:01 METAR KSJC 070253Z 27004KT 6SM BR FEW000 BKN010 OVC016 12/11 A2998 RMK AO2 SLP150 T01220106 57004",
"72494523293","2022-01-07T03:33:00","7","37.35938","-121.92444","15.0","SAN JOSE, CA US","FM-16","KSJC ","V020","340,5,N,0026,5","00244,5,M,N","008047,5,N,5","+0122,5","+0106,5","99999,9",,,,,,,,,,,,,,,,,,,,,"0,0,00,1,0,1,5","10,5",,,,,"10,5,+00000,5,99,9","08,5,+00244,5,99,9",,"6,99,1,+00000,5,9","4,99,1,+00244,5,9",,"9,AGL   ,+99999,+99999","99,99,9,99,9,99,9,00000,1,99,9,99,9",,,,,,,,,,,"10152,5,10134,5",,,,,,,,,,"MET09501/06/22 19:33:01 SPECI KSJC 070333Z 34005KT 5SM BR FEW000 OVC008 12/11 A2998 RMK AO2 T01220106",
"72494523293","2022-01-07T03:53:00","7","37.35938","-121.92444","15.0","SAN JOSE, CA US","FM-15","KSJC ","V020","350,5,N,0026,5","00244,5,M,N","006437,5,N,5","+0122,5","+0106,5","10151,5","01,0000,9,5",,,,,,,,,,,,,,,,,,,,"0,0,00,1,0,1,5","10,5",,,,,"10,5,+00000,5,99,9","08,5,+00244,5,99,9",,"6,99,1,+00000,5,9","4,99,1,+00244,5,9",,"9,AGL   ,+99999,+99999","99,99,9,99,9,99,9,00000,1,99,9,99,9",,,,,,,,,,,"10152,5,10134,5",,,,,,,,,,"MET10201/06/22 19:53:01 METAR KSJC 070353Z 35005KT 4SM BR FEW000 OVC008 12/11 A2998 RMK AO2 SLP151 T01220106",
"72494523293","2022-01-07T04:53:00","7","37.35938","-121.92444","15.0","SAN JOSE, CA US","FM-15","KSJC ","V020","310,5,N,0036,5","00183,5,M,N","008047,5,N,5","+0117,5","+0106,5","10154,5","01,0000,9,5",,,,,,,,,,,,,,,,,,,,"0,0,00,1,0,1,5","10,5",,,,,"10,5,+00000,5,99,9","08,5,+00183,5,99,9",,"6,99,1,+00000,5,9","4,99,1,+00183,5,9",,"9,AGL   ,+99999,+99999","99,99,9,99,9,99,9,00000,1,99,9,99,9",,,,,,,,,,,"10156,5,10138,5",,,,,,,,,,"MET10201/06/22 20:53:02 METAR KSJC 070453Z 31007KT 5SM BR FEW000 OVC006 12/11 A2999 RMK AO2 SLP154 T01170106",
"72494523293","2022-01-07T05:38:00","7","37.35938","-121.92444","15.0","SAN JOSE, CA US","FM-16","KSJC ","V020","310,5,N,0031,5","00427,5,M,N","012875,5,N,5","+0111,5","+0100,5","99999,9",,,,,,,,,,,,,,,,,,,,,,,,,,,"10,5,+00000,5,99,9","04,5,+00244,5,99,9","08,5,+00427,5,99,9","6,99,1,+00000,5,9","2,99,1,+00244,5,9","4,99,1,+00427,5,9","9,AGL   ,+99999,+99999","99,99,9,99,9,99,9,00000,1,99,9,99,9",,,,,,,,,,,"10156,5,10138,5",,,,,,,,,,"MET09901/06/22 21:38:02 SPECI KSJC 070538Z 31006KT 8SM FEW000 SCT008 OVC014 11/10 A2999 RMK AO2 T01110100",
"72494523293","2022-01-07T05:53:00","7","37.35938","-121.92444","15.0","SAN JOSE, CA US","FM-15","KSJC ","V020","310,5,N,0031,5","00427,5,M,N","012875,5,N,5","+0117,5","+0100,5","10155,5","01,0000,9,5",,,,,,,,,,,,,,,,,,,,,,,,,,"10,5,+00000,5,99,9","02,5,+00244,5,99,9","07,5,+00427,5,99,9","6,99,1,+00000,5,9","1,99,1,+00244,5,9","3,99,1,+00427,5,9","9,AGL   ,+99999,+99999","99,99,9,99,9,99,9,00000,1,99,9,99,9","060,M,+0133,1","060,N,+0111,1",,,,,,,,,"10156,5,10138,5","1,9,005,9,+999,9",,,,,,,,,"MET12401/06/22 21:53:02 METAR KSJC 070553Z 31006KT 8SM FEW000 FEW008 BKN014 12/10 A2999 RMK AO2 SLP155 T01170100 10133 20111 51005",
"72494523293","2022-01-07T06:00:00","7","37.35938","-121.92444","15.0","SAN JOSE, CA US","FM-16","KSJC ","V020","320,5,N,0031,5","00488,5,M,N","012875,5,N,5","+0117,5","+0100,5","99999,9",,,,,,,,,,,,,,,,,,,,,,,,,,,"10,5,+00000,5,99,9","02,5,+00244,5,99,9","07,5,+00488,5,99,9","6,99,1,+00000,5,9","1,99,1,+00244,5,9","3,99,1,+00488,5,9","9,AGL   ,+99999,+99999","99,99,9,99,9,99,9,00000,1,99,9,99,9",,,,,,,,,,,"10156,5,10138,5",,,,,,,,,,"MET09901/06/22 22:00:02 SPECI KSJC 070600Z 32006KT 8SM FEW000 FEW008 BKN016 12/10 A2999 RMK AO2 T01170100",
"72494523293","2022-01-07T06:53:00","7","37.35938","-121.92444","15.0","SAN JOSE, CA US","FM-15","KSJC ","V020","040,5,N,0015,5","00549,5,M,N","014484,5,N,5","+0122,5","+0094,5","10154,5","01,0000,9,5",,,,,,,,,,,,,,,,,,,,,,,,,,"10,5,+00000,5,99,9","02,5,+00244,5,99,9","07,5,+00549,5,99,9","6,99,1,+00000,5,9","1,99,1,+00244,5,9","3,99,1,+00549,5,9","9,AGL   ,+99999,+99999","99,99,9,99,9,99,9,00000,1,99,9,99,9",,,,,,,,,,,"10156,5,10138,5",,,,,,,,,,"MET10601/06/22 22:53:02 METAR KSJC 070653Z 04003KT 9SM FEW000 FEW008 BKN018 12/09 A2999 RMK AO2 SLP154 T01220094",
"72494523293","2022-01-07T07:32:00","7","37.35938","-121.92444","15.0","SAN JOSE, CA US","FM-16","KSJC ","V020","999,9,C,0000,5","00427,5,M,N","016093,5,N,5","+0117,5","+0094,5","99999,9",,,,,,,,,,,,,,,,,,,,,,,,,,,"10,5,+00000,5,99,9","07,5,+00427,5,99,9",,"6,99,1,+00000,5,9","3,99,1,+00427,5,9",,"9,AGL   ,+99999,+99999","99,99,9,99,9,99,9,00000,1,99,9,99,9",,,,,,,,,,,"10152,5,10134,5",,,,,,,,,,"MET09301/06/22 23:32:02 SPECI KSJC 070732Z 00000KT 10SM FEW000 BKN014 12/09 A2998 RMK AO2 T01170094",
"72494523293","2022-01-07T07:53:00","7","37.35938","-121.92444","15.0","SAN JOSE, CA US","FM-15","KSJC ","V020","999,9,C,0000,5","00427,5,M,N","016093,5,N,5","+0117,5","+0094,5","10154,5","01,0000,9,5",,,,,,,,,,,,,,,,,,,,,,,,,,"10,5,+00000,5,99,9","07,5,+00427,5,99,9","08,5,+00610,5,99,9","6,99,1,+00000,5,9","3,99,1,+00427,5,9","4,99,1,+00610,5,9","9,AGL   ,+99999,+99999","99,99,9,99,9,99,9,00000,1,99,9,99,9","240,M,+0156,1","240,N,+0111,1",,,,,,,,,"10156,5,10138,5",,,,,,,,,,"MET12201/06/22 23:53:02 METAR KSJC 070753Z 00000KT 10SM FEW000 BKN014 OVC020 12/09 A2999 RMK AO2 SLP154 LAST T01170094 401560111",
"72494523293","2022-01-07T07:59:00","6","37.35938","-121.92444","15.0","SAN JOSE, CA US","SOD  ","KSJC ","V020","999,9,9,9999,9","99999,9,9,9","999999,9,9,9","+9999,9","+9999,9","99999,9","24,0000,9,5",,,,,,,,,,,,,,,,,"AU,13,BR  ,5",,,,,"01,5,24,5",,,,,,,,,,,,"240,M,+0156,5","240,N,+0111,5",,,,,,,,,,,"10159,4,10149,4",,,,,"1,24,00581,300,9999,5","2,24,00536,300,9999,5","3,24,00165,999,9999,5","SOD70924 HR PRECIPITATION (IN): 0.00 WEATHER(CODE):1  24 HR MAX TEMP (F): 6024 HR MIN TEMP (F): 52AVERAGE STATION PRESSURE:30.000 MINIMUM SEA LEVEL PRESSURE:29.97 TIME OF OCCURRENCE:1941 PEAK WIND SPEED (MPH): 13 PEAK WIND DIR (DEG):300 PEAK WIND TIME (LST):      FASTEST 2MIN SPEED (MPH): 12FASTEST 2MIN DIR (DEG):300 FASTEST 2MIN TIME (LST):     AVERAGE WIND SPEED (MPH): 3.7 24 HR AVG TEMP (F): 56DEPART FROM NORMAL:  6  HEATING DEGREE DAYS:  9 COOLING DEGREE DAYS:  0 LATEST DAY MAX TEMP (0700-1900 LST):60  LATEST NIGHT MIN TEMP(1900-0800 LST):55 HOURLY INCREMENTAL PRECIPITATION VALUES (IN):.00 0.00 0.00 0.00 0.00 0.00 0.00 0.00 0.00 0.00 0.00 0.00 0.00 0.00 0.00 0.00 0.00 0.00 0.00 0.00 0.00 0.00 0.00 0.00",
"72494523293","2022-01-07T08:05:00","7","37.35938","-121.92444","15.0","SAN JOSE, CA US","FM-16","KSJC ","V020","999,9,C,0000,5","00274,5,M,N","016093,5,N,5","+0117,5","+0094,5","99999,9",,,,,,,,,,,,,,,,,,,,,,,,,,,"07,5,+00274,5,99,9","08,5,+00518,5,99,9",,"3,99,1,+00274,5,1","4,99,1,+00518,5,9",,"9,AGL   ,+99999,+99999","99,99,9,99,9,99,9,00274,1,99,9,99,9",,,,,,,,,,,"10152,5,10134,5",,,,,,,,,,"MET10501/07/22 00:05:02 SPECI KSJC 070805Z 00000KT 10SM BKN009 OVC017 12/09 A2998 RMK AO2 CIG 009V013 T01170094",
"72494523293","2022-01-07T08:17:00","7","37.35938","-121.92444","15.0","SAN JOSE, CA US","FM-16","KSJC ","V020","999,9,C,0000,5","00366,5,M,N","016093,5,N,5","+0122,5","+0094,5","99999,9",,,,,,,,,,,,,,,,,,,,,,,,,,,"08,5,+00366,5,99,9",,,"4,99,1,+00366,5,9",,,"9,AGL   ,+99999,+99999","99,99,9,99,9,99,9,00366,1,99,9,99,9",,,,,,,,,,,"10152,5,10134,5",,,,,,,,,,"MET08601/07/22 00:17:02 SPECI KSJC 070817Z 00000KT 10SM OVC012 12/09 A2998 RMK AO2 T01220094",
"72494523293","2022-01-07T08:53:00","7","37.35938","-121.92444","15.0","SAN JOSE, CA US","FM-15","KSJC ","V020","999,9,C,0000,5","00305,5,M,N","016093,5,N,5","+0117,5","+0094,5","10147,5","01,0000,9,5",,,,,,,,,,,,,,,,,,,,,,,,,,"07,5,+00305,5,99,9","08,5,+00488,5,99,9",,"3,99,1,+00305,5,9","4,99,1,+00488,5,9",,"9,AGL   ,+99999,+99999","99,99,9,99,9,99,9,00305,1,99,9,99,9",,,,,,,,,,,"10149,5,10131,5","8,9,008,9,+999,9",,,,,,,,,"MET10601/07/22 00:53:02 METAR KSJC 070853Z 00000KT 10SM BKN010 OVC016 12/09 A2997 RMK AO2 SLP147 T01170094 58008",
"72494523293","2022-01-07T09:37:00","7","37.35938","-121.92444","15.0","SAN JOSE, CA US","FM-16","KSJC ","V020","999,9,C,0000,5","00274,5,M,N","016093,5,N,5","+0117,5","+0094,5","99999,9",,,,,,,,,,,,,,,,,,,,,,,,,,,"08,5,+00274,5,99,9",,,"4,99,1,+00274,5,9",,,"9,AGL   ,+99999,+99999","99,99,9,99,9,99,9,00274,1,99,9,99,9",,,,,,,,,,,"10149,5,10131,5",,,,,,,,,,"MET08601/07/22 01:37:02 SPECI KSJC 070937Z 00000KT 10SM OVC009 12/09 A2997 RMK AO2 T01170094",
"72494523293","2022-01-07T09:53:00","7","37.35938","-121.92444","15.0","SAN JOSE, CA US","FM-15","KSJC ","V020","320,5,N,0015,5","00274,5,M,N","016093,5,N,5","+0117,5","+0094,5","10147,5","01,0000,9,5",,,,,,,,,,,,,,,,,,,,,,,,,,"08,5,+00274,5,99,9",,,"4,99,1,+00274,5,1",,,"9,AGL   ,+99999,+99999","99,99,9,99,9,99,9,00274,1,99,9,99,9",,,,,,,,,,,"10149,5,10131,5",,,,,,,,,,"MET10501/07/22 01:53:02 METAR KSJC 070953Z 32003KT 10SM OVC009 12/09 A2997 RMK AO2 CIG 009V013 SLP147 T01170094",
"72494523293","2022-01-07T10:02:00","7","37.35938","-121.92444","15.0","SAN JOSE, CA US","FM-16","KSJC ","V020","999,9,C,0000,5","00305,5,M,N","016093,5,N,5","+0117,5","+0094,5","99999,9",,,,,,,,,,,,,,,,,,,,,,,,,,,"07,5,+00305,5,99,9","08,5,+00457,5,99,9",,"3,99,1,+00305,5,9","4,99,1,+00457,5,9",,"9,AGL   ,+99999,+99999","99,99,9,99,9,99,9,00305,1,99,9,99,9",,,,,,,,,,,"10149,5,10131,5",,,,,,,,,,"MET09301/07/22 02:02:02 SPECI KSJC 071002Z 00000KT 10SM BKN010 OVC015 12/09 A2997 RMK AO2 T01170094",
"72494523293","2022-01-07T10:43:00","7","37.35938","-121.92444","15.0","SAN JOSE, CA US","FM-16","KSJC ","V020","999,9,C,0000,5","01189,5,M,N","016093,5,N,5","+0117,5","+0094,5","99999,9",,,,,,,,,,,,,,,,,,,,,,,,,,,"04,5,+00396,5,99,9","08,5,+01189,5,99,9",,"2,99,1,+00396,5,9","4,99,1,+01189,5,9",,"9,AGL   ,+99999,+99999","99,99,9,99,9,99,9,00396,1,99,9,99,9",,,,,,,,,,,"10149,5,10131,5",,,,,,,,,,"MET09301/07/22 02:43:02 SPECI KSJC 071043Z 00000KT 10SM SCT013 OVC039 12/09 A2997 RMK AO2 T01170094",
"72494523293","2022-01-07T10:53:00","7","37.35938","-121.92444","15.0","SAN JOSE, CA US","FM-15","KSJC ","V020","999,9,C,0000,5","01189,5,M,N","016093,5,N,5","+0117,5","+0094,5","10148,5","01,0000,9,5",,,,,,,,,,,,,,,,,,,,,,,,,,"02,5,+00396,5,99,9","08,5,+01189,5,99,9",,"1,99,1,+00396,5,9","4,99,1,+01189,5,9",,"9,AGL   ,+99999,+99999","99,99,9,99,9,99,9,00396,1,99,9,99,9",,,,,,,,,,,"10149,5,10131,5",,,,,,,,,,"MET10001/07/22 02:53:02 METAR KSJC 071053Z 00000KT 10SM FEW013 OVC039 12/09 A2997 RMK AO2 SLP148 T01170094",
"72494523293","2022-01-07T11:53:00","7","37.35938","-121.92444","15.0","SAN JOSE, CA US","FM-15","KSJC ","V020","280,5,N,0015,5","01158,5,M,N","016093,5,N,5","+0106,5","+0089,5","10148,5","01,0000,9,5",,,,,,,,,,,,,,,,,,,,,,,,,,"07,5,+01158,5,99,9",,,"3,99,1,+01158,5,9",,,"9,AGL   ,+99999,+99999","99,99,9,99,9,99,9,01158,1,99,9,99,9","060,M,+0122,1","060,N,+0106,1",,,,,,,,,"10149,5,10131,5","3,9,001,9,+999,9",,,,,,,,,"MET11101/07/22 03:53:02 METAR KSJC 071153Z 28003KT 10SM BKN038 11/09 A2997 RMK AO2 SLP148 T01060089 10122 20106 53001",
"72494523293","2022-01-07T12:53:00","7","37.35938","-121.92444","15.0","SAN JOSE, CA US","FM-15","KSJC ","V020","200,5,N,0021,5","01250,5,M,N","016093,5,N,5","+0111,5","+0089,5","10149,5","01,0000,9,5",,,,,,,,,,,,,,,,,,,,,,,,,,"08,5,+01250,5,99,9",,,"4,99,1,+01250,5,9",,,"9,AGL   ,+99999,+99999","99,99,9,99,9,99,9,01250,1,99,9,99,9",,,,,,,,,,,"10149,5,10131,5",,,,,,,,,,"MET09501/07/22 04:53:02 METAR KSJC 071253Z 20004KT 10SM OVC041 11/09 A2997 RMK AO2 SLP149 T01110089 $",
"72494523293","2022-01-07T13:53:00","7","37.35938","-121.92444","15.0","SAN JOSE, CA US","FM-15","KSJC ","V020","999,9,C,0000,5","01829,5,M,N","016093,5,N,5","+0106,5","+0083,5","10149,5","01,0000,9,5",,,,,,,,,,,,,,,,,,,,,,,,,,"02,5,+00396,5,99,9","04,5,+01158,5,99,9","07,5,+01829,5,99,9","1,99,1,+00396,5,9","2,99,1,+01158,5,9","3,99,1,+01829,5,9","9,AGL   ,+99999,+99999","99,99,9,99,9,99,9,00396,1,99,9,99,9",,,,,,,,,,,"10149,5,10131,5",,,,,,,,,,"MET11401/07/22 05:53:02 METAR KSJC 071353Z 00000KT 10SM FEW013 SCT038 BKN060 11/08 A2997 RMK AO2 SLP149 T01060083 $ (TC)",
"72494523293","2022-01-07T14:53:00","7","37.35938","-121.92444","15.0","SAN JOSE, CA US","FM-15","KSJC ","V020","150,5,N,0021,5","01524,5,M,N","016093,5,N,5","+0100,5","+0089,5","10148,5","01,0000,9,5",,,,,,,,,,,,,,,,,,,,,,,,,,"02,5,+00335,5,99,9","07,5,+01524,5,99,9","08,5,+02134,5,99,9","1,99,1,+00335,5,9","3,99,1,+01524,5,9","4,99,1,+02134,5,9","9,AGL   ,+99999,+99999","99,99,9,99,9,99,9,00335,1,99,9,99,9",,,,,,,,,,,"10149,5,10131,5",,,,,,,,,,"MET11401/07/22 06:53:02 METAR KSJC 071453Z 15004KT 10SM FEW011 BKN050 OVC070 10/09 A2997 RMK AO2 SLP148 T01000089 $ (TC)",
"72494523293","2022-01-07T15:53:00","7","37.35938","-121.92444","15.0","SAN JOSE, CA US","FM-15","KSJC ","V020","160,5,N,0026,5","01189,5,M,N","016093,5,N,5","+0111,5","+0094,5","10146,5","01,0000,9,5",,,,,,,,,,,,,,,,,,,,,,,,,,"02,5,+00366,5,99,9","07,5,+01189,5,99,9","08,5,+02134,5,99,9","1,99,1,+00366,5,9","3,99,1,+01189,5,9","4,99,1,+02134,5,9","9,AGL   ,+99999,+99999","99,99,9,99,9,99,9,00366,1,99,9,99,9",,,,,,,,,,,"10146,5,10128,5",,,,,,,,,,"MET11401/07/22 07:53:02 METAR KSJC 071553Z 16005KT 10SM FEW012 BKN039 OVC070 11/09 A2996 RMK AO2 SLP146 T01110094 $ (TC)",
"72494523293","2022-01-07T16:53:00","7","37.35938","-121.92444","15.0","SAN JOSE, CA US","FM-15","KSJC ","V020","140,5,N,0041,5","01067,5,M,N","016093,5,N,5","+0117,5","+0094,5","10150,5","01,0000,9,5",,,,,,,,,,,,,,,,,,,,,,,,,,"02,5,+00457,5,99,9","07,5,+01067,5,99,9","08,5,+01219,5,99,9","1,99,1,+00457,5,9","3,99,1,+01067,5,9","4,99,1,+01219,5,9","9,AGL   ,+99999,+99999","99,99,9,99,9,99,9,00457,1,99,9,99,9",,,,,,,,,,,"10152,5,10134,5",,,,,,,,,,"MET11401/07/22 08:53:02 METAR KSJC 071653Z 14008KT 10SM FEW015 BKN035 OVC040 12/09 A2998 RMK AO2 SLP150 T01170094 $ (TC)",
"72494523293","2022-01-07T17:53:00","7","37.35938","-121.92444","15.0","SAN JOSE, CA US","FM-15","KSJC ","V020","150,5,N,0046,5","01006,5,M,N","016093,5,N,5","+0128,5","+0083,5","10154,5","01,0000,9,5",,,,,,,,,,,,,,,,,,,,,,,,,,"02,5,+00457,5,99,9","07,5,+01006,5,99,9","08,5,+01219,5,99,9","1,99,1,+00457,5,9","3,99,1,+01006,5,9","4,99,1,+01219,5,9","9,AGL   ,+99999,+99999","99,99,9,99,9,99,9,00457,1,99,9,99,9","060,M,+0128,1","060,N,+0094,1",,,,,,,,,"10156,5,10138,5","3,9,005,9,+999,9",,,,,,,,,"MET13201/07/22 09:53:02 METAR KSJC 071753Z 15009KT 10SM FEW015 BKN033 OVC040 13/08 A2999 RMK AO2 SLP154 T01280083 10128 20094 53005 $ (TC)",
"72494523293","2022-01-07T18:53:00","7","37.35938","-121.92444","15.0","SAN JOSE, CA US","FM-15","KSJC ","V020","140,5,N,0046,5","00701,5,M,N","012875,5,N,5","+0128,5","+0083,5","10155,5","01,0000,2,5",,,,,,,,,,,,,,,,,,,,,,,,,,"10,5,+00000,5,99,9","07,5,+00701,5,99,9","08,5,+00914,5,99,9","6,99,1,+00000,5,9","3,99,1,+00701,5,9","4,99,1,+00914,5,9","9,AGL   ,+99999,+99999","99,99,9,99,9,99,9,00000,1,99,9,99,9",,,,,,,,,,,"10156,5,10138,5",,,,,,,,,,"MET12801/07/22 10:53:02 METAR KSJC 071853Z 14009KT 8SM FEW000 BKN023 OVC030 13/08 A2999 RMK AO2 RAB31E47 SLP155 P0000 T01280083 $ (TC)",
"72494523293","2022-01-07T19:53:00","7","37.35938","-121.92444","15.0","SAN JOSE, CA US","FM-15","KSJC ","V020","130,5,N,0062,5","00914,5,M,N","016093,5,N,5","+0122,5","+0094,5","10147,5","01,0000,2,5",,,,,,,,,,,,,,,,,,,,,,,,,,"02,5,+00305,5,99,9","07,5,+00914,5,99,9","08,5,+01829,5,99,9","1,99,1,+00305,5,9","3,99,1,+00914,5,9","4,99,1,+01829,5,9","9,AGL   ,+99999,+99999","99,99,9,99,9,99,9,00305,1,99,9,99,9",,,,,,,,,,,"10149,5,10131,5",,,,,,,,,,"MET13101/07/22 11:53:02 METAR KSJC 071953Z 13012KT 10SM FEW010 BKN030 OVC060 12/09 A2997 RMK AO2 RAB1854E30 SLP147 P0000 T01220094 $ (TC)",
"72494523293","2022-01-07T20:53:00","7","37.35938","-121.92444","15.0","SAN JOSE, CA US","FM-15","KSJC ","V020","150,5,N,0036,5","00823,5,M,N","016093,5,N,5","+0139,5","+0094,5","10141,5","01,0000,9,5","03,0000,2,1",,,,,,,,,,,,,,,,,,,,,,,,,"02,5,+00274,5,99,9","07,5,+00823,5,99,9","08,5,+00914,5,99,9","1,99,1,+00274,5,9","3,99,1,+00823,5,9","4,99,1,+00914,5,9","9,AGL   ,+99999,+99999","99,99,9,99,9,99,9,00274,1,99,9,99,9",,,,,,,,,,,"10142,5,10124,5","8,9,013,9,+999,9",,,,,,,,,"MET12601/07/22 12:53:02 METAR KSJC 072053Z 15007KT 10SM FEW009 BKN027 OVC030 14/09 A2995 RMK AO2 SLP141 60000 T01390094 58013 $ (TC)",
"72494523293","2022-01-07T21:53:00","7","37.35938","-121.92444","15.0","SAN JOSE, CA US","FM-15","KSJC ","V020","130,5,N,0041,5","00884,5,M,N","016093,5,N,5","+0144,5","+0100,5","10136,5","01,0000,9,5",,,,,,,,,,,,,,,,,,,,,,,,,,"10,5,+00000,5,99,9","07,5,+00884,5,99,9","08,5,+01524,5,99,9","6,99,1,+00000,5,9","3,99,1,+00884,5,9","4,99,1,+01524,5,9","9,AGL   ,+99999,+99999","99,99,9,99,9,99,9,00000,1,99,9,99,9",,,,,,,,,,,"10139,5,10121,5",,,,,,,,,,"MET11401/07/22 13:53:02 METAR KSJC 072153Z 13008KT 10SM FEW000 BKN029 OVC050 14/10 A2994 RMK AO2 SLP136 T01440100 $ (JK)",
"72494523293","2022-01-07T22:53:00","7","37.35938","-121.92444","15.0","SAN JOSE, CA US","FM-15","KSJC ","V020","130,5,N,0031,5","00945,5,M,N","016093,5,N,5","+0150,5","+0100,5","10135,5","01,0000,9,5",,,,,,,,,,,,,,,,,,,,,,,,,,"10,5,+00000,5,99,9","04,5,+00732,5,99,9","07,5,+00945,5,99,9","6,99,1,+00000,5,9","2,99,1,+00732,5,9","3,99,1,+00945,5,9","9,AGL   ,+99999,+99999","99,99,9,99,9,99,9,00000,1,99,9,99,9",,,,,,,,,,,"10135,5,10117,5",,,,,,,,,,"MET11401/07/22 14:53:02 METAR KSJC 072253Z 13006KT 10SM FEW000 SCT024 BKN031 15/10 A2993 RMK AO2 SLP135 T01500100 $ (JK)",
"72494523293","2022-01-07T23:45:00","7","37.35938","-121.92444","15.0","SAN JOSE, CA US","FM-16","KSJC ","V020","999,9,C,0000,5","00732,5,M,N","016093,5,N,5","+0150,5","+0100,5","99999,9",,,,,,,,,,,,,,,,,,,,,,,,,,,"10,5,+00000,5,99,9","07,5,+00732,5,99,9","07,5,+00945,5,99,9","6,99,1,+00000,5,9","3,99,1,+00732,5,9","3,99,1,+00945,5,9","9,AGL   ,+99999,+99999","99,99,9,99,9,99,9,00000,1,99,9,99,9",,,,,,,,,,,"10139,5,10121,5",,,,,,,,,,"MET10701/07/22 15:45:02 SPECI KSJC 072345Z 00000KT 10SM FEW000 BKN024 BKN031 15/10 A2994 RMK AO2 T01500100 $ (JK)",
"72494523293","2022-01-07T23:53:00","7","37.35938","-121.92444","15.0","SAN JOSE, CA US","FM-15","KSJC ","V020","999,9,C,0000,5","00853,5,M,N","016093,5,N,5","+0150,5","+0094,5","10140,5","01,0000,9,5","06,0000,2,1",,,,,,,,,,,,,,,,,,,,,,,,,"10,5,+00000,5,99,9","07,5,+00853,5,12,5","07,5,+01219,5,99,9","6,99,1,+00000,5,9","3,99,1,+00853,5,9","3,99,1,+01219,5,9","9,AGL   ,+99999,+99999","99,99,9,99,9,99,9,00000,1,99,9,99,9","060,M,+0150,1",,,,,,,,,,"10142,5,10124,5","5,9,001,9,+999,9",,,,,,,,,"MET16401/07/22 15:53:02 METAR KSJC 072353Z 00000KT 10SM FEW000 BKN028TCU BKN040 15/09 A2995 RMK AO2 SLP140 TCU OHD TCU DSNT ALQDS 60000 T01500094 10150 20122 55001 $ (JK)",
"72494523293","2022-01-08T00:48:00","7","37.35938","-121.92444","15.0","SAN JOSE, CA US","FM-16","KSJC ","V020","330,5,N,0046,5","01219,5,M,N","016093,5,N,5","+0130,5","+0100,5","99999,9","01,0000,2,1",,,,,,,,,,,,,,,,,,,,"1,0,02,0,0,1,5","61,5",,,,,"10,5,+00000,5,99,9","04,5,+00792,5,12,5","07,5,+01219,5,99,9","6,99,1,+00000,5,9","2,99,1,+00792,5,9","3,99,1,+01219,5,9","9,AGL   ,+99999,+99999","99,99,9,99,9,99,9,00000,1,99,9,99,9",,,,,,,,,,,"10146,5,10128,5",,,,,"61,5","0093,5",,,,"MET14201/07/22 16:48:01 SPECI KSJC 080048Z 33009G18KT 10SM -RA FEW000 SCT026TCU BKN040 13/10 A2996 RMK AO2 RAB02E17B46 TCU NE-S TCU DSNT N-S P0000 $",
"72494523293","2022-01-08T00:53:00","7","37.35938","-121.92444","15.0","SAN JOSE, CA US","FM-15","KSJC ","V020","330,5,N,0062,5","01219,5,M,N","016093,5,N,5","+0133,5","+0100,5","10147,5","01,0000,2,5",,,,,,,,,,,,,,,,,,,,"1,0,02,0,0,1,5","61,5",,,,,"10,5,+00000,5,99,9","04,5,+00792,5,12,5","07,5,+01219,5,99,9","6,99,1,+00000,5,9","2,99,1,+00792,5,9","3,99,1,+01219,5,9","9,AGL   ,+99999,+99999","99,99,9,99,9,99,9,00000,1,99,9,99,9",,,,,,,,,,,"10149,5,10131,5",,,,,"61,5",,,,,"MET15601/07/22 16:53:01 METAR KSJC 080053Z 33012KT 10SM -RA FEW000 SCT026TCU BKN040 13/10 A2997 RMK AO2 RAB02E17B46 SLP147 TCU NE-S TCU DSNT N-S P0000 T01330100 $",
"72494523293","2022-01-08T01:53:00","7","37.35938","-121.92444","15.0","SAN JOSE, CA US","FM-15","KSJC ","V020","360,5,N,0026,5","22000,5,9,N","016093,5,N,5","+0117,5","+0083,5","10150,5","01,0000,9,5",,,,,,,,,,,,,,,,,,,,,,,,,,"02,5,+00671,5,99,9","04,5,+01219,5,99,9","04,5,+02438,5,99,9","1,99,1,+00671,5,9","2,99,1,+01219,5,9","2,99,1,+02438,5,9","9,AGL   ,+99999,+99999","04,99,5,99,9,99,9,00671,1,99,9,99,9",,,,,,,,,,,"10152,5,10134,5",,,,,,,,,,"MET12301/07/22 17:53:01 METAR KSJC 080153Z 36005KT 10SM FEW022 SCT040 SCT080 12/08 A2998 RMK AO2 RAE0055 SLP150 P0000 T01170083 $","D01      0ADE726"
"72494523293","2022-01-08T02:53:00","7","37.35938","-121.92444","15.0","SAN JOSE, CA US","FM-15","KSJC ","V020","350,5,N,0026,5","22000,5,9,N","016093,5,N,5","+0111,5","+0083,5","10156,5","01,0000,9,5","03,0000,2,1",,,,,,,,,,,,,,,,,,,,,,,,,"02,5,+00671,5,99,9",,,"1,99,1,+00671,5,9",,,"9,AGL   ,+99999,+99999","02,99,5,99,9,99,9,00671,1,99,9,99,9",,,,,,,,,,,"10156,5,10138,5","1,9,016,9,+999,9",,,,,,,,,"MET10701/07/22 18:53:01 METAR KSJC 080253Z 35005KT 10SM FEW022 11/08 A2999 RMK AO2 SLP156 60000 T01110083 51016 $","D01      0ADE726"
"72494523293","2022-01-08T03:42:00","7","37.35938","-121.92444","15.0","SAN JOSE, CA US","FM-16","KSJC ","V020","040,5,N,0021,5","00853,5,M,N","016093,5,N,5","+0111,5","+0083,5","99999,9",,,,,,,,,,,,,,,,,,,,,,,,,,,"02,5,+00671,5,99,9","07,5,+00853,5,99,9",,"1,99,1,+00671,5,9","3,99,1,+00853,5,9",,"9,AGL   ,+99999,+99999","99,99,9,99,9,99,9,00671,1,99,9,99,9",,,,,,,,,,,"10159,5,10141,5",,,,,,,,,,"MET09501/07/22 19:42:01 SPECI KSJC 080342Z 04004KT 10SM FEW022 BKN028 11/08 A3000 RMK AO2 T01110083 $",
"72494523293","2022-01-08T03:53:00","7","37.35938","-121.92444","15.0","SAN JOSE, CA US","FM-15","KSJC ","V020","030,5,N,0015,5","00792,5,M,N","016093,5,N,5","+0111,5","+0083,5","10159,5","01,0000,9,5",,,,,,,,,,,,,,,,,,,,,,,,,,"07,5,+00792,5,99,9",,,"3,99,1,+00792,5,9",,,"9,AGL   ,+99999,+99999","99,99,9,99,9,99,9,00792,1,99,9,99,9",,,,,,,,,,,"10159,5,10141,5",,,,,,,,,,"MET09501/07/22 19:53:02 METAR KSJC 080353Z 03003KT 10SM BKN026 11/08 A3000 RMK AO2 SLP159 T01110083 $",
"72494523293","2022-01-08T04:53:00","7","37.35938","-121.92444","15.0","SAN JOSE, CA US","FM-15","KSJC ","V020","330,5,N,0031,5","00640,5,M,N","016093,5,N,5","+0117,5","+0089,5","10164,5","01,0000,9,5",,,,,,,,,,,,,,,,,,,,,,,,,,"07,5,+00640,5,99,9",,,"3,99,1,+00640,5,9",,,"9,AGL   ,+99999,+99999","99,99,9,99,9,99,9,00640,1,99,9,99,9",,,,,,,,,,,"10166,5,10148,5",,,,,,,,,,"MET09501/07/22 20:53:02 METAR KSJC 080453Z 33006KT 10SM BKN021 12/09 A3002 RMK AO2 SLP164 T01170089 $",
"72494523293","2022-01-08T05:53:00","7","37.35938","-121.92444","15.0","SAN JOSE, CA US","FM-15","KSJC ","V020","320,5,N,0026,5","00640,5,M,N","016093,5,N,5","+0111,5","+0089,5","10171,5","01,0000,9,5","06,0000,2,1",,,,,,,,,,,,,,,,,,,,,,,,,"07,5,+00640,5,99,9",,,"3,99,1,+00640,5,9",,,"9,AGL   ,+99999,+99999","99,99,9,99,9,99,9,00640,1,99,9,99,9","060,M,+0150,1","060,N,+0100,1",,,,,,,,,"10173,5,10155,5","3,9,015,9,+999,9",,,,,,,,,"MET11901/07/22 21:53:02 METAR KSJC 080553Z 32005KT 10SM BKN021 11/09 A3004 RMK AO2 SLP171 60000 T01110089 10150 20100 53015 $",
"72494523293","2022-01-08T06:53:00","7","37.35938","-121.92444","15.0","SAN JOSE, CA US","FM-15","KSJC ","V020","310,5,N,0026,5","00457,5,M,N","016093,5,N,5","+0111,5","+0089,5","10175,5","01,0000,9,5",,,,,,,,,,,,,,,,,,,,,,,,,,"07,5,+00457,5,99,9",,,"3,99,1,+00457,5,9",,,"9,AGL   ,+99999,+99999","99,99,9,99,9,99,9,00457,1,99,9,99,9",,,,,,,,,,,"10176,5,10158,5",,,,,,,,,,"MET09501/07/22 22:53:02 METAR KSJC 080653Z 31005KT 10SM BKN015 11/09 A3005 RMK AO2 SLP175 T01110089 $",
"72494523293","2022-01-08T07:53:00","7","37.35938","-121.92444","15.0","SAN JOSE, CA US","FM-15","KSJC ","V020","340,5,N,0015,5","00579,5,M,N","016093,5,N,5","+0106,5","+0083,5","10168,5","01,0000,9,5",,,,,,,,,,,,,,,,,,,,,,,,,,"07,5,+00579,5,99,9",,,"3,99,1,+00579,5,9",,,"9,AGL   ,+99999,+99999","99,99,9,99,9,99,9,00579,1,99,9,99,9","240,M,+0150,1","240,N,+0094,1",,,,,,,,,"10169,5,10151,5",,,,,,,,,,"MET11001/07/22 23:53:02 METAR KSJC 080753Z 34003KT 10SM BKN019 11/08 A3003 RMK AO2 SLP168 LAST T01060083 401500094 $",
"72494523293","2022-01-08T07:59:00","6","37.35938","-121.92444","15.0","SAN JOSE, CA US","SOD  ","KSJC ","V020","999,9,9,9999,9","99999,9,9,9","999999,9,9,9","+9999,9","+9999,9","99999,9","24,0000,2,5",,,,,,,,,,,,,,,,,"AU,16,RA  ,5",,,,,"08,6,24,6",,,,,,,,,,,,"240,M,+0150,5","240,N,+0094,5",,,,,,,,,,,"10134,4,10132,4",,,,,"1,24,00894,340,9999,6","2,24,00671,340,9999,5","3,24,00259,999,9999,5","SOD70924 HR PRECIPITATION (IN):    T WEATHER(CODE):8  24 HR MAX TEMP (F): 5924 HR MIN TEMP (F): 49AVERAGE STATION PRESSURE:29.925 MINIMUM SEA LEVEL PRESSURE:29.92 TIME OF OCCURRENCE:1514 PEAK WIND SPEED (MPH): 20 PEAK WIND DIR (DEG):340 PEAK WIND TIME (LST):      FASTEST 2MIN SPEED (MPH): 15FASTEST 2MIN DIR (DEG):340 FASTEST 2MIN TIME (LST):     AVERAGE WIND SPEED (MPH): 5.8 24 HR AVG TEMP (F): 54DEPART FROM NORMAL:  4  HEATING DEGREE DAYS: 11 COOLING DEGREE DAYS:  0 LATEST DAY MAX TEMP (0700-1900 LST):59  LATEST NIGHT MIN TEMP(1900-0800 LST):49 HOURLY INCREMENTAL PRECIPITATION VALUES (IN):.00 0.00 0.00 0.00 0.00 0.00 0.00 0.00 0.00 0.00 T    T    0.00 0.00 0.00 0.00 T    0.00 0.00 0.00 0.00 0.00 0.00 0.00","R01     87AXW093R02    207OES063"
"72494523293","2022-01-08T08:53:00","7","37.35938","-121.92444","15.0","SAN JOSE, CA US","FM-15","KSJC ","V020","280,5,N,0015,5","00732,5,M,N","016093,5,N,5","+0100,5","+0072,5","10173,5","01,0000,9,5",,,,,,,,,,,,,,,,,,,,,,,,,,"08,5,+00732,5,99,9",,,"4,99,1,+00732,5,9",,,"9,AGL   ,+99999,+99999","99,99,9,99,9,99,9,00732,1,99,9,99,9",,,,,,,,,,,"10173,5,10155,5","3,9,002,9,+999,9",,,,,,,,,"MET10101/08/22 00:53:02 METAR KSJC 080853Z 28003KT 10SM OVC024 10/07 A3004 RMK AO2 SLP173 T01000072 53002 $",
"72494523293","2022-01-08T09:19:00","7","37.35938","-121.92444","15.0","SAN JOSE, CA US","FM-16","KSJC ","V020","999,9,C,0000,5","22000,5,9,N","016093,5,N,5","+0094,5","+0067,5","99999,9",,,,,,,,,,,,,,,,,,,,,,,,,,,"02,5,+00518,5,99,9","04,5,+00732,5,99,9",,"1,99,1,+00518,5,9","2,99,1,+00732,5,9",,"9,AGL   ,+99999,+99999","04,99,5,99,9,99,9,00518,1,99,9,99,9",,,,,,,,,,,"10176,5,10158,5",,,,,,,,,,"MET09501/08/22 01:19:02 SPECI KSJC 080919Z 00000KT 10SM FEW017 SCT024 09/07 A3005 RMK AO2 T00940067 $","D01      0ADE726"
"72494523293","2022-01-08T09:30:00","7","37.35938","-121.92444","15.0","SAN JOSE, CA US","FM-16","KSJC ","V020","999,9,C,0000,5","00518,5,M,N","016093,5,N,5","+0100,5","+0067,5","99999,9",,,,,,,,,,,,,,,,,,,,,,,,,,,"07,5,+00518,5,99,9","07,5,+00671,5,99,9",,"3,99,1,+00518,5,9","3,99,1,+00671,5,9",,"9,AGL   ,+99999,+99999","99,99,9,99,9,99,9,00518,1,99,9,99,9",,,,,,,,,,,"10179,5,10161,5",,,,,,,,,,"MET09501/08/22 01:30:02 SPECI KSJC 080930Z 00000KT 10SM BKN017 BKN022 10/07 A3006 RMK AO2 T01000067 $",
"72494523293","2022-01-08T09:53:00","7","37.35938","-121.92444","15.0","SAN JOSE, CA US","FM-15","KSJC ","V020","999,9,C,0000,5","00488,5,M,N","016093,5,N,5","+0100,5","+0072,5","10177,5","01,0000,9,5",,,,,,,,,,,,,,,,,,,,,,,,,,"08,5,+00488,5,99,9",,,"4,99,1,+00488,5,9",,,"9,AGL   ,+99999,+99999","99,99,9,99,9,99,9,00488,1,99,9,99,9",,,,,,,,,,,"10179,5,10161,5",,,,,,,,,,"MET09501/08/22 01:53:02 METAR KSJC 080953Z 00000KT 10SM OVC016 10/07 A3006 RMK AO2 SLP177 T01000072 $",
"72494523293","2022-01-08T10:53:00","7","37.35938","-121.92444","15.0","SAN JOSE, CA US","FM-15","KSJC ","V020","270,5,N,0015,5","00488,5,M,N","016093,5,N,5","+0100,5","+0078,5","10181,5","01,0000,9,5",,,,,,,,,,,,,,,,,,,,,,,,,,"08,5,+00488,5,99,9",,,"4,99,1,+00488,5,9",,,"9,AGL   ,+99999,+99999","99,99,9,99,9,99,9,00488,1,99,9,99,9",,,,,,,,,,,"10183,5,10165,5",,,,,,,,,,"MET09501/08/22 02:53:02 METAR KSJC 081053Z 27003KT 10SM OVC016 10/08 A3007 RMK AO2 SLP181 T01000078 $",
"72494523293","2022-01-08T11:53:00","7","37.35938","-121.92444","15.0","SAN JOSE, CA US","FM-15","KSJC ","V020","240,5,N,0021,5","00518,5,M,N","016093,5,N,5","+0100,5","+0078,5","10185,5","01,0000,9,5",,,,,,,,,,,,,,,,,,,,,,,,,,"08,5,+00518,5,99,9",,,"4,99,1,+00518,5,9",,,"9,AGL   ,+99999,+99999","99,99,9,99,9,99,9,00518,1,99,9,99,9","060,M,+0117,1","060,N,+0089,1",,,,,,,,,"10186,5,10168,5","1,9,012,9,+999,9",,,,,,,,,"MET11301/08/22 03:53:02 METAR KSJC 081153Z 24004KT 10SM OVC017 10/08 A3008 RMK AO2 SLP185 T01000078 10117 20089 51012 $",
"72494523293","2022-01-08T12:53:00","7","37.35938","-121.92444","15.0","SAN JOSE, CA US","FM-15","KSJC ","V020","320,5,N,0026,5","00457,5,M,N","016093,5,N,5","+0100,5","+0078,5","10193,5","01,0000,9,5",,,,,,,,,,,,,,,,,,,,,,,,,,"08,5,+00457,5,99,9",,,"4,99,1,+00457,5,9",,,"9,AGL   ,+99999,+99999","99,99,9,99,9,99,9,00457,1,99,9,99,9",,,,,,,,,,,"10193,5,10175,5",,,,,,,,,,"MET09501/08/22 04:53:02 METAR KSJC 081253Z 32005KT 10SM OVC015 10/08 A3010 RMK AO2 SLP193 T01000078 $",
"72494523293","2022-01-08T13:53:00","7","37.35938","-121.92444","15.0","SAN JOSE, CA US","FM-15","KSJC ","V020","999,9,C,0000,5","00396,5,M,N","016093,5,N,5","+0106,5","+0072,5","10197,5","01,0000,9,5",,,,,,,,,,,,,,,,,,,,,,,,,,"02,5,+00244,5,99,9","07,5,+00396,5,99,9",,"1,99,1,+00244,5,9","3,99,1,+00396,5,9",,"9,AGL   ,+99999,+99999","99,99,9,99,9,99,9,00244,1,99,9,99,9",,,,,,,,,,,"10196,5,10178,5",,,,,,,,,,"MET10701/08/22 05:53:02 METAR KSJC 081353Z 00000KT 10SM FEW008 BKN013 11/07 A3011 RMK AO2 SLP197 T01060072 $ (DR)",
"72494523293","2022-01-08T14:53:00","7","37.35938","-121.92444","15.0","SAN JOSE, CA US","FM-15","KSJC ","V020","999,9,C,0000,5","00396,5,M,N","016093,5,N,5","+0106,5","+0072,5","10200,5","01,0000,9,5",,,,,,,,,,,,,,,,,,,,,,,,,,"02,5,+00213,5,99,9","07,5,+00396,5,99,9",,"1,99,1,+00213,5,9","3,99,1,+00396,5,9",,"9,AGL   ,+99999,+99999","99,99,9,99,9,99,9,00213,1,99,9,99,9",,,,,,,,,,,"10200,5,10182,5","1,9,016,9,+999,9",,,,,,,,,"MET11301/08/22 06:53:02 METAR KSJC 081453Z 00000KT 10SM FEW007 BKN013 11/07 A3012 RMK AO2 SLP200 T01060072 51016 $ (DR)",
"72494523293","2022-01-08T15:53:00","7","37.35938","-121.92444","15.0","SAN JOSE, CA US","FM-15","KSJC ","V020","020,5,N,0015,5","00457,5,M,N","016093,5,N,5","+0106,5","+0072,5","10207,5","01,0000,9,5",,,,,,,,,,,,,,,,,,,,,,,,,,"02,5,+00213,5,99,9","04,5,+00366,5,99,9","07,5,+00457,5,99,9","1,99,1,+00213,5,9","2,99,1,+00366,5,9","3,99,1,+00457,5,9","9,AGL   ,+99999,+99999","99,99,9,99,9,99,9,00213,1,99,9,99,9",,,,,,,,,,,"10207,5,10188,5",,,,,,,,,,"MET11401/08/22 07:53:02 METAR KSJC 081553Z 02003KT 10SM FEW007 SCT012 BKN015 11/07 A3014 RMK AO2 SLP207 T01060072 $ (DR)",
"72494523293","2022-01-08T16:53:00","7","37.35938","-121.92444","15.0","SAN JOSE, CA US","FM-15","KSJC ","V020","999,9,C,0000,5","00488,5,M,N","016093,5,N,5","+0106,5","+0078,5","10211,5","01,0000,9,5",,,,,,,,,,,,,,,,,,,,,,,,,,"02,5,+00244,5,99,9","04,5,+00366,5,99,9","07,5,+00488,5,99,9","1,99,1,+00244,5,9","2,99,1,+00366,5,9","3,99,1,+00488,5,9","9,AGL   ,+99999,+99999","99,99,9,99,9,99,9,00244,1,99,9,99,9",,,,,,,,,,,"10213,5,10195,5",,,,,,,,,,"MET11401/08/22 08:53:02 METAR KSJC 081653Z 00000KT 10SM FEW008 SCT012 BKN016 11/08 A3016 RMK AO2 SLP211 T01060078 $ (DR)",
"72494523293","2022-01-08T17:53:00","7","37.35938","-121.92444","15.0","SAN JOSE, CA US","FM-15","KSJC ","V020","999,9,C,0000,5","00518,5,M,N","016093,5,N,5","+0111,5","+0078,5","10219,5","01,0000,9,5",,,,,,,,,,,,,,,,,,,,,,,,,,"02,5,+00244,5,99,9","04,5,+00396,5,99,9","07,5,+00518,5,99,9","1,99,1,+00244,5,9","2,99,1,+00396,5,9","3,99,1,+00518,5,9","9,AGL   ,+99999,+99999","99,99,9,99,9,99,9,00244,1,99,9,99,9","060,M,+0111,1","060,N,+0100,1",,,,,,,,,"10220,5,10202,5","3,9,018,9,+999,9",,,,,,,,,"MET13201/08/22 09:53:02 METAR KSJC 081753Z 00000KT 10SM FEW008 SCT013 BKN017 11/08 A3018 RMK AO2 SLP219 T01110078 10111 20100 53018 $ (DR)",
"72494523293","2022-01-08T18:53:00","7","37.35938","-121.92444","15.0","SAN JOSE, CA US","FM-15","KSJC ","V020","350,5,N,0026,5","00518,5,M,N","016093,5,N,5","+0111,5","+0078,5","10220,5","01,0000,9,5",,,,,,,,,,,,,,,,,,,,,,,,,,"02,5,+00305,5,99,9","04,5,+00427,5,99,9","07,5,+00518,5,99,9","1,99,1,+00305,5,9","2,99,1,+00427,5,9","3,99,1,+00518,5,9","9,AGL   ,+99999,+99999","99,99,9,99,9,99,9,00305,1,99,9,99,9",,,,,,,,,,,"10220,5,10202,5",,,,,,,,,,"MET11401/08/22 10:53:02 METAR KSJC 081853Z 35005KT 10SM FEW010 SCT014 BKN017 11/08 A3018 RMK AO2 SLP220 T01110078 $ (DR)",
"72494523293","2022-01-08T19:53:00","7","37.35938","-121.92444","15.0","SAN JOSE, CA US","FM-15","KSJC ","V020","240,5,N,0021,5","00518,5,M,N","016093,5,N,5","+0117,5","+0078,5","10214,5","01,0000,9,5",,,,,,,,,,,,,,,,,,,,,,,,,,"02,5,+00305,5,99,9","04,5,+00427,5,99,9","07,5,+00518,5,99,9","1,99,1,+00305,5,9","2,99,1,+00427,5,9","3,99,1,+00518,5,9","9,AGL   ,+99999,+99999","99,99,9,99,9,99,9,00305,1,99,9,99,9",,,,,,,,,,,"10217,5,10199,5",,,,,,,,,,"MET11401/08/22 11:53:02 METAR KSJC 081953Z 24004KT 10SM FEW010 SCT014 BKN017 12/08 A3017 RMK AO2 SLP214 T01170078 $ (DR)",
"72494523293","2022-01-08T20:53:00","7","37.35938","-121.92444","15.0","SAN JOSE, CA US","FM-15","KSJC ","V020","999,9,V,0015,5","00610,5,M,N","016093,5,N,5","+0128,5","+0078,5","10207,5","01,0000,9,5",,,,,,,,,,,,,,,,,,,,,,,,,,"02,5,+00335,5,99,9","04,5,+00457,5,99,9","07,5,+00610,5,99,9","1,99,1,+00335,5,9","2,99,1,+00457,5,9","3,99,1,+00610,5,9","9,AGL   ,+99999,+99999","99,99,9,99,9,99,9,00335,1,99,9,99,9",,,,,,,,,,,"10210,5,10192,5","8,9,011,9,+999,9",,,,,,,,,"MET12001/08/22 12:53:02 METAR KSJC 082053Z VRB03KT 10SM FEW011 SCT015 BKN020 13/08 A3015 RMK AO2 SLP207 T01280078 58011 $ (DR)",
"72494523293","2022-01-08T21:06:00","7","37.35938","-121.92444","15.0","SAN JOSE, CA US","FM-16","KSJC ","V020","999,9,C,0000,5","22000,5,9,N","016093,5,N,5","+0128,5","+0078,5","99999,9",,,,,,,,,,,,,,,,,,,,,,,,,,,"02,5,+00335,5,99,9","04,5,+00457,5,99,9","04,5,+00610,5,99,9","1,99,1,+00335,5,9","2,99,1,+00457,5,9","2,99,1,+00610,5,9","9,AGL   ,+99999,+99999","04,99,5,99,9,99,9,00335,1,99,9,99,9",,,,,,,,,,,"10207,5,10188,5",,,,,,,,,,"MET10701/08/22 13:06:02 SPECI KSJC 082106Z 00000KT 10SM FEW011 SCT015 SCT020 13/08 A3014 RMK AO2 T01280078 $ (DR)","D01      0ADE726"
"72494523293","2022-01-08T21:53:00","7","37.35938","-121.92444","15.0","SAN JOSE, CA US","FM-15","KSJC ","V020","999,9,C,0000,5","22000,5,9,N","016093,5,N,5","+0128,5","+0078,5","10198,5","01,0000,9,5",,,,,,,,,,,,,,,,,,,,,,,,,,"02,5,+00396,5,99,9","04,5,+00701,5,99,9",,"1,99,1,+00396,5,9","2,99,1,+00701,5,9",,"9,AGL   ,+99999,+99999","04,99,5,99,9,99,9,00396,1,99,9,99,9",,,,,,,,,,,"10200,5,10182,5",,,,,,,,,,"MET10701/08/22 13:53:02 METAR KSJC 082153Z 00000KT 10SM FEW013 SCT023 13/08 A3012 RMK AO2 SLP198 T01280078 $ (JK)","D01      0ADE726"
"72494523293","2022-01-08T22:53:00","7","37.35938","-121.92444","15.0","SAN JOSE, CA US","FM-15","KSJC ","V020","999,9,C,0000,5","22000,5,9,N","016093,5,N,5","+0144,5","+0078,5","10198,5","01,0000,9,5",,,,,,,,,,,,,,,,,,,,,,,,,,"02,5,+00701,5,99,9",,,"1,99,1,+00701,5,9",,,"9,AGL   ,+99999,+99999","02,99,5,99,9,99,9,00701,1,99,9,99,9",,,,,,,,,,,"10200,5,10182,5",,,,,,,,,,"MET10001/08/22 14:53:02 METAR KSJC 082253Z 00000KT 10SM FEW023 14/08 A3012 RMK AO2 SLP198 T01440078 $ (JK)","D01      0ADE726"
"72494523293","2022-01-08T23:53:00","7","37.35938","-121.92444","15.0","SAN JOSE, CA US","FM-15","KSJC ","V020","300,5,N,0021,5","22000,5,9,N","016093,5,N,5","+0139,5","+0083,5","10198,5","01,0000,9,5",,,,,,,,,,,,,,,,,,,,,,,,,,"02,5,+00701,5,99,9",,,"1,99,1,+00701,5,9",,,"9,AGL   ,+99999,+99999","02,99,5,99,9,99,9,00701,1,99,9,99,9","060,M,+0150,1","060,N,+0111,1",,,,,,,,,"10200,5,10182,5","6,9,009,9,+999,9",,,,,,,,,"MET11801/08/22 15:53:02 METAR KSJC 082353Z 30004KT 10SM FEW023 14/08 A3012 RMK AO2 SLP198 T01390083 10150 20111 56009 $ (JK)","D01      0ADE726"
"72494523293","2022-01-09T00:53:00","7","37.35938","-121.92444","15.0","SAN JOSE, CA US","FM-15","KSJC ","V020","310,5,N,0036,5","22000,5,9,N","016093,5,N,5","+0117,5","+0072,5","10199,5","01,0000,9,5",,,,,,,,,,,,,,,,,,,,,,,,,,"02,5,+00427,5,99,9","02,5,+00640,5,99,9",,"1,99,1,+00427,5,9","1,99,1,+00640,5,9",,"9,AGL   ,+99999,+99999","02,99,5,99,9,99,9,00427,1,99,9,99,9",,,,,,,,,,,"10200,5,10182,5",,,,,,,,,,"MET10201/08/22 16:53:01 METAR KSJC 090053Z 31007KT 10SM FEW014 FEW021 12/07 A3012 RMK AO2 SLP199 T01170072 $","D01      0ADE726"
"72494523293","2022-01-09T01:53:00","7","37.35938","-121.92444","15.0","SAN JOSE, CA US","FM-15","KSJC ","V020","250,5,N,0031,5","22000,5,9,N","016093,5,N,5","+0106,5","+0072,5","10203,5","01,0000,9,5",,,,,,,,,,,,,,,,,,,,,,,,,,"02,5,+00640,5,99,9",,,"1,99,1,+00640,5,9",,,"9,AGL   ,+99999,+99999","02,99,5,99,9,99,9,00640,1,99,9,99,9",,,,,,,,,,,"10203,5,10185,5",,,,,,,,,,"MET09501/08/22 17:53:01 METAR KSJC 090153Z 25006KT 10SM FEW021 11/07 A3013 RMK AO2 SLP203 T01060072 $","D01      0ADE726"
"72494523293","2022-01-09T02:53:00","7","37.35938","-121.92444","15.0","SAN JOSE, CA US","FM-15","KSJC ","V020","270,5,N,0021,5","22000,5,9,N","016093,5,N,5","+0100,5","+0067,5","10209,5","01,0000,9,5",,,,,,,,,,,,,,,,,,,,,,,,,,"00,5,+99999,9,99,9",,,"0,99,1,+99999,9,9",,,,"00,99,1,99,9,99,9,99999,9,99,9,99,9",,,,,,,,,,,"10210,5,10192,5","3,9,010,9,+999,9",,,,,,,,,"MET09801/08/22 18:53:01 METAR KSJC 090253Z 27004KT 10SM CLR 10/07 A3015 RMK AO2 SLP209 T01000067 53010 $",
"72494523293","2022-01-09T03:53:00","7","37.35938","-121.92444","15.0","SAN JOSE, CA US","FM-15","KSJC ","V020","150,5,N,0015,5","22000,5,9,N","016093,5,N,5","+0100,5","+0067,5","10211,5","01,0000,9,5",,,,,,,,,,,,,,,,,,,,,,,,,,"00,5,+99999,9,99,9",,,"0,99,1,+99999,9,9",,,,"00,99,1,99,9,99,9,99999,9,99,9,99,9",,,,,,,,,,,"10213,5,10195,5",,,,,,,,,,"MET09201/08/22 19:53:02 METAR KSJC 090353Z 15003KT 10SM CLR 10/07 A3016 RMK AO2 SLP211 T01000067 $",
"72494523293","2022-01-09T04:53:00","7","37.35938","-121.92444","15.0","SAN JOSE, CA US","FM-15","KSJC ","V020","190,5,N,0015,5","22000,5,9,N","016093,5,N,5","+0083,5","+0061,5","10213,5","01,0000,9,5",,,,,,,,,,,,,,,,,,,,,,,,,,"00,5,+99999,9,99,9",,,"0,99,1,+99999,9,9",,,,"00,99,1,99,9,99,9,99999,9,99,9,99,9",,,,,,,,,,,"10213,5,10195,5",,,,,,,,,,"MET09201/08/22 20:53:02 METAR KSJC 090453Z 19003KT 10SM CLR 08/06 A3016 RMK AO2 SLP213 T00830061 $",
"72494523293","2022-01-09T05:53:00","7","37.35938","-121.92444","15.0","SAN JOSE, CA US","FM-15","KSJC ","V020","140,5,N,0021,5","22000,5,9,N","016093,5,N,5","+0067,5","+0050,5","10217,5","01,0000,9,5",,,,,,,,,,,,,,,,,,,,,,,,,,"00,5,+99999,9,99,9",,,"0,99,1,+99999,9,9",,,,"00,99,1,99,9,99,9,99999,9,99,9,99,9","060,M,+0139,1","060,N,+0067,1",,,,,,,,,"10217,5,10199,5","3,9,008,9,+999,9",,,,,,,,,"MET11001/08/22 21:53:02 METAR KSJC 090553Z 14004KT 10SM CLR 07/05 A3017 RMK AO2 SLP217 T00670050 10139 20067 53008 $",
"72494523293","2022-01-09T06:53:00","7","37.35938","-121.92444","15.0","SAN JOSE, CA US","FM-15","KSJC ","V020","140,5,N,0015,5","22000,5,9,N","016093,5,N,5","+0067,5","+0044,5","10221,5","01,0000,9,5",,,,,,,,,,,,,,,,,,,,,,,,,,"00,5,+99999,9,99,9",,,"0,99,1,+99999,9,9",,,,"00,99,1,99,9,99,9,99999,9,99,9,99,9",,,,,,,,,,,"10224,5,10205,5",,,,,,,,,,"MET09201/08/22 22:53:02 METAR KSJC 090653Z 14003KT 10SM CLR 07/04 A3019 RMK AO2 SLP221 T00670044 $",
"72494523293","2022-01-09T07:53:00","7","37.35938","-121.92444","15.0","SAN JOSE, CA US","FM-15","KSJC ","V020","170,5,N,0021,5","22000,5,9,N","016093,5,N,5","+0072,5","+0050,5","10223,5","01,0000,9,5",,,,,,,,,,,,,,,,,,,,,,,,,,"00,5,+99999,9,99,9",,,"0,99,1,+99999,9,9",,,,"00,99,1,99,9,99,9,99999,9,99,9,99,9","240,M,+0150,1","240,N,+0067,1",,,,,,,,,"10224,5,10205,5",,,,,,,,,,"MET10701/08/22 23:53:02 METAR KSJC 090753Z 17004KT 10SM CLR 07/05 A3019 RMK AO2 SLP223 LAST T00720050 401500067 $",
"72494523293","2022-01-09T07:59:00","6","37.35938","-121.92444","15.0","SAN JOSE, CA US","SOD  ","KSJC ","V020","999,9,9,9999,9","99999,9,9,9","999999,9,9,9","+9999,9","+9999,9","99999,9","24,0000,9,5",,,,,,,,,,,,,,,,,,,,,,,,,,,,,,,,,,"240,M,+0150,5","240,N,+0061,5",,,,,,,,,,,"10186,4,10169,4",,,,,"1,24,00492,310,9999,5","2,24,00402,310,9999,5","3,24,00148,999,9999,5","SOD69224 HR PRECIPITATION (IN): 0.00 24 HR MAX TEMP (F): 5924 HR MIN TEMP (F): 43AVERAGE STATION PRESSURE:30.080 MINIMUM SEA LEVEL PRESSURE:30.03 TIME OF OCCURRENCE:0035 PEAK WIND SPEED (MPH): 11 PEAK WIND DIR (DEG):310 PEAK WIND TIME (LST):      FASTEST 2MIN SPEED (MPH):  9FASTEST 2MIN DIR (DEG):310 FASTEST 2MIN TIME (LST):     AVERAGE WIND SPEED (MPH): 3.3 24 HR AVG TEMP (F): 51DEPART FROM NORMAL:  1  HEATING DEGREE DAYS: 14 COOLING DEGREE DAYS:  0 LATEST DAY MAX TEMP (0700-1900 LST):59  LATEST NIGHT MIN TEMP(1900-0800 LST):48 HOURLY INCREMENTAL PRECIPITATION VALUES (IN):.00 0.00 0.00 0.00 0.00 0.00 0.00 0.00 0.00 0.00 0.00 0.00 0.00 0.00 0.00 0.00 0.00 0.00 0.00 0.00 0.00 0.00 0.00 0.00",
"72494523293","2022-01-09T08:53:00","7","37.35938","-121.92444","15.0","SAN JOSE, CA US","FM-15","KSJC ","V020","190,5,N,0015,5","22000,5,9,N","016093,5,N,5","+0061,5","+0039,5","10225,5","01,0000,9,5",,,,,,,,,,,,,,,,,,,,,,,,,,"00,5,+99999,9,99,9",,,"0,99,1,+99999,9,9",,,,"00,99,1,99,9,99,9,99999,9,99,9,99,9",,,,,,,,,,,"10227,5,10209,5","1,9,008,9,+999,9",,,,,,,,,"MET09801/09/22 00:53:02 METAR KSJC 090853Z 19003KT 10SM CLR 06/04 A3020 RMK AO2 SLP225 T00610039 51008 $",
"72494523293","2022-01-09T09:53:00","7","37.35938","-121.92444","15.0","SAN JOSE, CA US","FM-15","KSJC ","V020","090,5,N,0015,5","22000,5,9,N","016093,5,N,5","+0061,5","+0039,5","10230,5","01,0000,9,5",,,,,,,,,,,,,,,,,,,,,,,,,,"00,5,+99999,9,99,9",,,"0,99,1,+99999,9,9",,,,"00,99,1,99,9,99,9,99999,9,99,9,99,9",,,,,,,,,,,"10230,5,10212,5",,,,,,,,,,"MET09201/09/22 01:53:02 METAR KSJC 090953Z 09003KT 10SM CLR 06/04 A3021 RMK AO2 SLP230 T00610039 $",
"72494523293","2022-01-09T10:53:00","7","37.35938","-121.92444","15.0","SAN JOSE, CA US","FM-15","KSJC ","V020","999,9,C,0000,5","22000,5,9,N","016093,5,N,5","+0050,5","+0028,5","10229,5","01,0000,9,5",,,,,,,,,,,,,,,,,,,,,,,,,,"00,5,+99999,9,99,9",,,"0,99,1,+99999,9,9",,,,"00,99,1,99,9,99,9,99999,9,99,9,99,9",,,,,,,,,,,"10230,5,10212,5",,,,,,,,,,"MET09201/09/22 02:53:02 METAR KSJC 091053Z 00000KT 10SM CLR 05/03 A3021 RMK AO2 SLP229 T00500028 $",
"72494523293","2022-01-09T11:53:00","7","37.35938","-121.92444","15.0","SAN JOSE, CA US","FM-15","KSJC ","V020","999,9,C,0000,5","22000,5,9,N","016093,5,N,5","+0044,5","+0028,5","10223,5","01,0000,9,5",,,,,,,,,,,,,,,,,,,,,,,,,,"00,5,+99999,9,99,9",,,"0,99,1,+99999,9,9",,,,"00,99,1,99,9,99,9,99999,9,99,9,99,9","060,M,+0083,1","060,N,+0039,1",,,,,,,,,"10224,5,10205,5","8,9,002,9,+999,9",,,,,,,,,"MET11001/09/22 03:53:02 METAR KSJC 091153Z 00000KT 10SM CLR 04/03 A3019 RMK AO2 SLP223 T00440028 10083 20039 58002 $",
"72494523293","2022-01-09T12:53:00","7","37.35938","-121.92444","15.0","SAN JOSE, CA US","FM-15","KSJC ","V020","160,5,N,0021,5","22000,5,9,N","016093,5,N,5","+0039,5","+0022,5","10229,5","01,0000,9,5",,,,,,,,,,,,,,,,,,,,,,,,,,"00,5,+99999,9,99,9",,,"0,99,1,+99999,9,9",,,,"00,99,1,99,9,99,9,99999,9,99,9,99,9",,,,,,,,,,,"10230,5,10212,5",,,,,,,,,,"MET09201/09/22 04:53:02 METAR KSJC 091253Z 16004KT 10SM CLR 04/02 A3021 RMK AO2 SLP229 T00390022 $",
"72494523293","2022-01-09T13:53:00","7","37.35938","-121.92444","15.0","SAN JOSE, CA US","FM-15","KSJC ","V020","999,9,C,0000,5","22000,5,9,N","016093,5,N,5","+0044,5","+0022,5","10235,5","01,0000,9,5",,,,,,,,,,,,,,,,,,,,,,,,,,"02,5,+00152,5,99,9",,,"1,99,1,+00152,5,9",,,"9,AGL   ,+99999,+99999","02,99,5,99,9,99,9,00152,1,99,9,99,9",,,,,,,,,,,"10237,5,10219,5",,,,,,,,,,"MET10001/09/22 05:53:02 METAR KSJC 091353Z 00000KT 10SM FEW005 04/02 A3023 RMK AO2 SLP235 T00440022 $ (DR)","D01      0ADE726"
"72494523293","2022-01-09T14:53:00","7","37.35938","-121.92444","15.0","SAN JOSE, CA US","FM-15","KSJC ","V020","999,9,C,0000,5","22000,5,9,N","016093,5,N,5","+0039,5","+0017,5","10238,5","01,0000,9,5",,,,,,,,,,,,,,,,,,,,,,,,,,"02,5,+00122,5,99,9",,,"1,99,1,+00122,5,9",,,"9,AGL   ,+99999,+99999","02,99,5,99,9,99,9,00122,1,99,9,99,9",,,,,,,,,,,"10240,5,10222,5","1,9,016,9,+999,9",,,,,,,,,"MET10601/09/22 06:53:02 METAR KSJC 091453Z 00000KT 10SM FEW004 04/02 A3024 RMK AO2 SLP238 T00390017 51016 $ (DR)","D01      0ADE726"
"72494523293","2022-01-09T15:53:00","7","37.35938","-121.92444","15.0","SAN JOSE, CA US","FM-15","KSJC ","V020","999,9,C,0000,5","22000,5,9,N","016093,5,N,5","+0044,5","+0028,5","10243,5","01,0000,9,5",,,,,,,,,,,,,,,,,,,,,,,,,,"10,5,+00000,5,99,9","02,5,+00152,5,99,9",,"6,99,1,+00000,5,9","1,99,1,+00152,5,9",,"9,AGL   ,+99999,+99999","02,99,5,99,9,99,9,00000,1,99,9,99,9",,,,,,,,,,,"10244,5,10226,5",,,,,,,,,,"MET11701/09/22 07:53:02 METAR KSJC 091553Z 00000KT 10SM FEW000 FEW005 04/03 A3025 RMK AO2 SLP243 FU FEW000 T00440028 $ (DR)","D01      0ADE726"
"72494523293","2022-01-09T16:53:00","7","37.35938","-121.92444","15.0","SAN JOSE, CA US","FM-15","KSJC ","V020","999,9,C,0000,5","22000,5,9,N","016093,5,N,5","+0072,5","+0061,5","10249,5","01,0000,9,5",,,,,,,,,,,,,,,,,,,,,,,,,,"10,5,+00000,5,99,9","02,5,+00152,5,99,9","02,5,+03658,5,99,9","6,99,1,+00000,5,9","1,99,1,+00152,5,9","1,99,1,+03658,5,9","9,AGL   ,+99999,+99999","02,99,5,99,9,99,9,00000,1,99,9,99,9",,,,,,,,,,,"10251,5,10232,5",,,,,,,,,,"MET12401/09/22 08:53:02 METAR KSJC 091653Z 00000KT 10SM FEW000 FEW005 FEW120 07/06 A3027 RMK AO2 SLP249 HZ FEW000 T00720061 $ (DR)","D01      0ADE726"
"72494523293","2022-01-09T17:53:00","7","37.35938","-121.92444","15.0","SAN JOSE, CA US","FM-15","KSJC ","V020","250,5,N,0015,5","22000,5,9,N","016093,5,N,5","+0089,5","+0061,5","10257,5","01,0000,9,5",,,,,,,,,,,,,,,,,,,,,,,,,,"02,5,+00183,5,99,9","02,5,+03658,5,99,9",,"1,99,1,+00183,5,9","1,99,1,+03658,5,9",,"9,AGL   ,+99999,+99999","02,99,5,99,9,99,9,00183,1,99,9,99,9","060,M,+0094,1","060,N,+0033,1",,,,,,,,,"10257,5,10239,5","3,9,019,9,+999,9",,,,,,,,,"MET12501/09/22 09:53:02 METAR KSJC 091753Z 25003KT 10SM FEW006 FEW120 09/06 A3029 RMK AO2 SLP257 T00890061 10094 20033 53019 $ (DR)","D01      0ADE726"
"72494523293","2022-01-09T18:53:00","7","37.35938","-121.92444","15.0","SAN JOSE, CA US","FM-15","KSJC ","V020","999,9,C,0000,5","22000,5,9,N","016093,5,N,5","+0117,5","+0056,5","10256,5","01,0000,9,5",,,,,,,,,,,,,,,,,,,,,,,,,,"02,5,+00244,5,99,9","02,5,+03658,5,99,9",,"1,99,1,+00244,5,9","1,99,1,+03658,5,9",,"9,AGL   ,+99999,+99999","02,99,5,99,9,99,9,00244,1,99,9,99,9",,,,,,,,,,,"10257,5,10239,5",,,,,,,,,,"MET10701/09/22 10:53:02 METAR KSJC 091853Z 00000KT 10SM FEW008 FEW120 12/06 A3029 RMK AO2 SLP256 T01170056 $ (DR)","D01      0ADE726"
"72494523293","2022-01-09T19:53:00","7","37.35938","-121.92444","15.0","SAN JOSE, CA US","FM-15","KSJC ","V020","999,9,C,0000,5","22000,5,9,N","016093,5,N,5","+0128,5","+0050,5","10251,5","01,0000,9,5",,,,,,,,,,,,,,,,,,,,,,,,,,"02,5,+00305,5,99,9","02,5,+03658,5,99,9",,"1,99,1,+00305,5,9","1,99,1,+03658,5,9",,"9,AGL   ,+99999,+99999","02,99,5,99,9,99,9,00305,1,99,9,99,9",,,,,,,,,,,"10251,5,10232,5",,,,,,,,,,"MET10701/09/22 11:53:02 METAR KSJC 091953Z 00000KT 10SM FEW010 FEW120 13/05 A3027 RMK AO2 SLP251 T01280050 $ (DR)","D01      0ADE726"
"72494523293","2022-01-09T20:53:00","7","37.35938","-121.92444","15.0","SAN JOSE, CA US","FM-15","KSJC ","V020","999,9,C,0000,5","22000,5,9,N","016093,5,N,5","+0144,5","+0044,5","10244,5","01,0000,9,5",,,,,,,,,,,,,,,,,,,,,,,,,,"02,5,+00335,5,99,9","02,5,+03658,5,99,9",,"1,99,1,+00335,5,9","1,99,1,+03658,5,9",,"9,AGL   ,+99999,+99999","02,99,5,99,9,99,9,00335,1,99,9,99,9",,,,,,,,,,,"10244,5,10226,5","8,9,014,9,+999,9",,,,,,,,,"MET11301/09/22 12:53:02 METAR KSJC 092053Z 00000KT 10SM FEW011 FEW120 14/04 A3025 RMK AO2 SLP244 T01440044 58014 $ (DR)","D01      0ADE726"
"72494523293","2022-01-09T21:53:00","7","37.35938","-121.92444","15.0","SAN JOSE, CA US","FM-15","KSJC ","V020","999,9,V,0015,5","22000,5,9,N","016093,5,N,5","+0167,5","+0044,5","10241,5","01,0000,9,5",,,,,,,,,,,,,,,,,,,,,,,,,,"02,5,+00335,5,99,9","02,5,+03658,5,99,9",,"1,99,1,+00335,5,9","1,99,1,+03658,5,9",,"9,AGL   ,+99999,+99999","02,99,5,99,9,99,9,00335,1,99,9,99,9",,,,,,,,,,,"10244,5,10226,5",,,,,,,,,,"MET10701/09/22 13:53:02 METAR KSJC 092153Z VRB03KT 10SM FEW011 FEW120 17/04 A3025 RMK AO2 SLP241 T01670044 $ (JK)","D01      0ADE726"
"72494523293","2022-01-09T22:53:00","7","37.35938","-121.92444","15.0","SAN JOSE, CA US","FM-15","KSJC ","V020","340,5,N,0021,5","22000,5,9,N","016093,5,N,5","+0167,5","+0067,5","10243,5","01,0000,9,5",,,,,,,,,,,,,,,,,,,,,,,,,,"02,5,+00335,5,99,9","02,5,+03658,5,99,9",,"1,99,1,+00335,5,9","1,99,1,+03658,5,9",,"9,AGL   ,+99999,+99999","02,99,5,99,9,99,9,00335,1,99,9,99,9",,,,,,,,,,,"10244,5,10226,5",,,,,,,,,,"MET10701/09/22 14:53:02 METAR KSJC 092253Z 34004KT 10SM FEW011 FEW120 17/07 A3025 RMK AO2 SLP243 T01670067 $ (JK)","D01      0ADE726"
"72494523293","2022-01-09T23:53:00","7","37.35938","-121.92444","15.0","SAN JOSE, CA US","FM-15","KSJC ","V020","310,5,N,0031,5","22000,5,9,N","016093,5,N,5","+0150,5","+0067,5","10250,5","01,0000,9,5",,,,,,,,,,,,,,,,,,,,,,,,,,"04,5,+03658,5,99,9",,,"2,99,1,+03658,5,9",,,"9,AGL   ,+99999,+99999","04,99,5,99,9,99,9,03658,1,99,9,99,9","060,M,+0172,1","060,N,+0089,1",,,,,,,,,"10251,5,10232,5","3,9,006,9,+999,9",,,,,,,,,"MET11801/09/22 15:53:02 METAR KSJC 092353Z 31006KT 10SM SCT120 15/07 A3027 RMK AO2 SLP250 T01500067 10172 20089 53006 $ (JK)","D01      0ADE726"
"72494523293","2022-01-10T00:53:00","7","37.35938","-121.92444","15.0","SAN JOSE, CA US","FM-15","KSJC ","V020","270,5,N,0031,5","05486,5,M,N","016093,5,N,5","+0128,5","+0072,5","10256,5","01,0000,9,5",,,,,,,,,,,,,,,,,,,,,,,,,,"04,5,+03658,5,99,9","07,5,+05486,5,99,9",,"2,99,1,+03658,5,9","3,99,1,+05486,5,9",,"9,AGL   ,+99999,+99999","99,99,9,99,9,99,9,03658,1,99,9,99,9",,,,,,,,,,,"10257,5,10239,5",,,,,,,,,,"MET10201/09/22 16:53:01 METAR KSJC 100053Z 27006KT 10SM SCT120 BKN180 13/07 A3029 RMK AO2 SLP256 T01280072 $",
"72494523293","2022-01-10T01:53:00","7","37.35938","-121.92444","15.0","SAN JOSE, CA US","FM-15","KSJC ","V020","320,5,N,0021,5","05486,5,M,N","016093,5,N,5","+0111,5","+0072,5","10263,5","01,0000,9,5",,,,,,,,,,,,,,,,,,,,,,,,,,"04,5,+03658,5,99,9","07,5,+05486,5,99,9",,"2,99,1,+03658,5,9","3,99,1,+05486,5,9",,"9,AGL   ,+99999,+99999","99,99,9,99,9,99,9,03658,1,99,9,99,9",,,,,,,,,,,"10264,5,10246,5",,,,,,,,,,"MET10201/09/22 17:53:01 METAR KSJC 100153Z 32004KT 10SM SCT120 BKN180 11/07 A3031 RMK AO2 SLP263 T01110072 $",
"72494523293","2022-01-10T02:53:00","7","37.35938","-121.92444","15.0","SAN JOSE, CA US","FM-15","KSJC ","V020","250,5,N,0015,5","05486,5,M,N","016093,5,N,5","+0111,5","+0072,5","10269,5","01,0000,9,5",,,,,,,,,,,,,,,,,,,,,,,,,,"04,5,+03658,5,99,9","07,5,+05486,5,99,9",,"2,99,1,+03658,5,9","3,99,1,+05486,5,9",,"9,AGL   ,+99999,+99999","99,99,9,99,9,99,9,03658,1,99,9,99,9",,,,,,,,,,,"10271,5,10253,5","1,9,019,9,+999,9",,,,,,,,,"MET10801/09/22 18:53:01 METAR KSJC 100253Z 25003KT 10SM SCT120 BKN180 11/07 A3033 RMK AO2 SLP269 T01110072 51019 $",
"72494523293","2022-01-10T03:53:00","7","37.35938","-121.92444","15.0","SAN JOSE, CA US","FM-15","KSJC ","V020","999,9,C,0000,5","05486,5,M,N","016093,5,N,5","+0106,5","+0067,5","10275,5","01,0000,9,5",,,,,,,,,,,,,,,,,,,,,,,,,,"02,5,+03658,5,99,9","07,5,+05486,5,99,9",,"1,99,1,+03658,5,9","3,99,1,+05486,5,9",,"9,AGL   ,+99999,+99999","99,99,9,99,9,99,9,03658,1,99,9,99,9",,,,,,,,,,,"10278,5,10259,5",,,,,,,,,,"MET10201/09/22 19:53:01 METAR KSJC 100353Z 00000KT 10SM FEW120 BKN180 11/07 A3035 RMK AO2 SLP275 T01060067 $",
"72494523293","2022-01-10T04:53:00","7","37.35938","-121.92444","15.0","SAN JOSE, CA US","FM-15","KSJC ","V020","220,5,N,0021,5","22000,5,9,N","016093,5,N,5","+0100,5","+0067,5","10282,5","01,0000,9,5",,,,,,,,,,,,,,,,,,,,,,,,,,"04,5,+05486,5,99,9",,,"2,99,1,+05486,5,9",,,"9,AGL   ,+99999,+99999","04,99,5,99,9,99,9,05486,1,99,9,99,9",,,,,,,,,,,"10284,5,10266,5",,,,,,,,,,"MET09501/09/22 20:53:02 METAR KSJC 100453Z 22004KT 10SM SCT180 10/07 A3037 RMK AO2 SLP282 T01000067 $","D01      0ADE726"
"72494523293","2022-01-10T05:53:00","7","37.35938","-121.92444","15.0","SAN JOSE, CA US","FM-15","KSJC ","V020","999,9,C,0000,5","07620,5,M,N","016093,5,N,5","+0094,5","+0067,5","10285,5","01,0000,9,5",,,,,,,,,,,,,,,,,,,,,,,,,,"02,5,+05486,5,99,9","07,5,+07620,5,99,9",,"1,99,1,+05486,5,9","3,99,1,+07620,5,9",,"9,AGL   ,+99999,+99999","99,99,9,99,9,99,9,05486,1,99,9,99,9","060,M,+0150,1","060,N,+0094,1",,,,,,,,,"10288,5,10270,5","1,9,017,9,+999,9",,,,,,,,,"MET12001/09/22 21:53:02 METAR KSJC 100553Z 00000KT 10SM FEW180 BKN250 09/07 A3038 RMK AO2 SLP285 T00940067 10150 20094 51017 $",
"72494523293","2022-01-10T06:53:00","7","37.35938","-121.92444","15.0","SAN JOSE, CA US","FM-15","KSJC ","V020","999,9,C,0000,5","07620,5,M,N","016093,5,N,5","+0094,5","+0061,5","10290,5","01,0000,9,5",,,,,,,,,,,,,,,,,,,,,,,,,,"02,5,+05486,5,99,9","07,5,+07620,5,99,9",,"1,99,1,+05486,5,9","3,99,1,+07620,5,9",,"9,AGL   ,+99999,+99999","99,99,9,99,9,99,9,05486,1,99,9,99,9",,,,,,,,,,,"10291,5,10273,5",,,,,,,,,,"MET10201/09/22 22:53:02 METAR KSJC 100653Z 00000KT 10SM FEW180 BKN250 09/06 A3039 RMK AO2 SLP290 T00940061 $",
"72494523293","2022-01-10T07:53:00","7","37.35938","-121.92444","15.0","SAN JOSE, CA US","FM-15","KSJC ","V020","130,5,N,0015,5","05486,5,M,N","016093,5,N,5","+0083,5","+0061,5","10294,5","01,0000,9,5",,,,,,,,,,,,,,,,,,,,,,,,,,"07,5,+05486,5,99,9","07,5,+07620,5,99,9",,"3,99,1,+05486,5,9","3,99,1,+07620,5,9",,"9,AGL   ,+99999,+99999","99,99,9,99,9,99,9,05486,1,99,9,99,9","240,M,+0172,1","240,N,+0033,1",,,,,,,,,"10295,5,10276,5",,,,,,,,,,"MET11701/09/22 23:53:02 METAR KSJC 100753Z 13003KT 10SM BKN180 BKN250 08/06 A3040 RMK AO2 SLP294 LAST T00830061 401720033 $",
"72494523293","2022-01-10T07:59:00","6","37.35938","-121.92444","15.0","SAN JOSE, CA US","SOD  ","KSJC ","V020","999,9,9,9999,9","99999,9,9,9","999999,9,9,9","+9999,9","+9999,9","99999,9","24,0000,9,5",,,,,,,,,,,,,,,,,,,,,,"01,6,24,6",,,,,,,,,,,,"240,M,+0172,5","240,N,+0033,5",,,,,,,,,,,"10235,4,10224,4",,,,,"1,24,00492,300,9999,5","2,24,00402,300,9999,5","3,24,00098,999,9999,5","SOD70924 HR PRECIPITATION (IN): 0.00 WEATHER(CODE):1  24 HR MAX TEMP (F): 6324 HR MIN TEMP (F): 38AVERAGE STATION PRESSURE:30.225 MINIMUM SEA LEVEL PRESSURE:30.19 TIME OF OCCURRENCE:0431 PEAK WIND SPEED (MPH): 11 PEAK WIND DIR (DEG):300 PEAK WIND TIME (LST):      FASTEST 2MIN SPEED (MPH):  9FASTEST 2MIN DIR (DEG):300 FASTEST 2MIN TIME (LST):     AVERAGE WIND SPEED (MPH): 2.2 24 HR AVG TEMP (F): 51DEPART FROM NORMAL:  1  HEATING DEGREE DAYS: 14 COOLING DEGREE DAYS:  0 LATEST DAY MAX TEMP (0700-1900 LST):63  LATEST NIGHT MIN TEMP(1900-0800 LST):38 HOURLY INCREMENTAL PRECIPITATION VALUES (IN):.00 0.00 0.00 0.00 0.00 0.00 0.00 0.00 0.00 0.00 0.00 0.00 0.00 0.00 0.00 0.00 0.00 0.00 0.00 0.00 0.00 0.00 0.00 0.00","R01     17AXW093"
"72494523293","2022-01-10T08:53:00","7","37.35938","-121.92444","15.0","SAN JOSE, CA US","FM-15","KSJC ","V020","999,9,C,0000,5","22000,5,9,N","016093,5,N,5","+0072,5","+0050,5","10294,5","01,0000,9,5",,,,,,,,,,,,,,,,,,,,,,,,,,"00,5,+99999,9,99,9",,,"0,99,1,+99999,9,9",,,,"00,99,1,99,9,99,9,99999,9,99,9,99,9",,,,,,,,,,,"10295,5,10276,5","1,9,009,9,+999,9",,,,,,,,,"MET09801/10/22 00:53:02 METAR KSJC 100853Z 00000KT 10SM CLR 07/05 A3040 RMK AO2 SLP294 T00720050 51009 $",
"72494523293","2022-01-10T09:53:00","7","37.35938","-121.92444","15.0","SAN JOSE, CA US","FM-15","KSJC ","V020","130,5,N,0015,5","22000,5,9,N","016093,5,N,5","+0072,5","+0056,5","10295,5","01,0000,9,5",,,,,,,,,,,,,,,,,,,,,,,,,,"00,5,+99999,9,99,9",,,"0,99,1,+99999,9,9",,,,"00,99,1,99,9,99,9,99999,9,99,9,99,9",,,,,,,,,,,"10298,5,10280,5",,,,,,,,,,"MET09201/10/22 01:53:02 METAR KSJC 100953Z 13003KT 10SM CLR 07/06 A3041 RMK AO2 SLP295 T00720056 $",
"72494523293","2022-01-10T10:53:00","7","37.35938","-121.92444","15.0","SAN JOSE, CA US","FM-15","KSJC ","V020","170,5,N,0026,5","22000,5,9,N","016093,5,N,5","+0078,5","+0056,5","10291,5","01,0000,9,5",,,,,,,,,,,,,,,,,,,,,,,,,,"00,5,+99999,9,99,9",,,"0,99,1,+99999,9,9",,,,"00,99,1,99,9,99,9,99999,9,99,9,99,9",,,,,,,,,,,"10291,5,10273,5",,,,,,,,,,"MET09201/10/22 02:53:02 METAR KSJC 101053Z 17005KT 10SM CLR 08/06 A3039 RMK AO2 SLP291 T00780056 $",
"72494523293","2022-01-10T11:53:00","7","37.35938","-121.92444","15.0","SAN JOSE, CA US","FM-15","KSJC ","V020","070,5,N,0021,5","22000,5,9,N","016093,5,N,5","+0083,5","+0061,5","10288,5","01,0000,9,5",,,,,,,,,,,,,,,,,,,,,,,,,,"00,5,+99999,9,99,9",,,"0,99,1,+99999,9,9",,,,"00,99,1,99,9,99,9,99999,9,99,9,99,9","060,M,+0100,1","060,N,+0067,1",,,,,,,,,"10288,5,10270,5","8,9,006,9,+999,9",,,,,,,,,"MET11001/10/22 03:53:02 METAR KSJC 101153Z 07004KT 10SM CLR 08/06 A3038 RMK AO2 SLP288 T00830061 10100 20067 58006 $",
"72494523293","2022-01-10T12:53:00","7","37.35938","-121.92444","15.0","SAN JOSE, CA US","FM-15","KSJC ","V020","999,9,C,0000,5","22000,5,9,N","016093,5,N,5","+0078,5","+0056,5","10285,5","01,0000,9,5",,,,,,,,,,,,,,,,,,,,,,,,,,"00,5,+99999,9,99,9",,,"0,99,1,+99999,9,9",,,,"00,99,1,99,9,99,9,99999,9,99,9,99,9",,,,,,,,,,,"10288,5,10270,5",,,,,,,,,,"MET09201/10/22 04:53:02 METAR KSJC 101253Z 00000KT 10SM CLR 08/06 A3038 RMK AO2 SLP285 T00780056 $",
"72494523293","2022-01-10T13:53:00","7","37.35938","-121.92444","15.0","SAN JOSE, CA US","FM-15","KSJC ","V020","999,9,C,0000,5","22000,5,9,N","016093,5,N,5","+0083,5","+0056,5","10291,5","01,0000,9,5",,,,,,,,,,,,,,,,,,,,,,,,,,"00,5,+99999,9,99,9",,,"0,99,1,+99999,9,9",,,,"00,99,1,99,9,99,9,99999,9,99,9,99,9",,,,,,,,,,,"10291,5,10273,5",,,,,,,,,,"MET09701/10/22 05:53:02 METAR KSJC 101353Z 00000KT 10SM CLR 08/06 A3039 RMK AO2 SLP291 T00830056 $ (TC)",
"72494523293","2022-01-10T14:53:00","7","37.35938","-121.92444","15.0","SAN JOSE, CA US","FM-15","KSJC ","V020","230,5,N,0015,5","22000,5,9,N","016093,5,N,5","+0072,5","+0050,5","10296,5","01,0000,9,5",,,,,,,,,,,,,,,,,,,,,,,,,,"02,5,+03048,5,99,9",,,"1,99,1,+03048,5,9",,,"9,AGL   ,+99999,+99999","02,99,5,99,9,99,9,03048,1,99,9,99,9",,,,,,,,,,,"10298,5,10280,5","3,9,008,9,+999,9",,,,,,,,,"MET10601/10/22 06:53:02 METAR KSJC 101453Z 23003KT 10SM FEW100 07/05 A3041 RMK AO2 SLP296 T00720050 53008 $ (TC)","D01      0ADE726"
"72494523293","2022-01-10T15:53:00","7","37.35938","-121.92444","15.0","SAN JOSE, CA US","FM-15","KSJC ","V020","999,9,C,0000,5","22000,5,9,N","016093,5,N,5","+0072,5","+0044,5","10307,5","01,0000,9,5",,,,,,,,,,,,,,,,,,,,,,,,,,"02,5,+03048,5,99,9","02,5,+04877,5,99,9",,"1,99,1,+03048,5,9","1,99,1,+04877,5,9",,"9,AGL   ,+99999,+99999","02,99,5,99,9,99,9,03048,1,99,9,99,9",,,,,,,,,,,"10308,5,10290,5",,,,,,,,,,"MET10701/10/22 07:53:02 METAR KSJC 101553Z 00000KT 10SM FEW100 FEW160 07/04 A3044 RMK AO2 SLP307 T00720044 $ (TC)","D01      0ADE726"
"72494523293","2022-01-10T16:53:00","7","37.35938","-121.92444","15.0","SAN JOSE, CA US","FM-15","KSJC ","V020","999,9,C,0000,5","22000,5,9,N","014484,5,N,5","+0089,5","+0078,5","10309,5","01,0000,9,5",,,,,,,,,,,,,,,,,,,,,,,,,,"02,5,+03048,5,99,9","02,5,+04877,5,99,9",,"1,99,1,+03048,5,9","1,99,1,+04877,5,9",,"9,AGL   ,+99999,+99999","02,99,5,99,9,99,9,03048,1,99,9,99,9",,,,,,,,,,,"10312,5,10293,5",,,,,,,,,,"MET10401/10/22 08:53:02 METAR KSJC 101653Z 00000KT 9SM FEW100 FEW160 09/08 A3045 RMK AO2 SLP309 T00890078 (TC)","D01      0ADE726"
"72494523293","2022-01-10T17:53:00","7","37.35938","-121.92444","15.0","SAN JOSE, CA US","FM-15","KSJC ","V020","999,9,C,0000,5","22000,5,9,N","016093,5,N,5","+0117,5","+0078,5","10311,5","01,0000,9,5",,,,,,,,,,,,,,,,,,,,,,,,,,"02,5,+03048,5,99,9","04,5,+04877,5,99,9",,"1,99,1,+03048,5,9","2,99,1,+04877,5,9",,"9,AGL   ,+99999,+99999","04,99,5,99,9,99,9,03048,1,99,9,99,9","060,M,+0117,1","060,N,+0056,1",,,,,,,,,"10312,5,10293,5","1,9,015,9,+999,9",,,,,,,,,"MET13101/10/22 09:53:02 METAR KSJC 101753Z 00000KT 10SM FEW100 SCT160 12/08 A3045 RMK AO2 SLP311 VIRGA W T01170078 10117 20056 51015 (TC)","D01      0ADE726"
"72494523293","2022-01-10T18:53:00","7","37.35938","-121.92444","15.0","SAN JOSE, CA US","FM-15","KSJC ","V020","999,9,C,0000,5","22000,5,9,N","016093,5,N,5","+0133,5","+0083,5","10312,5","01,0000,9,5",,,,,,,,,,,,,,,,,,,,,,,,,,"02,5,+02743,5,99,9","02,5,+04877,5,99,9",,"1,99,1,+02743,5,9","1,99,1,+04877,5,9",,"9,AGL   ,+99999,+99999","02,99,5,99,9,99,9,02743,1,99,9,99,9",,,,,,,,,,,"10312,5,10293,5",,,,,,,,,,"MET10501/10/22 10:53:02 METAR KSJC 101853Z 00000KT 10SM FEW090 FEW160 13/08 A3045 RMK AO2 SLP312 T01330083 (TC)","D01      0ADE726"
"72494523293","2022-01-10T19:53:00","7","37.35938","-121.92444","15.0","SAN JOSE, CA US","FM-15","KSJC ","V020","999,9,C,0000,5","22000,5,9,N","016093,5,N,5","+0150,5","+0078,5","10293,5","01,0000,9,5",,,,,,,,,,,,,,,,,,,,,,,,,,"02,5,+02743,5,99,9","02,5,+04877,5,99,9",,"1,99,1,+02743,5,9","1,99,1,+04877,5,9",,"9,AGL   ,+99999,+99999","02,99,5,99,9,99,9,02743,1,99,9,99,9",,,,,,,,,,,"10295,5,10276,5",,,,,,,,,,"MET11201/10/22 11:53:02 METAR KSJC 101953Z 00000KT 10SM FEW090 FEW160 15/08 A3040 RMK AO2 PRESFR SLP293 T01500078 (TC)","D01      0ADE726"
"72494523293","2022-01-10T20:53:00","7","37.35938","-121.92444","15.0","SAN JOSE, CA US","FM-15","KSJC ","V020","310,5,N,0031,5","22000,5,9,N","016093,5,N,5","+0167,5","+0078,5","10286,5","01,0000,9,5",,,,,,,,,,,,,,,,,,,,,,,,,,"02,5,+02743,5,99,9","02,5,+04877,5,99,9",,"1,99,1,+02743,5,9","1,99,1,+04877,5,9",,"9,AGL   ,+99999,+99999","02,99,5,99,9,99,9,02743,1,99,9,99,9",,,,,,,,,,,"10288,5,10270,5","8,9,025,9,+999,9",,,,,,,,,"MET11101/10/22 12:53:02 METAR KSJC 102053Z 31006KT 10SM FEW090 FEW160 17/08 A3038 RMK AO2 SLP286 T01670078 58025 (TC)","D01      0ADE726"
"72494523293","2022-01-10T21:53:00","7","37.35938","-121.92444","15.0","SAN JOSE, CA US","FM-15","KSJC ","V020","320,5,N,0021,5","22000,5,9,N","016093,5,N,5","+0172,5","+0067,5","10279,5","01,0000,9,5",,,,,,,,,,,,,,,,,,,,,,,,,,"02,5,+02743,5,99,9","02,5,+04877,5,99,9",,"1,99,1,+02743,5,9","1,99,1,+04877,5,9",,"9,AGL   ,+99999,+99999","02,99,5,99,9,99,9,02743,1,99,9,99,9",,,,,,,,,,,"10281,5,10263,5",,,,,,,,,,"MET10501/10/22 13:53:02 METAR KSJC 102153Z 32004KT 10SM FEW090 FEW160 17/07 A3036 RMK AO2 SLP279 T01720067 (JK)","D01      0ADE726"
"72494523293","2022-01-10T22:53:00","7","37.35938","-121.92444","15.0","SAN JOSE, CA US","FM-15","KSJC ","V020","270,5,N,0015,5","22000,5,9,N","016093,5,N,5","+0178,5","+0056,5","10273,5","01,0000,9,5",,,,,,,,,,,,,,,,,,,,,,,,,,"02,5,+02743,5,99,9","02,5,+04877,5,99,9",,"1,99,1,+02743,5,9","1,99,1,+04877,5,9",,"9,AGL   ,+99999,+99999","02,99,5,99,9,99,9,02743,1,99,9,99,9",,,,,,,,,,,"10274,5,10256,5",,,,,,,,,,"MET10501/10/22 14:53:02 METAR KSJC 102253Z 27003KT 10SM FEW090 FEW160 18/06 A3034 RMK AO2 SLP273 T01780056 (JK)","D01      0ADE726"
"72494523293","2022-01-10T23:53:00","7","37.35938","-121.92444","15.0","SAN JOSE, CA US","FM-15","KSJC ","V020","310,5,N,0036,5","22000,5,9,N","016093,5,N,5","+0178,5","+0083,5","10276,5","01,0000,9,5",,,,,,,,,,,,,,,,,,,,,,,,,,"02,5,+02743,5,99,9","02,5,+04877,5,99,9",,"1,99,1,+02743,5,9","1,99,1,+04877,5,9",,"9,AGL   ,+99999,+99999","02,99,5,99,9,99,9,02743,1,99,9,99,9","060,M,+0189,1","060,N,+0117,1",,,,,,,,,"10278,5,10259,5","5,9,010,9,+999,9",,,,,,,,,"MET12301/10/22 15:53:02 METAR KSJC 102353Z 31007KT 10SM FEW090 FEW160 18/08 A3035 RMK AO2 SLP276 T01780083 10189 20117 55010 (JK)","D01      0ADE726"
"72494523293","2022-01-11T00:53:00","7","37.35938","-121.92444","15.0","SAN JOSE, CA US","FM-15","KSJC ","V020","310,5,N,0036,5","22000,5,9,N","016093,5,N,5","+0144,5","+0083,5","10277,5","01,0000,9,5",,,,,,,,,,,,,,,,,,,,,,,,,,"02,5,+02743,5,99,9",,,"1,99,1,+02743,5,9",,,"9,AGL   ,+99999,+99999","02,99,5,99,9,99,9,02743,1,99,9,99,9",,,,,,,,,,,"10278,5,10259,5",,,,,,,,,,"MET09301/10/22 16:53:01 METAR KSJC 110053Z 31007KT 10SM FEW090 14/08 A3035 RMK AO2 SLP277 T01440083","D01      0ADE726"
"72494523293","2022-01-11T01:53:00","7","37.35938","-121.92444","15.0","SAN JOSE, CA US","FM-15","KSJC ","V020","320,5,N,0026,5","22000,5,9,N","016093,5,N,5","+0122,5","+0083,5","10286,5","01,0000,9,5",,,,,,,,,,,,,,,,,,,,,,,,,,"02,5,+02134,5,99,9",,,"1,99,1,+02134,5,9",,,"9,AGL   ,+99999,+99999","02,99,5,99,9,99,9,02134,1,99,9,99,9",,,,,,,,,,,"10288,5,10270,5",,,,,,,,,,"MET09301/10/22 17:53:01 METAR KSJC 110153Z 32005KT 10SM FEW070 12/08 A3038 RMK AO2 SLP286 T01220083","D01      0ADE726"
"72494523293","2022-01-11T02:53:00","7","37.35938","-121.92444","15.0","SAN JOSE, CA US","FM-15","KSJC ","V020","999,9,C,0000,5","22000,5,9,N","016093,5,N,5","+0128,5","+0078,5","10289,5","01,0000,9,5",,,,,,,,,,,,,,,,,,,,,,,,,,"02,5,+02134,5,99,9",,,"1,99,1,+02134,5,9",,,"9,AGL   ,+99999,+99999","02,99,5,99,9,99,9,02134,1,99,9,99,9",,,,,,,,,,,"10291,5,10273,5","3,9,013,9,+999,9",,,,,,,,,"MET09901/10/22 18:53:01 METAR KSJC 110253Z 00000KT 10SM FEW070 13/08 A3039 RMK AO2 SLP289 T01280078 53013","D01      0ADE726"
"72494523293","2022-01-11T03:53:00","7","37.35938","-121.92444","15.0","SAN JOSE, CA US","FM-15","KSJC ","V020","090,5,N,0015,5","22000,5,9,N","016093,5,N,5","+0117,5","+0078,5","10291,5","01,0000,9,5",,,,,,,,,,,,,,,,,,,,,,,,,,"02,5,+02134,5,99,9",,,"1,99,1,+02134,5,9",,,"9,AGL   ,+99999,+99999","02,99,5,99,9,99,9,02134,1,99,9,99,9",,,,,,,,,,,"10291,5,10273,5",,,,,,,,,,"MET09301/10/22 19:53:02 METAR KSJC 110353Z 09003KT 10SM FEW070 12/08 A3039 RMK AO2 SLP291 T01170078","D01      0ADE726"
"72494523293","2022-01-11T04:53:00","7","37.35938","-121.92444","15.0","SAN JOSE, CA US","FM-15","KSJC ","V020","999,9,C,0000,5","22000,5,9,N","016093,5,N,5","+0111,5","+0067,5","10292,5","01,0000,9,5",,,,,,,,,,,,,,,,,,,,,,,,,,"00,5,+99999,9,99,9",,,"0,99,1,+99999,9,9",,,,"00,99,1,99,9,99,9,99999,9,99,9,99,9",,,,,,,,,,,"10295,5,10276,5",,,,,,,,,,"MET09001/10/22 20:53:02 METAR KSJC 110453Z 00000KT 10SM CLR 11/07 A3040 RMK AO2 SLP292 T01110067",
"72494523293","2022-01-11T05:53:00","7","37.35938","-121.92444","15.0","SAN JOSE, CA US","FM-15","KSJC ","V020","250,5,N,0015,5","22000,5,9,N","016093,5,N,5","+0106,5","+0072,5","10292,5","01,0000,9,5",,,,,,,,,,,,,,,,,,,,,,,,,,"00,5,+99999,9,99,9",,,"0,99,1,+99999,9,9",,,,"00,99,1,99,9,99,9,99999,9,99,9,99,9","060,M,+0178,1","060,N,+0100,1",,,,,,,,,"10295,5,10276,5","1,9,003,9,+999,9",,,,,,,,,"MET10801/10/22 21:53:02 METAR KSJC 110553Z 25003KT 10SM CLR 11/07 A3040 RMK AO2 SLP292 T01060072 10178 20100 51003",
"72494523293","2022-01-11T06:53:00","7","37.35938","-121.92444","15.0","SAN JOSE, CA US","FM-15","KSJC ","V020","160,5,N,0015,5","22000,5,9,N","014484,5,N,5","+0089,5","+0061,5","10294,5","01,0000,9,5",,,,,,,,,,,,,,,,,,,,,,,,,,"02,5,+00488,5,99,9",,,"1,99,1,+00488,5,9",,,"9,AGL   ,+99999,+99999","02,99,5,99,9,99,9,00488,1,99,9,99,9",,,,,,,,,,,"10295,5,10276,5",,,,,,,,,,"MET09201/10/22 22:53:02 METAR KSJC 110653Z 16003KT 9SM FEW016 09/06 A3040 RMK AO2 SLP294 T00890061","D01      0ADE726"
"72494523293","2022-01-11T07:53:00","7","37.35938","-121.92444","15.0","SAN JOSE, CA US","FM-15","KSJC ","V020","999,9,C,0000,5","22000,5,9,N","016093,5,N,5","+0072,5","+0044,5","10293,5","01,0000,9,5",,,,,,,,,,,,,,,,,,,,,,,,,,"02,5,+00488,5,99,9",,,"1,99,1,+00488,5,9",,,"9,AGL   ,+99999,+99999","02,99,5,99,9,99,9,00488,1,99,9,99,9","240,M,+0189,1","240,N,+0056,1",,,,,,,,,"10295,5,10276,5",,,,,,,,,,"MET10801/10/22 23:53:02 METAR KSJC 110753Z 00000KT 10SM FEW016 07/04 A3040 RMK AO2 SLP293 LAST T00720044 401890056","D01      0ADE726"
"72494523293","2022-01-11T07:59:00","6","37.35938","-121.92444","15.0","SAN JOSE, CA US","SOD  ","KSJC ","V020","999,9,9,9999,9","99999,9,9,9","999999,9,9,9","+9999,9","+9999,9","99999,9","24,0000,9,5",,,,,,,,,,,,,,,,,,,,,,,,,,,,,,,,,,"240,M,+0189,5","240,N,+0056,5",,,,,,,,,,,"10273,4,10271,4",,,,,"1,24,00626,350,9999,5","2,24,00447,320,9999,5","3,24,00121,999,9999,5","SOD69224 HR PRECIPITATION (IN): 0.00 24 HR MAX TEMP (F): 6624 HR MIN TEMP (F): 42AVERAGE STATION PRESSURE:30.335 MINIMUM SEA LEVEL PRESSURE:30.33 TIME OF OCCURRENCE:1523 PEAK WIND SPEED (MPH): 14 PEAK WIND DIR (DEG):350 PEAK WIND TIME (LST):      FASTEST 2MIN SPEED (MPH): 10FASTEST 2MIN DIR (DEG):320 FASTEST 2MIN TIME (LST):     AVERAGE WIND SPEED (MPH): 2.7 24 HR AVG TEMP (F): 54DEPART FROM NORMAL:  4  HEATING DEGREE DAYS: 11 COOLING DEGREE DAYS:  0 LATEST DAY MAX TEMP (0700-1900 LST):66  LATEST NIGHT MIN TEMP(1900-0800 LST):44 HOURLY INCREMENTAL PRECIPITATION VALUES (IN):.00 0.00 0.00 0.00 0.00 0.00 0.00 0.00 0.00 0.00 0.00 0.00 0.00 0.00 0.00 0.00 0.00 0.00 0.00 0.00 0.00 0.00 0.00 0.00",
"72494523293","2022-01-11T08:53:00","7","37.35938","-121.92444","15.0","SAN JOSE, CA US","FM-15","KSJC ","V020","999,9,C,0000,5","22000,5,9,N","016093,5,N,5","+0078,5","+0050,5","10293,5","01,0000,9,5",,,,,,,,,,,,,,,,,,,,,,,,,,"00,5,+99999,9,99,9",,,"0,99,1,+99999,9,9",,,,"00,99,1,99,9,99,9,99999,9,99,9,99,9",,,,,,,,,,,"10295,5,10276,5","1,9,001,9,+999,9",,,,,,,,,"MET09601/11/22 00:53:02 METAR KSJC 110853Z 00000KT 10SM CLR 08/05 A3040 RMK AO2 SLP293 T00780050 51001",
"72494523293","2022-01-11T09:53:00","7","37.35938","-121.92444","15.0","SAN JOSE, CA US","FM-15","KSJC ","V020","999,9,C,0000,5","22000,5,9,N","016093,5,N,5","+0067,5","+0039,5","10292,5","01,0000,9,5",,,,,,,,,,,,,,,,,,,,,,,,,,"00,5,+99999,9,99,9",,,"0,99,1,+99999,9,9",,,,"00,99,1,99,9,99,9,99999,9,99,9,99,9",,,,,,,,,,,"10295,5,10276,5",,,,,,,,,,"MET09001/11/22 01:53:02 METAR KSJC 110953Z 00000KT 10SM CLR 07/04 A3040 RMK AO2 SLP292 T00670039",
"72494523293","2022-01-11T10:53:00","7","37.35938","-121.92444","15.0","SAN JOSE, CA US","FM-15","KSJC ","V020","999,9,C,0000,5","22000,5,9,N","016093,5,N,5","+0067,5","+0039,5","10291,5","01,0000,9,5",,,,,,,,,,,,,,,,,,,,,,,,,,"00,5,+99999,9,99,9",,,"0,99,1,+99999,9,9",,,,"00,99,1,99,9,99,9,99999,9,99,9,99,9",,,,,,,,,,,"10291,5,10273,5",,,,,,,,,,"MET09001/11/22 02:53:02 METAR KSJC 111053Z 00000KT 10SM CLR 07/04 A3039 RMK AO2 SLP291 T00670039",
"72494523293","2022-01-11T11:53:00","7","37.35938","-121.92444","15.0","SAN JOSE, CA US","FM-15","KSJC ","V020","100,5,N,0015,5","22000,5,9,N","012875,5,N,5","+0061,5","+0033,5","10287,5","01,0000,9,5",,,,,,,,,,,,,,,,,,,,,,,,,,"00,5,+99999,9,99,9",,,"0,99,1,+99999,9,9",,,,"00,99,1,99,9,99,9,99999,9,99,9,99,9","060,M,+0106,1","060,N,+0056,1",,,,,,,,,"10288,5,10270,5","8,9,006,9,+999,9",,,,,,,,,"MET10701/11/22 03:53:02 METAR KSJC 111153Z 10003KT 8SM CLR 06/03 A3038 RMK AO2 SLP287 T00610033 10106 20056 58006",
"72494523293","2022-01-11T12:53:00","7","37.35938","-121.92444","15.0","SAN JOSE, CA US","FM-15","KSJC ","V020","110,5,N,0021,5","22000,5,9,N","016093,5,N,5","+0056,5","+0033,5","10284,5","01,0000,9,5",,,,,,,,,,,,,,,,,,,,,,,,,,"00,5,+99999,9,99,9",,,"0,99,1,+99999,9,9",,,,"00,99,1,99,9,99,9,99999,9,99,9,99,9",,,,,,,,,,,"10284,5,10266,5",,,,,,,,,,"MET09001/11/22 04:53:02 METAR KSJC 111253Z 11004KT 10SM CLR 06/03 A3037 RMK AO2 SLP284 T00560033",
"72494523293","2022-01-11T13:53:00","7","37.35938","-121.92444","15.0","SAN JOSE, CA US","FM-15","KSJC ","V020","150,5,N,0015,5","22000,5,9,N","016093,5,N,5","+0061,5","+0033,5","10285,5","01,0000,9,5",,,,,,,,,,,,,,,,,,,,,,,,,,"00,5,+99999,9,99,9",,,"0,99,1,+99999,9,9",,,,"00,99,1,99,9,99,9,99999,9,99,9,99,9",,,,,,,,,,,"10284,5,10266,5",,,,,,,,,,"MET09501/11/22 05:53:02 METAR KSJC 111353Z 15003KT 10SM CLR 06/03 A3037 RMK AO2 SLP285 T00610033 (TC)",
"72494523293","2022-01-11T14:53:00","7","37.35938","-121.92444","15.0","SAN JOSE, CA US","FM-15","KSJC ","V020","999,9,C,0000,5","22000,5,9,N","016093,5,N,5","+0061,5","+0033,5","10291,5","01,0000,9,5",,,,,,,,,,,,,,,,,,,,,,,,,,"04,5,+02134,5,99,9","04,5,+03048,5,99,9",,"2,99,1,+02134,5,9","2,99,1,+03048,5,9",,"9,AGL   ,+99999,+99999","04,99,5,99,9,99,9,02134,1,99,9,99,9",,,,,,,,,,,"10291,5,10273,5","3,9,005,9,+999,9",,,,,,,,,"MET11101/11/22 06:53:02 METAR KSJC 111453Z 00000KT 10SM SCT070 SCT100 06/03 A3039 RMK AO2 SLP291 T00610033 53005 (TC)","D01      0ADE726"
"72494523293","2022-01-11T15:53:00","7","37.35938","-121.92444","15.0","SAN JOSE, CA US","FM-15","KSJC ","V020","150,5,N,0021,5","22000,5,9,N","016093,5,N,5","+0050,5","+0033,5","10291,5","01,0000,9,5",,,,,,,,,,,,,,,,,,,,,,,,,,"02,5,+01981,5,99,9","04,5,+03048,5,99,9","04,5,+04572,5,99,9","1,99,1,+01981,5,9","2,99,1,+03048,5,9","2,99,1,+04572,5,9","9,AGL   ,+99999,+99999","04,99,5,99,9,99,9,01981,1,99,9,99,9",,,,,,,,,,,"10291,5,10273,5",,,,,,,,,,"MET11201/11/22 07:53:02 METAR KSJC 111553Z 15004KT 10SM FEW065 SCT100 SCT150 05/03 A3039 RMK AO2 SLP291 T00500033 (TC)","D01      0ADE726"
"72494523293","2022-01-11T16:53:00","7","37.35938","-121.92444","15.0","SAN JOSE, CA US","FM-15","KSJC ","V020","999,9,C,0000,5","22000,5,9,N","016093,5,N,5","+0089,5","+0061,5","10293,5","01,0000,9,5",,,,,,,,,,,,,,,,,,,,,,,,,,"02,5,+01981,5,99,9","04,5,+03048,5,99,9","04,5,+04572,5,99,9","1,99,1,+01981,5,9","2,99,1,+03048,5,9","2,99,1,+04572,5,9","9,AGL   ,+99999,+99999","04,99,5,99,9,99,9,01981,1,99,9,99,9",,,,,,,,,,,"10295,5,10276,5",,,,,,,,,,"MET11201/11/22 08:53:02 METAR KSJC 111653Z 00000KT 10SM FEW065 SCT100 SCT150 09/06 A3040 RMK AO2 SLP293 T00890061 (TC)","D01      0ADE726"
"72494523293","2022-01-11T17:53:00","7","37.35938","-121.92444","15.0","SAN JOSE, CA US","FM-15","KSJC ","V020","999,9,C,0000,5","22000,5,9,N","016093,5,N,5","+0111,5","+0061,5","10293,5","01,0000,9,5",,,,,,,,,,,,,,,,,,,,,,,,,,"02,5,+01981,5,99,9","04,5,+03048,5,99,9","04,5,+04572,5,99,9","1,99,1,+01981,5,9","2,99,1,+03048,5,9","2,99,1,+04572,5,9","9,AGL   ,+99999,+99999","04,99,5,99,9,99,9,01981,1,99,9,99,9","060,M,+0111,1","060,N,+0050,1",,,,,,,,,"10295,5,10276,5","3,9,002,9,+999,9",,,,,,,,,"MET13001/11/22 09:53:02 METAR KSJC 111753Z 00000KT 10SM FEW065 SCT100 SCT150 11/06 A3040 RMK AO2 SLP293 T01110061 10111 20050 53002 (TC)","D01      0ADE726"
"72494523293","2022-01-11T18:53:00","7","37.35938","-121.92444","15.0","SAN JOSE, CA US","FM-15","KSJC ","V020","999,9,C,0000,5","22000,5,9,N","016093,5,N,5","+0133,5","+0067,5","10294,5","01,0000,9,5",,,,,,,,,,,,,,,,,,,,,,,,,,"02,5,+01981,5,99,9","02,5,+03048,5,99,9","02,5,+04572,5,99,9","1,99,1,+01981,5,9","1,99,1,+03048,5,9","1,99,1,+04572,5,9","9,AGL   ,+99999,+99999","02,99,5,99,9,99,9,01981,1,99,9,99,9",,,,,,,,,,,"10295,5,10276,5",,,,,,,,,,"MET11201/11/22 10:53:02 METAR KSJC 111853Z 00000KT 10SM FEW065 FEW100 FEW150 13/07 A3040 RMK AO2 SLP294 T01330067 (TC)","D01      0ADE726"
"72494523293","2022-01-11T19:53:00","7","37.35938","-121.92444","15.0","SAN JOSE, CA US","FM-15","KSJC ","V020","999,9,C,0000,5","22000,5,9,N","016093,5,N,5","+0156,5","+0061,5","10285,5","01,0000,9,5",,,,,,,,,,,,,,,,,,,,,,,,,,"02,5,+01981,5,99,9","04,5,+03048,5,99,9",,"1,99,1,+01981,5,9","2,99,1,+03048,5,9",,"9,AGL   ,+99999,+99999","04,99,5,99,9,99,9,01981,1,99,9,99,9",,,,,,,,,,,"10284,5,10266,5",,,,,,,,,,"MET10501/11/22 11:53:02 METAR KSJC 111953Z 00000KT 10SM FEW065 SCT100 16/06 A3037 RMK AO2 SLP285 T01560061 (TC)","D01      0ADE726"
"72494523293","2022-01-11T20:53:00","7","37.35938","-121.92444","15.0","SAN JOSE, CA US","FM-15","KSJC ","V020","999,9,C,0000,5","05182,5,M,N","016093,5,N,5","+0167,5","+0056,5","10269,5","01,0000,9,5",,,,,,,,,,,,,,,,,,,,,,,,,,"02,5,+01981,5,99,9","04,5,+03048,5,99,9","07,5,+05182,5,99,9","1,99,1,+01981,5,9","2,99,1,+03048,5,9","3,99,1,+05182,5,9","9,AGL   ,+99999,+99999","99,99,9,99,9,99,9,01981,1,99,9,99,9",,,,,,,,,,,"10271,5,10253,5","8,9,024,9,+999,9",,,,,,,,,"MET12001/11/22 12:53:02 METAR KSJC 112053Z 00000KT 10SM FEW065 SCT100 BKN170 17/06 A3033 RMK AO2 SLP269 T01670056 58024 $ (TC)",
"72494523293","2022-01-11T21:53:00","7","37.35938","-121.92444","15.0","SAN JOSE, CA US","FM-15","KSJC ","V020","999,9,C,0000,5","05182,5,M,N","016093,5,N,5","+0178,5","+0050,5","10261,5","01,0000,9,5",,,,,,,,,,,,,,,,,,,,,,,,,,"02,5,+01981,5,99,9","04,5,+03048,5,99,9","07,5,+05182,5,99,9","1,99,1,+01981,5,9","2,99,1,+03048,5,9","3,99,1,+05182,5,9","9,AGL   ,+99999,+99999","99,99,9,99,9,99,9,01981,1,99,9,99,9",,,,,,,,,,,"10261,5,10243,5",,,,,,,,,,"MET11201/11/22 13:53:02 METAR KSJC 112153Z 00000KT 10SM FEW065 SCT100 BKN170 18/05 A3030 RMK AO2 SLP261 T01780050 (JK)",
"72494523293","2022-01-11T22:53:00","7","37.35938","-121.92444","15.0","SAN JOSE, CA US","FM-15","KSJC ","V020","999,9,C,0000,5","03048,5,M,N","016093,5,N,5","+0189,5","+0050,5","10255,5","01,0000,9,5",,,,,,,,,,,,,,,,,,,,,,,,,,"04,5,+01981,5,99,9","07,5,+03048,5,99,9","07,5,+05182,5,99,9","2,99,1,+01981,5,9","3,99,1,+03048,5,9","3,99,1,+05182,5,9","9,AGL   ,+99999,+99999","99,99,9,99,9,99,9,01981,1,99,9,99,9",,,,,,,,,,,"10257,5,10239,5",,,,,,,,,,"MET11201/11/22 14:53:02 METAR KSJC 112253Z 00000KT 10SM SCT065 BKN100 BKN170 19/05 A3029 RMK AO2 SLP255 T01890050 (JK)",
"72494523293","2022-01-11T23:53:00","7","37.35938","-121.92444","15.0","SAN JOSE, CA US","FM-15","KSJC ","V020","320,5,N,0036,5","03048,5,M,N","016093,5,N,5","+0172,5","+0067,5","10257,5","01,0000,9,5",,,,,,,,,,,,,,,,,,,,,,,,,,"04,5,+01981,5,99,9","07,5,+03048,5,99,9","07,5,+05182,5,99,9","2,99,1,+01981,5,9","3,99,1,+03048,5,9","3,99,1,+05182,5,9","9,AGL   ,+99999,+99999","99,99,9,99,9,99,9,01981,1,99,9,99,9","060,M,+0189,1","060,N,+0111,1",,,,,,,,,"10257,5,10239,5","5,9,012,9,+999,9",,,,,,,,,"MET13001/11/22 15:53:02 METAR KSJC 112353Z 32007KT 10SM SCT065 BKN100 BKN170 17/07 A3029 RMK AO2 SLP257 T01720067 10189 20111 55012 (JK)",
"72494523293","2022-01-12T00:53:00","7","37.35938","-121.92444","15.0","SAN JOSE, CA US","FM-15","KSJC ","V020","300,5,N,0031,5","03048,5,M,N","016093,5,N,5","+0144,5","+0061,5","10257,5","01,0000,9,5",,,,,,,,,,,,,,,,,,,,,,,,,,"04,5,+01981,5,99,9","07,5,+03048,5,99,9","07,5,+05182,5,99,9","2,99,1,+01981,5,9","3,99,1,+03048,5,9","3,99,1,+05182,5,9","9,AGL   ,+99999,+99999","99,99,9,99,9,99,9,01981,1,99,9,99,9",,,,,,,,,,,"10257,5,10239,5",,,,,,,,,,"MET10701/11/22 16:53:01 METAR KSJC 120053Z 30006KT 10SM SCT065 BKN100 BKN170 14/06 A3029 RMK AO2 SLP257 T01440061",
"72494523293","2022-01-12T01:53:00","7","37.35938","-121.92444","15.0","SAN JOSE, CA US","FM-15","KSJC ","V020","300,5,N,0031,5","03048,5,M,N","016093,5,N,5","+0128,5","+0067,5","10256,5","01,0000,9,5",,,,,,,,,,,,,,,,,,,,,,,,,,"04,5,+01981,5,99,9","07,5,+03048,5,99,9","07,5,+05182,5,99,9","2,99,1,+01981,5,9","3,99,1,+03048,5,9","3,99,1,+05182,5,9","9,AGL   ,+99999,+99999","99,99,9,99,9,99,9,01981,1,99,9,99,9",,,,,,,,,,,"10257,5,10239,5",,,,,,,,,,"MET10701/11/22 17:53:01 METAR KSJC 120153Z 30006KT 10SM SCT065 BKN100 BKN170 13/07 A3029 RMK AO2 SLP256 T01280067",
"72494523293","2022-01-12T02:53:00","7","37.35938","-121.92444","15.0","SAN JOSE, CA US","FM-15","KSJC ","V020","150,5,N,0015,5","03048,5,M,N","016093,5,N,5","+0117,5","+0056,5","10259,5","01,0000,9,5",,,,,,,,,,,,,,,,,,,,,,,,,,"04,5,+01981,5,99,9","07,5,+03048,5,99,9","07,5,+05182,5,99,9","2,99,1,+01981,5,9","3,99,1,+03048,5,9","3,99,1,+05182,5,9","9,AGL   ,+99999,+99999","99,99,9,99,9,99,9,01981,1,99,9,99,9",,,,,,,,,,,"10261,5,10243,5","3,9,002,9,+999,9",,,,,,,,,"MET11301/11/22 18:53:01 METAR KSJC 120253Z 15003KT 10SM SCT065 BKN100 BKN170 12/06 A3030 RMK AO2 SLP259 T01170056 53002",
"72494523293","2022-01-12T03:53:00","7","37.35938","-121.92444","15.0","SAN JOSE, CA US","FM-15","KSJC ","V020","140,5,N,0015,5","03048,5,M,N","016093,5,N,5","+0128,5","+0061,5","10260,5","01,0000,9,5",,,,,,,,,,,,,,,,,,,,,,,,,,"04,5,+01981,5,99,9","07,5,+03048,5,99,9","07,5,+05182,5,99,9","2,99,1,+01981,5,9","3,99,1,+03048,5,9","3,99,1,+05182,5,9","9,AGL   ,+99999,+99999","99,99,9,99,9,99,9,01981,1,99,9,99,9",,,,,,,,,,,"10261,5,10243,5",,,,,,,,,,"MET10701/11/22 19:53:02 METAR KSJC 120353Z 14003KT 10SM SCT065 BKN100 BKN170 13/06 A3030 RMK AO2 SLP260 T01280061",
"72494523293","2022-01-12T04:53:00","7","37.35938","-121.92444","15.0","SAN JOSE, CA US","FM-15","KSJC ","V020","999,9,C,0000,5","22000,5,9,N","016093,5,N,5","+0117,5","+0056,5","10262,5","01,0000,9,5",,,,,,,,,,,,,,,,,,,,,,,,,,"02,5,+01981,5,99,9","04,5,+03048,5,99,9",,"1,99,1,+01981,5,9","2,99,1,+03048,5,9",,"9,AGL   ,+99999,+99999","04,99,5,99,9,99,9,01981,1,99,9,99,9",,,,,,,,,,,"10264,5,10246,5",,,,,,,,,,"MET10001/11/22 20:53:02 METAR KSJC 120453Z 00000KT 10SM FEW065 SCT100 12/06 A3031 RMK AO2 SLP262 T01170056","D01      0ADE726"
"72494523293","2022-01-12T05:53:00","7","37.35938","-121.92444","15.0","SAN JOSE, CA US","FM-15","KSJC ","V020","160,5,N,0015,5","22000,5,9,N","016093,5,N,5","+0106,5","+0056,5","10263,5","01,0000,9,5",,,,,,,,,,,,,,,,,,,,,,,,,,"02,5,+01981,5,99,9","04,5,+03048,5,99,9",,"1,99,1,+01981,5,9","2,99,1,+03048,5,9",,"9,AGL   ,+99999,+99999","04,99,5,99,9,99,9,01981,1,99,9,99,9","060,M,+0172,1","060,N,+0106,1",,,,,,,,,"10264,5,10246,5","3,9,004,9,+999,9",,,,,,,,,"MET11801/11/22 21:53:02 METAR KSJC 120553Z 16003KT 10SM FEW065 SCT100 11/06 A3031 RMK AO2 SLP263 T01060056 10172 20106 53004","D01      0ADE726"
"72494523293","2022-01-12T06:53:00","7","37.35938","-121.92444","15.0","SAN JOSE, CA US","FM-15","KSJC ","V020","999,9,C,0000,5","22000,5,9,N","016093,5,N,5","+0094,5","+0050,5","10265,5","01,0000,9,5",,,,,,,,,,,,,,,,,,,,,,,,,,"02,5,+00610,5,99,9","04,5,+03048,5,99,9",,"1,99,1,+00610,5,9","2,99,1,+03048,5,9",,"9,AGL   ,+99999,+99999","04,99,5,99,9,99,9,00610,1,99,9,99,9",,,,,,,,,,,"10268,5,10249,5",,,,,,,,,,"MET10001/11/22 22:53:02 METAR KSJC 120653Z 00000KT 10SM FEW020 SCT100 09/05 A3032 RMK AO2 SLP265 T00940050","D01      0ADE726"
"72494523293","2022-01-12T07:53:00","7","37.35938","-121.92444","15.0","SAN JOSE, CA US","FM-15","KSJC ","V020","999,9,C,0000,5","22000,5,9,N","016093,5,N,5","+0083,5","+0044,5","10265,5","01,0000,9,5",,,,,,,,,,,,,,,,,,,,,,,,,,"02,5,+00610,5,99,9","04,5,+02438,5,99,9",,"1,99,1,+00610,5,9","2,99,1,+02438,5,9",,"9,AGL   ,+99999,+99999","04,99,5,99,9,99,9,00610,1,99,9,99,9","240,M,+0189,1","240,N,+0050,1",,,,,,,,,"10268,5,10249,5",,,,,,,,,,"MET11501/11/22 23:53:02 METAR KSJC 120753Z 00000KT 10SM FEW020 SCT080 08/04 A3032 RMK AO2 SLP265 LAST T00830044 401890050","D01      0ADE726"
"72494523293","2022-01-12T07:59:00","6","37.35938","-121.92444","15.0","SAN JOSE, CA US","SOD  ","KSJC ","V020","999,9,9,9999,9","99999,9,9,9","999999,9,9,9","+9999,9","+9999,9","99999,9","24,0000,9,5",,,,,,,,,,,,,,,,,,,,,,"01,6,24,6","08,6,24,6",,,,,,,,,,,"240,M,+0189,5","240,N,+0050,5",,,,,,,,,,,"10256,4,10254,4",,,,,"1,24,00581,320,9999,5","2,24,00536,320,9999,5","3,24,00089,999,9999,5","SOD71024 HR PRECIPITATION (IN): 0.00 WEATHER(CODE):18  24 HR MAX TEMP (F): 6624 HR MIN TEMP (F): 41AVERAGE STATION PRESSURE:30.285 MINIMUM SEA LEVEL PRESSURE:30.28 TIME OF OCCURRENCE:1718 PEAK WIND SPEED (MPH): 13 PEAK WIND DIR (DEG):320 PEAK WIND TIME (LST):      FASTEST 2MIN SPEED (MPH): 12FASTEST 2MIN DIR (DEG):320 FASTEST 2MIN TIME (LST):     AVERAGE WIND SPEED (MPH): 2.0 24 HR AVG TEMP (F): 54DEPART FROM NORMAL:  4  HEATING DEGREE DAYS: 11 COOLING DEGREE DAYS:  0 LATEST DAY MAX TEMP (0700-1900 LST):66  LATEST NIGHT MIN TEMP(1900-0800 LST):41 HOURLY INCREMENTAL PRECIPITATION VALUES (IN):.00 0.00 0.00 0.00 0.00 0.00 0.00 0.00 0.00 0.00 0.00 0.00 0.00 0.00 0.00 0.00 0.00 0.00 0.00 0.00 0.00 0.00 0.00 0.00","R01    187AXW093R02    187AXW093"
"72494523293","2022-01-12T08:53:00","7","37.35938","-121.92444","15.0","SAN JOSE, CA US","FM-15","KSJC ","V020","130,5,N,0015,5","22000,5,9,N","016093,5,N,5","+0083,5","+0044,5","10262,5","01,0000,9,5",,,,,,,,,,,,,,,,,,,,,,,,,,"00,5,+99999,9,99,9",,,"0,99,1,+99999,9,9",,,,"00,99,1,99,9,99,9,99999,9,99,9,99,9",,,,,,,,,,,"10264,5,10246,5","8,9,001,9,+999,9",,,,,,,,,"MET09601/12/22 00:53:02 METAR KSJC 120853Z 13003KT 10SM CLR 08/04 A3031 RMK AO2 SLP262 T00830044 58001",
"72494523293","2022-01-12T09:53:00","7","37.35938","-121.92444","15.0","SAN JOSE, CA US","FM-15","KSJC ","V020","999,9,C,0000,5","22000,5,9,N","016093,5,N,5","+0072,5","+0039,5","10259,5","01,0000,9,5",,,,,,,,,,,,,,,,,,,,,,,,,,"00,5,+99999,9,99,9",,,"0,99,1,+99999,9,9",,,,"00,99,1,99,9,99,9,99999,9,99,9,99,9",,,,,,,,,,,"10261,5,10243,5",,,,,,,,,,"MET09001/12/22 01:53:02 METAR KSJC 120953Z 00000KT 10SM CLR 07/04 A3030 RMK AO2 SLP259 T00720039",
"72494523293","2022-01-12T10:53:00","7","37.35938","-121.92444","15.0","SAN JOSE, CA US","FM-15","KSJC ","V020","140,5,N,0015,5","22000,5,9,N","016093,5,N,5","+0061,5","+0033,5","10251,5","01,0000,9,5",,,,,,,,,,,,,,,,,,,,,,,,,,"00,5,+99999,9,99,9",,,"0,99,1,+99999,9,9",,,,"00,99,1,99,9,99,9,99999,9,99,9,99,9",,,,,,,,,,,"10251,5,10232,5",,,,,,,,,,"MET09001/12/22 02:53:02 METAR KSJC 121053Z 14003KT 10SM CLR 06/03 A3027 RMK AO2 SLP251 T00610033",
"72494523293","2022-01-12T11:53:00","7","37.35938","-121.92444","15.0","SAN JOSE, CA US","FM-15","KSJC ","V020","999,9,C,0000,5","22000,5,9,N","016093,5,N,5","+0067,5","+0033,5","10244,5","01,0000,9,5",,,,,,,,,,,,,,,,,,,,,,,,,,"00,5,+99999,9,99,9",,,"0,99,1,+99999,9,9",,,,"00,99,1,99,9,99,9,99999,9,99,9,99,9","060,M,+0106,1","060,N,+0050,1",,,,,,,,,"10244,5,10226,5","8,9,018,9,+999,9",,,,,,,,,"MET10801/12/22 03:53:02 METAR KSJC 121153Z 00000KT 10SM CLR 07/03 A3025 RMK AO2 SLP244 T00670033 10106 20050 58018",
"72494523293","2022-01-12T12:53:00","7","37.35938","-121.92444","15.0","SAN JOSE, CA US","FM-15","KSJC ","V020","120,5,N,0015,5","22000,5,9,N","016093,5,N,5","+0050,5","+0028,5","10243,5","01,0000,9,5",,,,,,,,,,,,,,,,,,,,,,,,,,"00,5,+99999,9,99,9",,,"0,99,1,+99999,9,9",,,,"00,99,1,99,9,99,9,99999,9,99,9,99,9",,,,,,,,,,,"10244,5,10226,5",,,,,,,,,,"MET09001/12/22 04:53:02 METAR KSJC 121253Z 12003KT 10SM CLR 05/03 A3025 RMK AO2 SLP243 T00500028",
"72494523293","2022-01-12T13:53:00","7","37.35938","-121.92444","15.0","SAN JOSE, CA US","FM-15","KSJC ","V020","999,9,C,0000,5","22000,5,9,N","016093,5,N,5","+0061,5","+0028,5","10244,5","01,0000,9,5",,,,,,,,,,,,,,,,,,,,,,,,,,"02,5,+00366,5,99,9",,,"1,99,1,+00366,5,9",,,"9,AGL   ,+99999,+99999","02,99,5,99,9,99,9,00366,1,99,9,99,9",,,,,,,,,,,"10247,5,10229,5",,,,,,,,,,"MET09801/12/22 05:53:02 METAR KSJC 121353Z 00000KT 10SM FEW012 06/03 A3026 RMK AO2 SLP244 T00610028 (TC)","D01      0ADE726"
"72494523293","2022-01-12T14:53:00","7","37.35938","-121.92444","15.0","SAN JOSE, CA US","FM-15","KSJC ","V020","999,9,C,0000,5","22000,5,9,N","016093,5,N,5","+0061,5","+0039,5","10249,5","01,0000,9,5",,,,,,,,,,,,,,,,,,,,,,,,,,"02,5,+00366,5,99,9","02,5,+02438,5,99,9","02,5,+05182,5,99,9","1,99,1,+00366,5,9","1,99,1,+02438,5,9","1,99,1,+05182,5,9","9,AGL   ,+99999,+99999","02,99,5,99,9,99,9,00366,1,99,9,99,9",,,,,,,,,,,"10251,5,10232,5","3,9,005,9,+999,9",,,,,,,,,"MET11801/12/22 06:53:02 METAR KSJC 121453Z 00000KT 10SM FEW012 FEW080 FEW170 06/04 A3027 RMK AO2 SLP249 T00610039 53005 (TC)","D01      0ADE726"
"72494523293","2022-01-12T15:53:00","7","37.35938","-121.92444","15.0","SAN JOSE, CA US","FM-15","KSJC ","V020","120,5,N,0015,5","22000,5,9,N","016093,5,N,5","+0056,5","+0033,5","10257,5","01,0000,9,5",,,,,,,,,,,,,,,,,,,,,,,,,,"02,5,+00305,5,99,9","02,5,+02438,5,99,9","04,5,+05182,5,99,9","1,99,1,+00305,5,9","1,99,1,+02438,5,9","2,99,1,+05182,5,9","9,AGL   ,+99999,+99999","04,99,5,99,9,99,9,00305,1,99,9,99,9",,,,,,,,,,,"10257,5,10239,5",,,,,,,,,,"MET11201/12/22 07:53:02 METAR KSJC 121553Z 12003KT 10SM FEW010 FEW080 SCT170 06/03 A3029 RMK AO2 SLP257 T00560033 (TC)","D01      0ADE726"
"72494523293","2022-01-12T16:53:00","7","37.35938","-121.92444","15.0","SAN JOSE, CA US","FM-15","KSJC ","V020","999,9,C,0000,5","22000,5,9,N","016093,5,N,5","+0083,5","+0056,5","10259,5","01,0000,9,5",,,,,,,,,,,,,,,,,,,,,,,,,,"02,5,+00305,5,99,9","02,5,+02438,5,99,9","02,5,+05182,5,99,9","1,99,1,+00305,5,9","1,99,1,+02438,5,9","1,99,1,+05182,5,9","9,AGL   ,+99999,+99999","02,99,5,99,9,99,9,00305,1,99,9,99,9",,,,,,,,,,,"10261,5,10243,5",,,,,,,,,,"MET11201/12/22 08:53:02 METAR KSJC 121653Z 00000KT 10SM FEW010 FEW080 FEW170 08/06 A3030 RMK AO2 SLP259 T00830056 (TC)","D01      0ADE726"
"72494523293","2022-01-12T17:53:00","7","37.35938","-121.92444","15.0","SAN JOSE, CA US","FM-15","KSJC ","V020","120,5,N,0015,5","22000,5,9,N","016093,5,N,5","+0111,5","+0061,5","10261,5","01,0000,9,5",,,,,,,,,,,,,,,,,,,,,,,,,,"02,5,+02438,5,99,9",,,"1,99,1,+02438,5,9",,,"9,AGL   ,+99999,+99999","02,99,5,99,9,99,9,02438,1,99,9,99,9","060,M,+0111,1","060,N,+0044,1",,,,,,,,,"10261,5,10243,5","1,9,012,9,+999,9",,,,,,,,,"MET11601/12/22 09:53:02 METAR KSJC 121753Z 12003KT 10SM FEW080 11/06 A3030 RMK AO2 SLP261 T01110061 10111 20044 51012 (TC)","D01      0ADE726"
"72494523293","2022-01-12T18:53:00","7","37.35938","-121.92444","15.0","SAN JOSE, CA US","FM-15","KSJC ","V020","210,5,N,0015,5","22000,5,9,N","016093,5,N,5","+0133,5","+0061,5","10256,5","01,0000,9,5",,,,,,,,,,,,,,,,,,,,,,,,,,"00,5,+99999,9,99,9",,,"0,99,1,+99999,9,9",,,,"00,99,1,99,9,99,9,99999,9,99,9,99,9",,,,,,,,,,,"10257,5,10239,5",,,,,,,,,,"MET09501/12/22 10:53:02 METAR KSJC 121853Z 21003KT 10SM CLR 13/06 A3029 RMK AO2 SLP256 T01330061 (TC)",
"72494523293","2022-01-12T19:53:00","7","37.35938","-121.92444","15.0","SAN JOSE, CA US","FM-15","KSJC ","V020","350,5,N,0021,5","22000,5,9,N","016093,5,N,5","+0161,5","+0061,5","10250,5","01,0000,9,5",,,,,,,,,,,,,,,,,,,,,,,,,,"02,5,+02438,5,99,9",,,"1,99,1,+02438,5,9",,,"9,AGL   ,+99999,+99999","02,99,5,99,9,99,9,02438,1,99,9,99,9",,,,,,,,,,,"10251,5,10232,5",,,,,,,,,,"MET09801/12/22 11:53:02 METAR KSJC 121953Z 35004KT 10SM FEW080 16/06 A3027 RMK AO2 SLP250 T01610061 (TC)","D01      0ADE726"
"72494523293","2022-01-12T20:53:00","7","37.35938","-121.92444","15.0","SAN JOSE, CA US","FM-15","KSJC ","V020","310,5,N,0026,5","22000,5,9,N","016093,5,N,5","+0172,5","+0050,5","10240,5","01,0000,9,5",,,,,,,,,,,,,,,,,,,,,,,,,,"02,5,+02438,5,99,9",,,"1,99,1,+02438,5,9",,,"9,AGL   ,+99999,+99999","02,99,5,99,9,99,9,02438,1,99,9,99,9",,,,,,,,,,,"10240,5,10222,5","8,9,021,9,+999,9",,,,,,,,,"MET10401/12/22 12:53:02 METAR KSJC 122053Z 31005KT 10SM FEW080 17/05 A3024 RMK AO2 SLP240 T01720050 58021 (TC)","D01      0ADE726"
"72494523293","2022-01-12T21:53:00","7","37.35938","-121.92444","15.0","SAN JOSE, CA US","FM-15","KSJC ","V020","999,9,C,0000,5","22000,5,9,N","016093,5,N,5","+0183,5","+0039,5","10232,5","01,0000,9,5",,,,,,,,,,,,,,,,,,,,,,,,,,"04,5,+02438,5,99,9",,,"2,99,1,+02438,5,9",,,"9,AGL   ,+99999,+99999","04,99,5,99,9,99,9,02438,1,99,9,99,9",,,,,,,,,,,"10234,5,10216,5",,,,,,,,,,"MET09801/12/22 13:53:02 METAR KSJC 122153Z 00000KT 10SM SCT080 18/04 A3022 RMK AO2 SLP232 T01830039 (JK)","D01      0ADE726"
"72494523293","2022-01-12T22:53:00","7","37.35938","-121.92444","15.0","SAN JOSE, CA US","FM-15","KSJC ","V020","999,9,C,0000,5","03048,5,M,N","016093,5,N,5","+0183,5","+0044,5","10224,5","01,0000,9,5",,,,,,,,,,,,,,,,,,,,,,,,,,"04,5,+02438,5,99,9","07,5,+03048,5,99,9",,"2,99,1,+02438,5,9","3,99,1,+03048,5,9",,"9,AGL   ,+99999,+99999","99,99,9,99,9,99,9,02438,1,99,9,99,9",,,,,,,,,,,"10224,5,10205,5",,,,,,,,,,"MET10501/12/22 14:53:02 METAR KSJC 122253Z 00000KT 10SM SCT080 BKN100 18/04 A3019 RMK AO2 SLP224 T01830044 (JK)",
"72494523293","2022-01-12T23:53:00","7","37.35938","-121.92444","15.0","SAN JOSE, CA US","FM-15","KSJC ","V020","999,9,C,0000,5","03048,5,M,N","016093,5,N,5","+0178,5","+0061,5","10220,5","01,0000,9,5",,,,,,,,,,,,,,,,,,,,,,,,,,"04,5,+02438,5,99,9","07,5,+03048,5,99,9","07,5,+05486,5,99,9","2,99,1,+02438,5,9","3,99,1,+03048,5,9","3,99,1,+05486,5,9","9,AGL   ,+99999,+99999","99,99,9,99,9,99,9,02438,1,99,9,99,9","060,M,+0189,1","060,N,+0111,1",,,,,,,,,"10220,5,10202,5","6,9,020,9,+999,9",,,,,,,,,"MET13001/12/22 15:53:02 METAR KSJC 122353Z 00000KT 10SM SCT080 BKN100 BKN180 18/06 A3018 RMK AO2 SLP220 T01780061 10189 20111 56020 (JK)",
"72494523293","2022-01-13T00:53:00","7","37.35938","-121.92444","15.0","SAN JOSE, CA US","FM-15","KSJC ","V020","330,5,N,0021,5","03048,5,M,N","016093,5,N,5","+0150,5","+0067,5","10225,5","01,0000,9,5",,,,,,,,,,,,,,,,,,,,,,,,,,"04,5,+02438,5,99,9","07,5,+03048,5,99,9","08,5,+05486,5,99,9","2,99,1,+02438,5,9","3,99,1,+03048,5,9","4,99,1,+05486,5,9","9,AGL   ,+99999,+99999","99,99,9,99,9,99,9,02438,1,99,9,99,9",,,,,,,,,,,"10227,5,10209,5",,,,,,,,,,"MET10701/12/22 16:53:01 METAR KSJC 130053Z 33004KT 10SM SCT080 BKN100 OVC180 15/07 A3020 RMK AO2 SLP225 T01500067",
"72494523293","2022-01-13T01:53:00","7","37.35938","-121.92444","15.0","SAN JOSE, CA US","FM-15","KSJC ","V020","999,9,C,0000,5","03048,5,M,N","016093,5,N,5","+0144,5","+0072,5","10232,5","01,0000,9,5",,,,,,,,,,,,,,,,,,,,,,,,,,"04,5,+02438,5,99,9","07,5,+03048,5,99,9","08,5,+05486,5,99,9","2,99,1,+02438,5,9","3,99,1,+03048,5,9","4,99,1,+05486,5,9","9,AGL   ,+99999,+99999","99,99,9,99,9,99,9,02438,1,99,9,99,9",,,,,,,,,,,"10234,5,10216,5",,,,,,,,,,"MET10701/12/22 17:53:01 METAR KSJC 130153Z 00000KT 10SM SCT080 BKN100 OVC180 14/07 A3022 RMK AO2 SLP232 T01440072",
"72494523293","2022-01-13T02:53:00","7","37.35938","-121.92444","15.0","SAN JOSE, CA US","FM-15","KSJC ","V020","300,5,N,0031,5","03048,5,M,N","016093,5,N,5","+0122,5","+0078,5","10242,5","01,0000,9,5",,,,,,,,,,,,,,,,,,,,,,,,,,"04,5,+02438,5,99,9","07,5,+03048,5,99,9","08,5,+05486,5,99,9","2,99,1,+02438,5,9","3,99,1,+03048,5,9","4,99,1,+05486,5,9","9,AGL   ,+99999,+99999","99,99,9,99,9,99,9,02438,1,99,9,99,9",,,,,,,,,,,"10244,5,10226,5","3,9,022,9,+999,9",,,,,,,,,"MET11301/12/22 18:53:01 METAR KSJC 130253Z 30006KT 10SM SCT080 BKN100 OVC180 12/08 A3025 RMK AO2 SLP242 T01220078 53022",
"72494523293","2022-01-13T03:53:00","7","37.35938","-121.92444","15.0","SAN JOSE, CA US","FM-15","KSJC ","V020","160,5,N,0015,5","05486,5,M,N","016093,5,N,5","+0133,5","+0078,5","10243,5","01,0000,9,5",,,,,,,,,,,,,,,,,,,,,,,,,,"08,5,+05486,5,99,9",,,"4,99,1,+05486,5,9",,,"9,AGL   ,+99999,+99999","99,99,9,99,9,99,9,05486,1,99,9,99,9",,,,,,,,,,,"10244,5,10226,5",,,,,,,,,,"MET09301/12/22 19:53:01 METAR KSJC 130353Z 16003KT 10SM OVC180 13/08 A3025 RMK AO2 SLP243 T01330078",
"72494523293","2022-01-13T04:53:00","7","37.35938","-121.92444","15.0","SAN JOSE, CA US","FM-15","KSJC ","V020","310,5,N,0015,5","05486,5,M,N","014484,5,N,5","+0122,5","+0072,5","10245,5","01,0000,9,5",,,,,,,,,,,,,,,,,,,,,,,,,,"08,5,+05486,5,99,9",,,"4,99,1,+05486,5,9",,,"9,AGL   ,+99999,+99999","99,99,9,99,9,99,9,05486,1,99,9,99,9",,,,,,,,,,,"10247,5,10229,5",,,,,,,,,,"MET09201/12/22 20:53:02 METAR KSJC 130453Z 31003KT 9SM OVC180 12/07 A3026 RMK AO2 SLP245 T01220072",
"72494523293","2022-01-13T05:53:00","7","37.35938","-121.92444","15.0","SAN JOSE, CA US","FM-15","KSJC ","V020","180,5,N,0015,5","05486,5,M,N","014484,5,N,5","+0117,5","+0072,5","10251,5","01,0000,9,5",,,,,,,,,,,,,,,,,,,,,,,,,,"08,5,+05486,5,99,9",,,"4,99,1,+05486,5,9",,,"9,AGL   ,+99999,+99999","99,99,9,99,9,99,9,05486,1,99,9,99,9","060,M,+0183,1","060,N,+0117,1",,,,,,,,,"10251,5,10232,5","3,9,009,9,+999,9",,,,,,,,,"MET11001/12/22 21:53:02 METAR KSJC 130553Z 18003KT 9SM OVC180 12/07 A3027 RMK AO2 SLP251 T01170072 10183 20117 53009",
"72494523293","2022-01-13T06:53:00","7","37.35938","-121.92444","15.0","SAN JOSE, CA US","FM-15","KSJC ","V020","999,9,C,0000,5","05486,5,M,N","014484,5,N,5","+0117,5","+0078,5","10249,5","01,0000,9,5",,,,,,,,,,,,,,,,,,,,,,,,,,"07,5,+05486,5,99,9","08,5,+07620,5,99,9",,"3,99,1,+05486,5,9","4,99,1,+07620,5,9",,"9,AGL   ,+99999,+99999","99,99,9,99,9,99,9,05486,1,99,9,99,9",,,,,,,,,,,"10251,5,10232,5",,,,,,,,,,"MET09901/12/22 22:53:02 METAR KSJC 130653Z 00000KT 9SM BKN180 OVC250 12/08 A3027 RMK AO2 SLP249 T01170078",
"72494523293","2022-01-13T07:53:00","7","37.35938","-121.92444","15.0","SAN JOSE, CA US","FM-15","KSJC ","V020","999,9,C,0000,5","07620,5,M,N","014484,5,N,5","+0106,5","+0072,5","10243,5","01,0000,9,5",,,,,,,,,,,,,,,,,,,,,,,,,,"04,5,+05486,5,99,9","08,5,+07620,5,99,9",,"2,99,1,+05486,5,9","4,99,1,+07620,5,9",,"9,AGL   ,+99999,+99999","99,99,9,99,9,99,9,05486,1,99,9,99,9","240,M,+0189,1","240,N,+0044,1",,,,,,,,,"10244,5,10226,5",,,,,,,,,,"MET11401/12/22 23:53:02 METAR KSJC 130753Z 00000KT 9SM SCT180 OVC250 11/07 A3025 RMK AO2 SLP243 LAST T01060072 401890044",
"72494523293","2022-01-13T07:59:00","6","37.35938","-121.92444","15.0","SAN JOSE, CA US","SOD  ","KSJC ","V020","999,9,9,9999,9","99999,9,9,9","999999,9,9,9","+9999,9","+9999,9","99999,9","24,0000,9,5",,,,,,,,,,,,,,,,,,,,,,,,,,,,,,,,,,"240,M,+0189,5","240,N,+0044,5",,,,,,,,,,,"10225,4,10220,4",,,,,"1,24,00447,330,9999,5","2,24,00358,330,9999,5","3,24,00098,999,9999,5","SOD69224 HR PRECIPITATION (IN): 0.00 24 HR MAX TEMP (F): 6624 HR MIN TEMP (F): 40AVERAGE STATION PRESSURE:30.195 MINIMUM SEA LEVEL PRESSURE:30.18 TIME OF OCCURRENCE:1627 PEAK WIND SPEED (MPH): 10 PEAK WIND DIR (DEG):330 PEAK WIND TIME (LST):      FASTEST 2MIN SPEED (MPH):  8FASTEST 2MIN DIR (DEG):330 FASTEST 2MIN TIME (LST):     AVERAGE WIND SPEED (MPH): 2.2 24 HR AVG TEMP (F): 53DEPART FROM NORMAL:  2  HEATING DEGREE DAYS: 12 COOLING DEGREE DAYS:  0 LATEST DAY MAX TEMP (0700-1900 LST):66  LATEST NIGHT MIN TEMP(1900-0800 LST):40 HOURLY INCREMENTAL PRECIPITATION VALUES (IN):.00 0.00 0.00 0.00 0.00 0.00 0.00 0.00 0.00 0.00 0.00 0.00 0.00 0.00 0.00 0.00 0.00 0.00 0.00 0.00 0.00 0.00 0.00 0.00",
"72494523293","2022-01-13T08:53:00","7","37.35938","-121.92444","15.0","SAN JOSE, CA US","FM-15","KSJC ","V020","090,5,N,0015,5","22000,5,9,N","012875,5,N,5","+0089,5","+0067,5","10245,5","01,0000,9,5",,,,,,,,,,,,,,,,,,,,,,,,,,"00,5,+99999,9,99,9",,,"0,99,1,+99999,9,9",,,,"00,99,1,99,9,99,9,99999,9,99,9,99,9",,,,,,,,,,,"10247,5,10229,5","5,9,005,9,+999,9",,,,,,,,,"MET09501/13/22 00:53:02 METAR KSJC 130853Z 09003KT 8SM CLR 09/07 A3026 RMK AO2 SLP245 T00890067 55005",
"72494523293","2022-01-13T09:53:00","7","37.35938","-121.92444","15.0","SAN JOSE, CA US","FM-15","KSJC ","V020","250,5,N,0026,5","22000,5,9,N","016093,5,N,5","+0094,5","+0067,5","10241,5","01,0000,9,5",,,,,,,,,,,,,,,,,,,,,,,,,,"00,5,+99999,9,99,9",,,"0,99,1,+99999,9,9",,,,"00,99,1,99,9,99,9,99999,9,99,9,99,9",,,,,,,,,,,"10244,5,10226,5",,,,,,,,,,"MET09001/13/22 01:53:02 METAR KSJC 130953Z 25005KT 10SM CLR 09/07 A3025 RMK AO2 SLP241 T00940067",
"72494523293","2022-01-13T10:53:00","7","37.35938","-121.92444","15.0","SAN JOSE, CA US","FM-15","KSJC ","V020","999,9,C,0000,5","22000,5,9,N","016093,5,N,5","+0094,5","+0056,5","10245,5","01,0000,9,5",,,,,,,,,,,,,,,,,,,,,,,,,,"00,5,+99999,9,99,9",,,"0,99,1,+99999,9,9",,,,"00,99,1,99,9,99,9,99999,9,99,9,99,9",,,,,,,,,,,"10247,5,10229,5",,,,,,,,,,"MET09001/13/22 02:53:02 METAR KSJC 131053Z 00000KT 10SM CLR 09/06 A3026 RMK AO2 SLP245 T00940056",
"72494523293","2022-01-13T11:53:00","7","37.35938","-121.92444","15.0","SAN JOSE, CA US","FM-15","KSJC ","V020","120,5,N,0031,5","22000,5,9,N","016093,5,N,5","+0083,5","+0061,5","10250,5","01,0000,9,5",,,,,,,,,,,,,,,,,,,,,,,,,,"00,5,+99999,9,99,9",,,"0,99,1,+99999,9,9",,,,"00,99,1,99,9,99,9,99999,9,99,9,99,9","060,M,+0122,1","060,N,+0072,1",,,,,,,,,"10251,5,10232,5","3,9,005,9,+999,9",,,,,,,,,"MET10801/13/22 03:53:02 METAR KSJC 131153Z 12006KT 10SM CLR 08/06 A3027 RMK AO2 SLP250 T00830061 10122 20072 53005",
"72494523293","2022-01-13T12:53:00","7","37.35938","-121.92444","15.0","SAN JOSE, CA US","FM-15","KSJC ","V020","999,9,C,0000,5","22000,5,9,N","011265,5,N,5","+0083,5","+0061,5","10250,5","01,0000,9,5",,,,,,,,,,,,,,,,,,,,,,,,,,"00,5,+99999,9,99,9",,,"0,99,1,+99999,9,9",,,,"00,99,1,99,9,99,9,99999,9,99,9,99,9",,,,,,,,,,,"10251,5,10232,5",,,,,,,,,,"MET08901/13/22 04:53:02 METAR KSJC 131253Z 00000KT 7SM CLR 08/06 A3027 RMK AO2 SLP250 T00830061",
"72494523293","2022-01-13T13:53:00","7","37.35938","-121.92444","15.0","SAN JOSE, CA US","FM-15","KSJC ","V020","100,5,N,0021,5","22000,5,9,N","012875,5,N,5","+0083,5","+0061,5","10250,5",,,,,,,,,,,,,,,,,,,,,,,,,,,"00,5,+99999,9,99,9",,,"0,99,1,+99999,9,9",,,,"00,99,1,99,9,99,9,99999,9,99,9,99,9",,,,,,,,,,,"10251,5,10232,5",,,,,,,,,,"MET09601/13/22 05:53:02 METAR KSJC 131353Z 10004KT 8SM CLR 08/06 A3027 RMK AO2 SLP250 T00830061 $ (TC)",
"72494523293","2022-01-13T14:53:00","7","37.35938","-121.92444","15.0","SAN JOSE, CA US","FM-15","KSJC ","V020","999,9,C,0000,5","03048,5,M,N","011265,5,N,5","+0083,5","+0061,5","10250,5","01,0000,9,5",,,,,,,,,,,,,,,,,,,,,,,,,,"07,5,+03048,5,99,9",,,"3,99,1,+03048,5,9",,,"9,AGL   ,+99999,+99999","99,99,9,99,9,99,9,03048,1,99,9,99,9",,,,,,,,,,,"10251,5,10232,5",,,,,,,,,,"MET09901/13/22 06:53:02 METAR KSJC 131453Z 00000KT 7SM BKN100 08/06 A3027 RMK AO2 SLP250 T00830061 $ (TC)",
"72494523293","2022-01-13T15:53:00","7","37.35938","-121.92444","15.0","SAN JOSE, CA US","FM-15","KSJC ","V020","270,5,N,0015,5","03048,5,M,N","009656,5,N,5","+0089,5","+0061,5","10252,5","01,0000,9,5",,,,,,,,,,,,,,,,,,,,"0,0,00,7,0,1,5","05,1",,,,,"07,5,+03048,5,99,9","08,5,+05486,5,99,9",,"3,99,1,+03048,5,9","4,99,1,+05486,5,9",,"9,AGL   ,+99999,+99999","99,99,9,99,9,99,9,03048,1,99,9,99,9",,,,,,,,,,,"10254,5,10236,5",,,,,"05,5",,,,,"MET10901/13/22 07:53:02 METAR KSJC 131553Z 27003KT 6SM HZ BKN100 OVC180 09/06 A3028 RMK AO2 SLP252 T00890061 $ (TC)",
"72494523293","2022-01-13T16:53:00","7","37.35938","-121.92444","15.0","SAN JOSE, CA US","FM-15","KSJC ","V020","999,9,C,0000,5","03048,5,M,N","008047,5,N,5","+0094,5","+0078,5","10258,5","01,0000,9,5",,,,,,,,,,,,,,,,,,,,"0,0,00,1,0,1,5","10,5",,,,,"07,5,+03048,5,99,9","08,5,+05486,5,99,9",,"3,99,1,+03048,5,9","4,99,1,+05486,5,9",,"9,AGL   ,+99999,+99999","99,99,9,99,9,99,9,03048,1,99,9,99,9",,,,,,,,,,,"10257,5,10239,5",,,,,,,,,,"MET10701/13/22 08:53:02 METAR KSJC 131653Z 00000KT 5SM BR BKN100 OVC180 09/08 A3029 RMK AO2 SLP258 T00940078 (TC)",
"72494523293","2022-01-13T17:53:00","7","37.35938","-121.92444","15.0","SAN JOSE, CA US","FM-15","KSJC ","V020","999,9,C,0000,5","03048,5,M,N","008047,5,N,5","+0117,5","+0094,5","10261,5","01,0000,9,5",,,,,,,,,,,,,,,,,,,,"0,0,00,1,0,1,5","10,5",,,,,"07,5,+03048,5,99,9","08,5,+04877,5,99,9",,"3,99,1,+03048,5,9","4,99,1,+04877,5,9",,"9,AGL   ,+99999,+99999","99,99,9,99,9,99,9,03048,1,99,9,99,9","060,M,+0117,1","060,N,+0072,1",,,,,,,,,"10261,5,10243,5","3,9,012,9,+999,9",,,,,,,,,"MET12501/13/22 09:53:02 METAR KSJC 131753Z 00000KT 5SM BR BKN100 OVC160 12/09 A3030 RMK AO2 SLP261 T01170094 10117 20072 53012 (TC)",
"72494523293","2022-01-13T18:53:00","7","37.35938","-121.92444","15.0","SAN JOSE, CA US","FM-15","KSJC ","V020","999,9,C,0000,5","03048,5,M,N","008047,5,N,5","+0128,5","+0089,5","10259,5","01,0000,9,5",,,,,,,,,,,,,,,,,,,,"0,0,00,7,0,1,5","05,1",,,,,"07,5,+03048,5,99,9","08,5,+04877,5,99,9",,"3,99,1,+03048,5,9","4,99,1,+04877,5,9",,"9,AGL   ,+99999,+99999","99,99,9,99,9,99,9,03048,1,99,9,99,9",,,,,,,,,,,"10261,5,10243,5",,,,,"05,5",,,,,"MET10701/13/22 10:53:02 METAR KSJC 131853Z 00000KT 5SM HZ BKN100 OVC160 13/09 A3030 RMK AO2 SLP259 T01280089 (TC)",
"72494523293","2022-01-13T19:53:00","7","37.35938","-121.92444","15.0","SAN JOSE, CA US","FM-15","KSJC ","V020","999,9,C,0000,5","03048,5,M,N","008047,5,N,5","+0144,5","+0089,5","10250,5","01,0000,9,5",,,,,,,,,,,,,,,,,,,,"0,0,00,7,0,1,5","05,1",,,,,"07,5,+03048,5,99,9","08,5,+04877,5,99,9",,"3,99,1,+03048,5,9","4,99,1,+04877,5,9",,"9,AGL   ,+99999,+99999","99,99,9,99,9,99,9,03048,1,99,9,99,9",,,,,,,,,,,"10251,5,10232,5",,,,,"05,5",,,,,"MET10701/13/22 11:53:02 METAR KSJC 131953Z 00000KT 5SM HZ BKN100 OVC160 14/09 A3027 RMK AO2 SLP250 T01440089 (TC)",
"72494523293","2022-01-13T20:53:00","7","37.35938","-121.92444","15.0","SAN JOSE, CA US","FM-15","KSJC ","V020","350,5,N,0021,5","03048,5,M,N","009656,5,N,5","+0167,5","+0094,5","10239,5","01,0000,9,5",,,,,,,,,,,,,,,,,,,,"0,0,00,7,0,1,5","05,1",,,,,"07,5,+03048,5,99,9","08,5,+04877,5,99,9",,"3,99,1,+03048,5,9","4,99,1,+04877,5,9",,"9,AGL   ,+99999,+99999","99,99,9,99,9,99,9,03048,1,99,9,99,9",,,,,,,,,,,"10240,5,10222,5","8,9,022,9,+999,9",,,,"05,5",,,,,"MET11301/13/22 12:53:02 METAR KSJC 132053Z 35004KT 6SM HZ BKN100 OVC160 17/09 A3024 RMK AO2 SLP239 T01670094 58022 (TC)",
"72494523293","2022-01-13T21:53:00","7","37.35938","-121.92444","15.0","SAN JOSE, CA US","FM-15","KSJC ","V020","330,5,N,0036,5","03048,5,M,N","011265,5,N,5","+0172,5","+0094,5","10231,5","01,0000,9,5",,,,,,,,,,,,,,,,,,,,,,,,,,"07,5,+03048,5,99,9","08,5,+04877,5,99,9",,"3,99,1,+03048,5,9","4,99,1,+04877,5,9",,"9,AGL   ,+99999,+99999","99,99,9,99,9,99,9,03048,1,99,9,99,9",,,,,,,,,,,"10234,5,10216,5",,,,,,,,,,"MET10401/13/22 13:53:02 METAR KSJC 132153Z 33007KT 7SM BKN100 OVC160 17/09 A3022 RMK AO2 SLP231 T01720094 (CN)",
"72494523293","2022-01-13T22:53:00","7","37.35938","-121.92444","15.0","SAN JOSE, CA US","FM-15","KSJC ","V020","330,5,N,0031,5","03048,5,M,N","012875,5,N,5","+0161,5","+0089,5","10230,5","01,0000,9,5",,,,,,,,,,,,,,,,,,,,,,,,,,"07,5,+03048,5,99,9","08,5,+04877,5,99,9",,"3,99,1,+03048,5,9","4,99,1,+04877,5,9",,"9,AGL   ,+99999,+99999","99,99,9,99,9,99,9,03048,1,99,9,99,9",,,,,,,,,,,"10230,5,10212,5",,,,,,,,,,"MET10401/13/22 14:53:02 METAR KSJC 132253Z 33006KT 8SM BKN100 OVC160 16/09 A3021 RMK AO2 SLP230 T01610089 (CN)",
"72494523293","2022-01-13T23:53:00","7","37.35938","-121.92444","15.0","SAN JOSE, CA US","FM-15","KSJC ","V020","340,5,N,0026,5","03048,5,M,N","014484,5,N,5","+0150,5","+0089,5","10227,5","01,0000,9,5",,,,,,,,,,,,,,,,,,,,,,,,,,"07,5,+03048,5,99,9","08,5,+04877,5,99,9",,"3,99,1,+03048,5,9","4,99,1,+04877,5,9",,"9,AGL   ,+99999,+99999","99,99,9,99,9,99,9,03048,1,99,9,99,9","060,M,+0172,1","060,N,+0117,1",,,,,,,,,"10227,5,10209,5","6,9,012,9,+999,9",,,,,,,,,"MET12201/13/22 15:53:02 METAR KSJC 132353Z 34005KT 9SM BKN100 OVC160 15/09 A3020 RMK AO2 SLP227 T01500089 10172 20117 56012 (CN)",
"72494523293","2022-01-14T00:53:00","7","37.35938","-121.92444","15.0","SAN JOSE, CA US","FM-15","KSJC ","V020","330,5,N,0026,5","02743,5,M,N","014484,5,N,5","+0133,5","+0083,5","10228,5","01,0000,9,5",,,,,,,,,,,,,,,,,,,,,,,,,,"07,5,+02743,5,99,9","08,5,+04877,5,99,9",,"3,99,1,+02743,5,9","4,99,1,+04877,5,9",,"9,AGL   ,+99999,+99999","99,99,9,99,9,99,9,02743,1,99,9,99,9",,,,,,,,,,,"10230,5,10212,5",,,,,,,,,,"MET09901/13/22 16:53:01 METAR KSJC 140053Z 33005KT 9SM BKN090 OVC160 13/08 A3021 RMK AO2 SLP228 T01330083",
"72494523293","2022-01-14T01:53:00","7","37.35938","-121.92444","15.0","SAN JOSE, CA US","FM-15","KSJC ","V020","330,5,N,0041,5","02438,5,M,N","014484,5,N,5","+0122,5","+0100,5","10234,5","01,0000,9,5",,,,,,,,,,,,,,,,,,,,,,,,,,"07,5,+02438,5,99,9","07,5,+04877,5,99,9",,"3,99,1,+02438,5,9","3,99,1,+04877,5,9",,"9,AGL   ,+99999,+99999","99,99,9,99,9,99,9,02438,1,99,9,99,9",,,,,,,,,,,"10234,5,10216,5",,,,,,,,,,"MET09901/13/22 17:53:01 METAR KSJC 140153Z 33008KT 9SM BKN080 BKN160 12/10 A3022 RMK AO2 SLP234 T01220100",
"72494523293","2022-01-14T02:53:00","7","37.35938","-121.92444","15.0","SAN JOSE, CA US","FM-15","KSJC ","V020","320,5,N,0021,5","02438,5,M,N","014484,5,N,5","+0111,5","+0089,5","10235,5","01,0000,9,5",,,,,,,,,,,,,,,,,,,,,,,,,,"07,5,+02438,5,99,9","07,5,+04877,5,99,9",,"3,99,1,+02438,5,9","3,99,1,+04877,5,9",,"9,AGL   ,+99999,+99999","99,99,9,99,9,99,9,02438,1,99,9,99,9",,,,,,,,,,,"10237,5,10219,5","3,9,008,9,+999,9",,,,,,,,,"MET10501/13/22 18:53:01 METAR KSJC 140253Z 32004KT 9SM BKN080 BKN160 11/09 A3023 RMK AO2 SLP235 T01110089 53008",
"72494523293","2022-01-14T03:53:00","7","37.35938","-121.92444","15.0","SAN JOSE, CA US","FM-15","KSJC ","V020","999,9,C,0000,5","07620,5,M,N","014484,5,N,5","+0111,5","+0089,5","10234,5","01,0000,9,5",,,,,,,,,,,,,,,,,,,,,,,,,,"04,5,+04877,5,99,9","07,5,+07620,5,99,9",,"2,99,1,+04877,5,9","3,99,1,+07620,5,9",,"9,AGL   ,+99999,+99999","99,99,9,99,9,99,9,04877,1,99,9,99,9",,,,,,,,,,,"10234,5,10216,5",,,,,,,,,,"MET09901/13/22 19:53:01 METAR KSJC 140353Z 00000KT 9SM SCT160 BKN250 11/09 A3022 RMK AO2 SLP234 T01110089",
"72494523293","2022-01-14T04:53:00","7","37.35938","-121.92444","15.0","SAN JOSE, CA US","FM-15","KSJC ","V020","310,5,N,0015,5","06096,5,M,N","014484,5,N,5","+0111,5","+0089,5","10234,5","01,0000,9,5",,,,,,,,,,,,,,,,,,,,,,,,,,"02,5,+04877,5,99,9","07,5,+06096,5,99,9",,"1,99,1,+04877,5,9","3,99,1,+06096,5,9",,"9,AGL   ,+99999,+99999","99,99,9,99,9,99,9,04877,1,99,9,99,9",,,,,,,,,,,"10237,5,10219,5",,,,,,,,,,"MET09901/13/22 20:53:02 METAR KSJC 140453Z 31003KT 9SM FEW160 BKN200 11/09 A3023 RMK AO2 SLP234 T01110089",
"72494523293","2022-01-14T05:53:00","7","37.35938","-121.92444","15.0","SAN JOSE, CA US","FM-15","KSJC ","V020","999,9,C,0000,5","06096,5,M,N","014484,5,N,5","+0106,5","+0089,5","10237,5","01,0000,9,5",,,,,,,,,,,,,,,,,,,,,,,,,,"02,5,+00305,5,99,9","07,5,+06096,5,99,9",,"1,99,1,+00305,5,9","3,99,1,+06096,5,9",,"9,AGL   ,+99999,+99999","99,99,9,99,9,99,9,00305,1,99,9,99,9","060,M,+0150,1","060,N,+0100,1",,,,,,,,,"10237,5,10219,5","3,9,001,9,+999,9",,,,,,,,,"MET11701/13/22 21:53:02 METAR KSJC 140553Z 00000KT 9SM FEW010 BKN200 11/09 A3023 RMK AO2 SLP237 T01060089 10150 20100 53001",
"72494523293","2022-01-14T06:53:00","7","37.35938","-121.92444","15.0","SAN JOSE, CA US","FM-15","KSJC ","V020","999,9,C,0000,5","06096,5,M,N","014484,5,N,5","+0100,5","+0078,5","10236,5","01,0000,9,5",,,,,,,,,,,,,,,,,,,,,,,,,,"02,5,+00305,5,99,9","07,5,+06096,5,99,9",,"1,99,1,+00305,5,9","3,99,1,+06096,5,9",,"9,AGL   ,+99999,+99999","99,99,9,99,9,99,9,00305,1,99,9,99,9",,,,,,,,,,,"10237,5,10219,5",,,,,,,,,,"MET09901/13/22 22:53:02 METAR KSJC 140653Z 00000KT 9SM FEW010 BKN200 10/08 A3023 RMK AO2 SLP236 T01000078",
"72494523293","2022-01-14T07:53:00","7","37.35938","-121.92444","15.0","SAN JOSE, CA US","FM-15","KSJC ","V020","999,9,C,0000,5","06096,5,M,N","014484,5,N,5","+0089,5","+0072,5","10235,5","01,0000,9,5",,,,,,,,,,,,,,,,,,,,,,,,,,"02,5,+00305,5,99,9","02,5,+01067,5,99,9","07,5,+06096,5,99,9","1,99,1,+00305,5,9","1,99,1,+01067,5,9","3,99,1,+06096,5,9","9,AGL   ,+99999,+99999","99,99,9,99,9,99,9,00305,1,99,9,99,9","240,M,+0172,1","240,N,+0072,1",,,,,,,,,"10237,5,10219,5",,,,,,,,,,"MET12101/13/22 23:53:02 METAR KSJC 140753Z 00000KT 9SM FEW010 FEW035 BKN200 09/07 A3023 RMK AO2 SLP235 LAST T00890072 401720072",
"72494523293","2022-01-14T07:59:00","6","37.35938","-121.92444","15.0","SAN JOSE, CA US","SOD  ","KSJC ","V020","999,9,9,9999,9","99999,9,9,9","999999,9,9,9","+9999,9","+9999,9","99999,9","24,0000,9,5",,,,,,,,,,,,,,,,,"AU,13,BR  ,5","AU,08,HZ  ,5",,,,"01,5,24,5","08,5,24,5",,,,,,,,,,,"240,M,+0172,5","240,N,+0072,5",,,,,,,,,,,"10225,4,10227,4",,,,,"1,24,00536,320,9999,5","2,24,00447,330,9999,5","3,24,00134,999,9999,5","SOD71024 HR PRECIPITATION (IN): 0.00 WEATHER(CODE):18  24 HR MAX TEMP (F): 6324 HR MIN TEMP (F): 45AVERAGE STATION PRESSURE:30.195 MINIMUM SEA LEVEL PRESSURE:30.20 TIME OF OCCURRENCE:1658 PEAK WIND SPEED (MPH): 12 PEAK WIND DIR (DEG):320 PEAK WIND TIME (LST):      FASTEST 2MIN SPEED (MPH): 10FASTEST 2MIN DIR (DEG):330 FASTEST 2MIN TIME (LST):     AVERAGE WIND SPEED (MPH): 3.0 24 HR AVG TEMP (F): 54DEPART FROM NORMAL:  3  HEATING DEGREE DAYS: 11 COOLING DEGREE DAYS:  0 LATEST DAY MAX TEMP (0700-1900 LST):63  LATEST NIGHT MIN TEMP(1900-0800 LST):45 HOURLY INCREMENTAL PRECIPITATION VALUES (IN):.00 0.00 0.00 0.00 0.00 M    0.00 0.00 0.00 0.00 0.00 0.00 0.00 0.00 0.00 0.00 0.00 0.00 0.00 0.00 0.00 0.00 0.00 0.00",
"72494523293","2022-01-14T08:53:00","7","37.35938","-121.92444","15.0","SAN JOSE, CA US","FM-15","KSJC ","V020","999,9,C,0000,5","22000,5,9,N","009656,5,N,5","+0078,5","+0061,5","10238,5","01,0000,9,5",,,,,,,,,,,,,,,,,,,,"0,0,00,1,0,1,5","10,5",,,,,"02,5,+00427,5,99,9",,,"1,99,1,+00427,5,9",,,"9,AGL   ,+99999,+99999","02,99,5,99,9,99,9,00427,1,99,9,99,9",,,,,,,,,,,"10237,5,10219,5","3,9,001,9,+999,9",,,,,,,,,"MET10101/14/22 00:53:02 METAR KSJC 140853Z 00000KT 6SM BR FEW014 08/06 A3023 RMK AO2 SLP238 T00780061 53001","D01      0ADE726"
"72494523293","2022-01-14T09:53:00","7","37.35938","-121.92444","15.0","SAN JOSE, CA US","FM-15","KSJC ","V020","999,9,C,0000,5","22000,5,9,N","011265,5,N,5","+0072,5","+0056,5","10236,5","01,0000,9,5",,,,,,,,,,,,,,,,,,,,,,,,,,"00,5,+99999,9,99,9",,,"0,99,1,+99999,9,9",,,,"00,99,1,99,9,99,9,99999,9,99,9,99,9",,,,,,,,,,,"10237,5,10219,5",,,,,,,,,,"MET08901/14/22 01:53:02 METAR KSJC 140953Z 00000KT 7SM CLR 07/06 A3023 RMK AO2 SLP236 T00720056",
"72494523293","2022-01-14T10:15:00","7","37.35938","-121.92444","15.0","SAN JOSE, CA US","FM-16","KSJC ","V020","999,9,C,0000,5","22000,5,9,N","014484,5,N,5","+0072,5","+0061,5","99999,9",,,,,,,,,,,,,,,,,,,,,,,,,,,"04,5,+00183,5,99,9",,,"2,99,1,+00183,5,9",,,"9,AGL   ,+99999,+99999","04,99,5,99,9,99,9,00183,1,99,9,99,9",,,,,,,,,,,"10237,5,10219,5",,,,,,,,,,"MET08501/14/22 02:15:02 SPECI KSJC 141015Z 00000KT 9SM SCT006 07/06 A3023 RMK AO2 T00720061","D01      0ADE726"
"72494523293","2022-01-14T10:23:00","7","37.35938","-121.92444","15.0","SAN JOSE, CA US","FM-16","KSJC ","V020","160,5,N,0021,5","00183,5,M,N","012875,5,N,5","+0067,5","+0056,5","99999,9",,,,,,,,,,,,,,,,,,,,,,,,,,,"07,5,+00183,5,99,9",,,"3,99,1,+00183,5,9",,,"9,AGL   ,+99999,+99999","99,99,9,99,9,99,9,00183,1,99,9,99,9",,,,,,,,,,,"10240,5,10222,5",,,,,,,,,,"MET08501/14/22 02:23:02 SPECI KSJC 141023Z 16004KT 8SM BKN006 07/06 A3024 RMK AO2 T00670056",
"72494523293","2022-01-14T10:53:00","7","37.35938","-121.92444","15.0","SAN JOSE, CA US","FM-15","KSJC ","V020","120,5,N,0015,5","22000,5,9,N","016093,5,N,5","+0072,5","+0056,5","10237,5","01,0000,9,5",,,,,,,,,,,,,,,,,,,,,,,,,,"04,5,+00152,5,99,9",,,"2,99,1,+00152,5,9",,,"9,AGL   ,+99999,+99999","04,99,5,99,9,99,9,00152,1,99,9,99,9",,,,,,,,,,,"10237,5,10219,5",,,,,,,,,,"MET09301/14/22 02:53:02 METAR KSJC 141053Z 12003KT 10SM SCT005 07/06 A3023 RMK AO2 SLP237 T00720056","D01      0ADE726"
"72494523293","2022-01-14T11:17:00","7","37.35938","-121.92444","15.0","SAN JOSE, CA US","FM-16","KSJC ","V020","170,5,N,0015,5","00091,5,M,N","006437,5,N,5","+0078,5","+0061,5","99999,9",,,,,,,,,,,,,,,,,,,,,"0,0,00,1,0,1,5","10,5",,,,,"07,5,+00091,5,99,9",,,"3,99,1,+00091,5,9",,,"9,AGL   ,+99999,+99999","99,99,9,99,9,99,9,00091,1,99,9,99,9",,,,,,,,,,,"10237,5,10219,5",,,,,,,,,,"MET08801/14/22 03:17:02 SPECI KSJC 141117Z 17003KT 4SM BR BKN003 08/06 A3023 RMK AO2 T00780061",
"72494523293","2022-01-14T11:20:00","7","37.35938","-121.92444","15.0","SAN JOSE, CA US","FM-16","KSJC ","V020","999,9,C,0000,5","00061,5,M,N","002816,5,N,5","+0078,5","+0061,5","99999,9",,,,,,,,,,,,,,,,,,,,,"0,0,00,1,0,1,5","10,5",,,,,"07,5,+00061,5,99,9",,,"3,99,1,+00061,5,9",,,"9,AGL   ,+99999,+99999","99,99,9,99,9,99,9,00061,1,99,9,99,9",,,,,,,,,,,"10237,5,10219,5",,,,,,,,,,"MET09201/14/22 03:20:02 SPECI KSJC 141120Z 00000KT 1 3/4SM BR BKN002 08/06 A3023 RMK AO2 T00780061",
"72494523293","2022-01-14T11:27:00","7","37.35938","-121.92444","15.0","SAN JOSE, CA US","FM-16","KSJC ","V020","999,9,C,0000,5","00061,5,W,N","000402,5,N,5","+0072,5","+0061,5","99999,9",,,,,,,,,,,,,,,,,,,,,"0,0,00,2,0,1,5","30,5",,,,"30,L,9999,9","09,5,+00061,5,99,9",,,"5,99,1,+00061,5,9",,,"9,AGL   ,+99999,+99999","09,99,1,99,9,99,9,00061,1,99,9,99,9",,,,,,,,,,,"10234,5,10216,5",,,,,,,,,,"MET10701/14/22 03:27:02 SPECI KSJC 141127Z 00000KT 1/4SM R30L/2000VP6000FT FG VV002 07/06 A3022 RMK AO2 T00720061",
"72494523293","2022-01-14T11:40:00","7","37.35938","-121.92444","15.0","SAN JOSE, CA US","FM-16","KSJC ","V020","999,9,C,0000,5","00061,5,W,N","000402,5,N,5","+0078,5","+0067,5","99999,9",,,,,,,,,,,,,,,,,,,,,"0,0,00,2,0,1,5","30,5",,,,"30,L,9999,9","09,5,+00061,5,99,9",,,"5,99,1,+00061,5,9",,,"9,AGL   ,+99999,+99999","09,99,1,99,9,99,9,00061,1,99,9,99,9",,,,,,,,,,,"10234,5,10216,5",,,,,,,,,,"MET10601/14/22 03:40:02 SPECI KSJC 141140Z 00000KT 1/4SM R30L/1400V1800FT FG VV002 08/07 A3022 RMK AO2 T00780067",
"72494523293","2022-01-14T11:53:00","7","37.35938","-121.92444","15.0","SAN JOSE, CA US","FM-15","KSJC ","V020","220,5,N,0015,5","00061,5,W,N","000402,5,N,5","+0072,5","+0067,5","10232,5","01,0000,9,5",,,,,,,,,,,,,,,,,,,,"0,0,00,2,0,1,5","30,5",,,,"30,L,9999,9","09,5,+00061,5,99,9",,,"5,99,1,+00061,5,9",,,"9,AGL   ,+99999,+99999","09,99,1,99,9,99,9,00061,1,99,9,99,9","060,M,+0106,1","060,N,+0067,1",,,,,,,,,"10234,5,10216,5","8,9,005,9,+999,9",,,,,,,,,"MET13101/14/22 03:53:02 METAR KSJC 141153Z 22003KT 1/4SM R30L/1400V1800FT FG VV002 07/07 A3022 RMK AO2 SLP232 T00720067 10106 20067 58005",
"72494523293","2022-01-14T12:30:00","7","37.35938","-121.92444","15.0","SAN JOSE, CA US","FM-16","KSJC ","V020","999,9,C,0000,5","00061,5,W,N","000000,5,N,5","+0072,5","+0067,5","99999,9",,,,,,,,,,,,,,,,,,,,,"0,0,00,2,0,1,5","30,5",,,,"30,L,9999,9","09,5,+00061,5,99,9",,,"5,99,1,+00061,5,9",,,"9,AGL   ,+99999,+99999","09,99,1,99,9,99,9,00061,1,99,9,99,9",,,,,,,,,,,"10234,5,10216,5",,,,,,,,,,"MET10701/14/22 04:30:02 SPECI KSJC 141230Z 00000KT M1/4SM R30L/1000V1200FT FG VV002 07/07 A3022 RMK AO2 T00720067",
"72494523293","2022-01-14T12:45:00","7","37.35938","-121.92444","15.0","SAN JOSE, CA US","FM-16","KSJC ","V020","999,9,C,0000,5","00061,5,W,N","000402,5,N,5","+0072,5","+0061,5","99999,9",,,,,,,,,,,,,,,,,,,,,"0,0,00,2,0,1,5","30,5",,,,"30,L,9999,9","09,5,+00061,5,99,9",,,"5,99,1,+00061,5,9",,,"9,AGL   ,+99999,+99999","09,99,1,99,9,99,9,00061,1,99,9,99,9",,,,,,,,,,,"10234,5,10216,5",,,,,,,,,,"MET10601/14/22 04:45:02 SPECI KSJC 141245Z 00000KT 1/4SM R30L/1200V1800FT FG VV002 07/06 A3022 RMK AO2 T00720061",
"72494523293","2022-01-14T12:53:00","7","37.35938","-121.92444","15.0","SAN JOSE, CA US","FM-15","KSJC ","V020","999,9,C,0000,5","00061,5,W,N","000402,5,N,5","+0072,5","+0061,5","10231,5","01,0000,9,5",,,,,,,,,,,,,,,,,,,,"0,0,00,2,0,1,5","30,5",,,,"30,L,9999,9","09,5,+00061,5,99,9",,,"5,99,1,+00061,5,9",,,"9,AGL   ,+99999,+99999","09,99,1,99,9,99,9,00061,1,99,9,99,9",,,,,,,,,,,"10234,5,10216,5",,,,,,,,,,"MET11301/14/22 04:53:02 METAR KSJC 141253Z 00000KT 1/4SM R30L/1600V1800FT FG VV002 07/06 A3022 RMK AO2 SLP231 T00720061",
"72494523293","2022-01-14T13:32:00","7","37.35938","-121.92444","15.0","SAN JOSE, CA US","FM-16","KSJC ","V020","160,5,N,0015,5","00000,5,W,N","000000,5,N,5","+0072,5","+0061,5","99999,9",,,,,,,,,,,,,,,,,,,,,"0,0,00,2,0,1,5","30,5",,,,"30,L,9999,9","09,5,+00000,5,99,9",,,"5,99,1,+00000,5,9",,,"9,AGL   ,+99999,+99999","09,99,1,99,9,99,9,00000,1,99,9,99,9",,,,,,,,,,,"10230,5,10212,5",,,,,,,,,,"MET11201/14/22 05:32:02 SPECI KSJC 141332Z 16003KT 1/16SM R30L/1200V1600FT FG VV000 07/06 A3021 RMK AO2 T00720061 (TC)","D01      0ADE729"
"72494523293","2022-01-14T13:53:00","7","37.35938","-121.92444","15.0","SAN JOSE, CA US","FM-15","KSJC ","V020","170,5,N,0015,5","00000,5,W,N","000000,5,N,5","+0072,5","+0061,5","10232,5","01,0000,9,5",,,,,,,,,,,,,,,,,,,,"0,0,00,2,0,1,5","30,5",,,,"30,L,9999,9","09,5,+00000,5,99,9",,,"5,99,1,+00000,5,9",,,"9,AGL   ,+99999,+99999","09,99,1,99,9,99,9,00000,1,99,9,99,9",,,,,,,,,,,"10234,5,10216,5",,,,,,,,,,"MET11901/14/22 05:53:02 METAR KSJC 141353Z 17003KT 1/16SM R30L/1000V1400FT FG VV000 07/06 A3022 RMK AO2 SLP232 T00720061 (TC)","D01      0ADE729"
"72494523293","2022-01-14T14:35:00","7","37.35938","-121.92444","15.0","SAN JOSE, CA US","FM-16","KSJC ","V020","999,9,C,0000,5","00000,5,M,N","000402,5,N,5","+0061,5","+0056,5","99999,9",,,,,,,,,,,,,,,,,,,,,"0,0,00,2,0,1,5","30,5",,,,"30,L,9999,9","10,5,+00000,5,99,9",,,"6,99,1,+00000,5,9",,,"9,AGL   ,+99999,+99999","99,99,9,99,9,99,9,00000,1,99,9,99,9",,,,,,,,,,,"10234,5,10216,5",,,,,,,,,,"MET11201/14/22 06:35:02 SPECI KSJC 141435Z 00000KT 1/4SM R30L/1200V1600FT FG BKN000 06/06 A3022 RMK AO2 T00610056 (TC)",
"72494523293","2022-01-14T14:38:00","7","37.35938","-121.92444","15.0","SAN JOSE, CA US","FM-16","KSJC ","V020","999,9,C,0000,5","22000,5,9,N","000402,5,N,5","+0067,5","+0056,5","99999,9",,,,,,,,,,,,,,,,,,,,,"0,0,00,2,0,1,5","30,5",,,,"30,L,9999,9","10,5,+00000,5,99,9",,,"6,99,1,+00000,5,9",,,"9,AGL   ,+99999,+99999","04,99,5,99,9,99,9,00000,1,99,9,99,9",,,,,,,,,,,"10234,5,10216,5",,,,,,,,,,"MET11201/14/22 06:38:02 SPECI KSJC 141438Z 00000KT 1/4SM R30L/1200V1800FT FG SCT000 07/06 A3022 RMK AO2 T00670056 (TC)","D01      0ADE726"
"72494523293","2022-01-14T14:46:00","7","37.35938","-121.92444","15.0","SAN JOSE, CA US","FM-16","KSJC ","V020","999,9,C,0000,5","22000,5,9,N","000805,5,N,5","+0061,5","+0050,5","99999,9",,,,,,,,,,,,,,,,,,,,,"0,0,00,2,0,1,5","30,5",,,,"30,L,9999,9","10,5,+00000,5,99,9",,,"6,99,1,+00000,5,9",,,"9,AGL   ,+99999,+99999","02,99,5,99,9,99,9,00000,1,99,9,99,9",,,,,,,,,,,"10234,5,10216,5",,,,,,,,,,"MET11201/14/22 06:46:02 SPECI KSJC 141446Z 00000KT 1/2SM R30L/1400V2000FT FG FEW000 06/05 A3022 RMK AO2 T00610050 (TC)","D01      0ADE726"
"72494523293","2022-01-14T14:53:00","7","37.35938","-121.92444","15.0","SAN JOSE, CA US","FM-15","KSJC ","V020","999,9,C,0000,5","22000,5,9,N","000805,5,N,5","+0061,5","+0050,5","10234,5","01,0000,9,5",,,,,,,,,,,,,,,,,,,,"0,0,00,2,0,1,5","30,5",,,,"30,L,9999,9","10,5,+00000,5,99,9","04,5,+00030,5,99,9",,"6,99,1,+00000,5,9","2,99,1,+00030,5,9",,"9,AGL   ,+99999,+99999","04,99,5,99,9,99,9,00000,1,99,9,99,9",,,,,,,,,,,"10237,5,10219,5","3,9,002,9,+999,9",,,,,,,,,"MET14201/14/22 06:53:02 METAR KSJC 141453Z 00000KT 1/2SM R30L/1400V2400FT FG FEW000 SCT001 06/05 A3023 RMK AO2 SLP234 VIS W 1/4 T00610050 53002 (TC)","D01      0ADE726"
"72494523293","2022-01-14T15:00:00","7","37.35938","-121.92444","15.0","SAN JOSE, CA US","FM-16","KSJC ","V020","999,9,C,0000,5","22000,5,9,N","000402,5,N,5","+0061,5","+0050,5","99999,9",,,,,,,,,,,,,,,,,,,,,"0,0,00,2,0,1,5","30,5",,,,"30,L,9999,9","10,5,+00000,5,99,9","04,5,+00030,5,99,9",,"6,99,1,+00000,5,9","2,99,1,+00030,5,9",,"9,AGL   ,+99999,+99999","04,99,5,99,9,99,9,00000,1,99,9,99,9",,,,,,,,,,,"10237,5,10219,5",,,,,,,,,,"MET12701/14/22 07:00:02 SPECI KSJC 141500Z 00000KT 1/4SM R30L/1800V2800FT FG FEW000 SCT001 06/05 A3023 RMK AO2 VIS W 8 T00610050 (TC)","D01      0ADE726"
"72494523293","2022-01-14T15:20:00","7","37.35938","-121.92444","15.0","SAN JOSE, CA US","FM-16","KSJC ","V020","999,9,C,0000,5","22000,5,9,N","000402,5,N,5","+0061,5","+0050,5","99999,9",,,,,,,,,,,,,,,,,,,,,"0,0,00,2,0,1,5","30,5",,,,"30,L,9999,9","10,5,+00000,5,99,9","04,5,+03048,5,99,9",,"6,99,1,+00000,5,9","2,99,1,+03048,5,9",,"9,AGL   ,+99999,+99999","04,99,5,99,9,99,9,00000,1,99,9,99,9",,,,,,,,,,,"10237,5,10219,5",,,,,,,,,,"MET12901/14/22 07:20:02 SPECI KSJC 141520Z 00000KT 1/4SM R30L/1200V1600FT FG SCT000 SCT100 06/05 A3023 RMK AO2 FG SCT000 T00610050 (TC)","D01      0ADE726"
"72494523293","2022-01-14T15:25:00","7","37.35938","-121.92444","15.0","SAN JOSE, CA US","FM-16","KSJC ","V020","150,5,N,0015,5","22000,5,9,N","000201,5,N,5","+0061,5","+0050,5","99999,9",,,,,,,,,,,,,,,,,,,,,"0,0,00,2,0,1,5","30,5",,,,"30,L,9999,9","10,5,+00000,5,99,9","04,5,+03048,5,99,9","04,5,+04877,5,99,9","6,99,1,+00000,5,9","2,99,1,+03048,5,9","2,99,1,+04877,5,9","9,AGL   ,+99999,+99999","04,99,5,99,9,99,9,00000,1,99,9,99,9",,,,,,,,,,,"10237,5,10219,5",,,,,,,,,,"MET13601/14/22 07:25:02 SPECI KSJC 141525Z 15003KT 1/8SM R30L/1200V1600FT FG SCT000 SCT100 SCT160 06/05 A3023 RMK AO2 FG SCT000 T00610050 (TC)","D01      0ADE726"
"72494523293","2022-01-14T15:31:00","7","37.35938","-121.92444","15.0","SAN JOSE, CA US","FM-16","KSJC ","V020","999,9,C,0000,5","22000,5,9,N","000201,5,N,5","+0061,5","+0050,5","99999,9",,,,,,,,,,,,,,,,,,,,,"0,0,00,2,0,1,5","30,5",,,,"30,L,9999,9","10,5,+00000,5,99,9","04,5,+03048,5,99,9","04,5,+04877,5,99,9","6,99,1,+00000,5,9","2,99,1,+03048,5,9","2,99,1,+04877,5,9","9,AGL   ,+99999,+99999","04,99,5,99,9,99,9,00000,1,99,9,99,9",,,,,,,,,,,"10237,5,10219,5",,,,,,,,,,"MET13601/14/22 07:31:02 SPECI KSJC 141531Z 00000KT 1/8SM R30L/1400V2600FT FG SCT000 SCT100 SCT160 06/05 A3023 RMK AO2 FG SCT000 T00610050 (TC)","D01      0ADE726"
"72494523293","2022-01-14T15:37:00","7","37.35938","-121.92444","15.0","SAN JOSE, CA US","FM-16","KSJC ","V020","999,9,C,0000,5","03048,5,M,N","000201,5,N,5","+0067,5","+0056,5","99999,9",,,,,,,,,,,,,,,,,,,,,"0,0,00,2,0,1,5","30,5",,,,"30,L,9999,9","10,5,+00000,5,99,9","04,5,+00061,5,99,9","07,5,+03048,5,99,9","6,99,1,+00000,5,9","2,99,1,+00061,5,9","3,99,1,+03048,5,9","9,AGL   ,+99999,+99999","99,99,9,99,9,99,9,00000,1,99,9,99,9",,,,,,,,,,,"10237,5,10219,5",,,,,,,,,,"MET13601/14/22 07:37:02 SPECI KSJC 141537Z 00000KT 1/8SM R30L/1000V2600FT FG SCT000 SCT002 BKN100 07/06 A3023 RMK AO2 FG SCT000 T00670056 (TC)",
"72494523293","2022-01-14T15:45:00","7","37.35938","-121.92444","15.0","SAN JOSE, CA US","FM-16","KSJC ","V020","999,9,C,0000,5","04877,5,M,N","000201,5,N,5","+0061,5","+0050,5","99999,9",,,,,,,,,,,,,,,,,,,,,"0,0,00,2,0,1,5","30,5",,,,"30,L,9999,9","10,5,+00000,5,99,9","04,5,+03048,5,99,9","07,5,+04877,5,99,9","6,99,1,+00000,5,9","2,99,1,+03048,5,9","3,99,1,+04877,5,9","9,AGL   ,+99999,+99999","99,99,9,99,9,99,9,00000,1,99,9,99,9",,,,,,,,,,,"10234,5,10216,5",,,,,,,,,,"MET13801/14/22 07:45:02 SPECI KSJC 141545Z 00000KT 1/8SM R30L/0800V1200FT FG SCT000 SCT100 BKN160 06/05 A3022 RMK AO2 FG SCT000 T00610050 $ (TC)",
"72494523293","2022-01-14T15:53:00","7","37.35938","-121.92444","15.0","SAN JOSE, CA US","FM-15","KSJC ","V020","999,9,C,0000,5","04877,5,M,N","000402,5,N,5","+0061,5","+0050,5","10234,5","01,0000,9,5",,,,,,,,,,,,,,,,,,,,"0,0,00,2,0,1,5","30,5",,,,"30,L,9999,9","10,5,+00000,5,99,9","04,5,+03048,5,99,9","07,5,+04877,5,99,9","6,99,1,+00000,5,9","2,99,1,+03048,5,9","3,99,1,+04877,5,9","9,AGL   ,+99999,+99999","99,99,9,99,9,99,9,00000,1,99,9,99,9",,,,,,,,,,,"10234,5,10216,5",,,,,,,,,,"MET15501/14/22 07:53:02 METAR KSJC 141553Z 00000KT 1/4SM R30L/1000V1800FT FG SCT000 SCT100 BKN160 06/05 A3022 RMK AO2 SLP234 VIS S-W 9 FG SCT000 T00610050 $ (TC)",
"72494523293","2022-01-14T16:00:00","7","37.35938","-121.92444","15.0","SAN JOSE, CA US","FM-16","KSJC ","V020","999,9,C,0000,5","04877,5,M,N","000402,5,N,5","+0061,5","+0056,5","99999,9",,,,,,,,,,,,,,,,,,,,,"0,0,00,2,0,1,5","30,5",,,,"30,L,9999,9","10,5,+00000,5,99,9","04,5,+03048,5,99,9","07,5,+04877,5,99,9","6,99,1,+00000,5,9","2,99,1,+03048,5,9","3,99,1,+04877,5,9","9,AGL   ,+99999,+99999","99,99,9,99,9,99,9,00000,1,99,9,99,9",,,,,,,,,,,"10234,5,10216,5",,,,,,,,,,"MET14901/14/22 08:00:02 SPECI KSJC 141600Z 00000KT 1/4SM R30L/1600V2600FT FG SCT000 SCT100 BKN160 06/06 A3022 RMK AO2 VIS S-W 10 FG SCT000 T00610056 $ (TC)",
"72494523293","2022-01-14T16:07:00","7","37.35938","-121.92444","15.0","SAN JOSE, CA US","FM-16","KSJC ","V020","999,9,C,0000,5","22000,5,9,N","016093,5,N,5","+0061,5","+0056,5","99999,9",,,,,,,,,,,,,,,,,,,,,"0,1,00,2,0,1,5","31,1",,,,"30,L,9999,9","10,5,+00000,5,99,9","02,5,+03048,5,99,9","02,5,+04877,5,99,9","6,99,1,+00000,5,9","1,99,1,+03048,5,9","1,99,1,+04877,5,9","9,AGL   ,+99999,+99999","02,99,5,99,9,99,9,00000,1,99,9,99,9",,,,,,,,,,,"10234,5,10216,5",,,,,,,,,,"MET15801/14/22 08:07:02 SPECI KSJC 141607Z 00000KT 10SM R30L/1400V2400FT MIFG FEW000 FEW100 FEW160 06/06 A3022 RMK AO2 VIS N AND E-SE 1/2 FG FEW000 T00610056 $ (TC)","D01      0ADE726"
"72494523293","2022-01-14T16:53:00","7","37.35938","-121.92444","15.0","SAN JOSE, CA US","FM-15","KSJC ","V020","230,5,N,0026,5","22000,5,9,N","016093,5,N,5","+0083,5","+0083,5","10233,5","01,0000,9,5",,,,,,,,,,,,,,,,,,,,,,,,,,"10,5,+00000,5,99,9","02,5,+03048,5,99,9","02,5,+04877,5,99,9","6,99,1,+00000,5,9","1,99,1,+03048,5,9","1,99,1,+04877,5,9","9,AGL   ,+99999,+99999","02,99,5,99,9,99,9,00000,1,99,9,99,9",,,,,,,,,,,"10234,5,10216,5",,,,,,,,,,"MET11401/14/22 08:53:02 METAR KSJC 141653Z 23005KT 10SM FEW000 FEW100 FEW160 08/08 A3022 RMK AO2 SLP233 T00830083 $ (TC)","D01      0ADE726"
"72494523293","2022-01-14T17:53:00","7","37.35938","-121.92444","15.0","SAN JOSE, CA US","FM-15","KSJC ","V020","320,5,N,0041,5","22000,5,9,N","016093,5,N,5","+0139,5","+0089,5","10229,5","01,0000,9,5",,,,,,,,,,,,,,,,,,,,,,,,,,"02,5,+03048,5,99,9","04,5,+04877,5,99,9",,"1,99,1,+03048,5,9","2,99,1,+04877,5,9",,"9,AGL   ,+99999,+99999","04,99,5,99,9,99,9,03048,1,99,9,99,9","060,M,+0139,1","060,N,+0061,1",,,,,,,,,"10230,5,10212,5","8,9,005,9,+999,9",,,,,,,,,"MET12501/14/22 09:53:02 METAR KSJC 141753Z 32008KT 10SM FEW100 SCT160 14/09 A3021 RMK AO2 SLP229 T01390089 10139 20061 58005 $ (TC)","D01      0ADE726"
"72494523293","2022-01-14T18:53:00","7","37.35938","-121.92444","15.0","SAN JOSE, CA US","FM-15","KSJC ","V020","300,5,N,0031,5","04877,5,M,N","016093,5,N,5","+0161,5","+0061,5","10219,5","01,0000,9,5",,,,,,,,,,,,,,,,,,,,,,,,,,"04,5,+03048,5,99,9","07,5,+04877,5,99,9",,"2,99,1,+03048,5,9","3,99,1,+04877,5,9",,"9,AGL   ,+99999,+99999","99,99,9,99,9,99,9,03048,1,99,9,99,9",,,,,,,,,,,"10220,5,10202,5",,,,,,,,,,"MET10701/14/22 10:53:02 METAR KSJC 141853Z 30006KT 10SM SCT100 BKN160 16/06 A3018 RMK AO2 SLP219 T01610061 $ (TC)",
"72494523293","2022-01-14T19:53:00","7","37.35938","-121.92444","15.0","SAN JOSE, CA US","FM-15","KSJC ","V020","320,5,N,0057,5","03048,5,M,N","016093,5,N,5","+0167,5","+0061,5","10211,5","01,0000,9,5",,,,,,,,,,,,,,,,,,,,,,,,,,"07,5,+03048,5,99,9","07,5,+04877,5,99,9",,"3,99,1,+03048,5,9","3,99,1,+04877,5,9",,"9,AGL   ,+99999,+99999","99,99,9,99,9,99,9,03048,1,99,9,99,9",,,,,,,,,,,"10213,5,10195,5",,,,,,,,,,"MET10701/14/22 11:53:02 METAR KSJC 141953Z 32011KT 10SM BKN100 BKN160 17/06 A3016 RMK AO2 SLP211 T01670061 $ (TC)",
"72494523293","2022-01-14T20:53:00","7","37.35938","-121.92444","15.0","SAN JOSE, CA US","FM-15","KSJC ","V020","290,5,N,0036,5","03048,5,M,N","016093,5,N,5","+0167,5","+0067,5","10206,5","01,0000,9,5",,,,,,,,,,,,,,,,,,,,,,,,,,"07,5,+03048,5,99,9","07,5,+04877,5,99,9",,"3,99,1,+03048,5,9","3,99,1,+04877,5,9",,"9,AGL   ,+99999,+99999","99,99,9,99,9,99,9,03048,1,99,9,99,9",,,,,,,,,,,"10207,5,10188,5","6,9,024,9,+999,9",,,,,,,,,"MET11301/14/22 12:53:02 METAR KSJC 142053Z 29007KT 10SM BKN100 BKN160 17/07 A3014 RMK AO2 SLP206 T01670067 56024 $ (TC)",
"72494523293","2022-01-14T21:53:00","7","37.35938","-121.92444","15.0","SAN JOSE, CA US","FM-15","KSJC ","V020","310,5,N,0026,5","03048,5,M,N","016093,5,N,5","+0172,5","+0067,5","10199,5","01,0000,9,5",,,,,,,,,,,,,,,,,,,,,,,,,,"07,5,+03048,5,99,9","07,5,+04877,5,99,9",,"3,99,1,+03048,5,9","3,99,1,+04877,5,9",,"9,AGL   ,+99999,+99999","99,99,9,99,9,99,9,03048,1,99,9,99,9",,,,,,,,,,,"10200,5,10182,5",,,,,,,,,,"MET10501/14/22 13:53:02 METAR KSJC 142153Z 31005KT 10SM BKN100 BKN160 17/07 A3012 RMK AO2 SLP199 T01720067 (CN)",
"72494523293","2022-01-14T22:53:00","7","37.35938","-121.92444","15.0","SAN JOSE, CA US","FM-15","KSJC ","V020","300,5,N,0026,5","03048,5,M,N","016093,5,N,5","+0183,5","+0050,5","10199,5","01,0000,9,5",,,,,,,,,,,,,,,,,,,,,,,,,,"02,5,+02134,5,99,9","07,5,+03048,5,99,9","07,5,+04877,5,99,9","1,99,1,+02134,5,9","3,99,1,+03048,5,9","3,99,1,+04877,5,9","9,AGL   ,+99999,+99999","99,99,9,99,9,99,9,02134,1,99,9,99,9",,,,,,,,,,,"10200,5,10182,5",,,,,,,,,,"MET11201/14/22 14:53:02 METAR KSJC 142253Z 30005KT 10SM FEW070 BKN100 BKN160 18/05 A3012 RMK AO2 SLP199 T01830050 (CN)",
"72494523293","2022-01-14T23:53:00","7","37.35938","-121.92444","15.0","SAN JOSE, CA US","FM-15","KSJC ","V020","310,5,N,0021,5","04877,5,M,N","016093,5,N,5","+0172,5","+0050,5","10201,5","01,0000,9,5",,,,,,,,,,,,,,,,,,,,,,,,,,"04,5,+03048,5,99,9","07,5,+04877,5,99,9",,"2,99,1,+03048,5,9","3,99,1,+04877,5,9",,"9,AGL   ,+99999,+99999","99,99,9,99,9,99,9,03048,1,99,9,99,9","060,M,+0189,1","060,N,+0139,1",,,,,,,,,"10203,5,10185,5","5,9,004,9,+999,9",,,,,,,,,"MET12301/14/22 15:53:02 METAR KSJC 142353Z 31004KT 10SM SCT100 BKN160 17/05 A3013 RMK AO2 SLP201 T01720050 10189 20139 55004 (CN)",
"72494523293","2022-01-15T00:53:00","7","37.35938","-121.92444","15.0","SAN JOSE, CA US","FM-15","KSJC ","V020","999,9,C,0000,5","04877,5,M,N","016093,5,N,5","+0167,5","+0044,5","10205,5","01,0000,9,5",,,,,,,,,,,,,,,,,,,,,,,,,,"04,5,+02743,5,99,9","07,5,+04877,5,99,9",,"2,99,1,+02743,5,9","3,99,1,+04877,5,9",,"9,AGL   ,+99999,+99999","99,99,9,99,9,99,9,02743,1,99,9,99,9",,,,,,,,,,,"10207,5,10188,5",,,,,,,,,,"MET10001/14/22 16:53:01 METAR KSJC 150053Z 00000KT 10SM SCT090 BKN160 17/04 A3014 RMK AO2 SLP205 T01670044",
"72494523293","2022-01-15T01:53:00","7","37.35938","-121.92444","15.0","SAN JOSE, CA US","FM-15","KSJC ","V020","999,9,V,0015,5","04572,5,M,N","016093,5,N,5","+0150,5","+0044,5","10209,5","01,0000,9,5",,,,,,,,,,,,,,,,,,,,,,,,,,"04,5,+02438,5,99,9","07,5,+04572,5,99,9",,"2,99,1,+02438,5,9","3,99,1,+04572,5,9",,"9,AGL   ,+99999,+99999","99,99,9,99,9,99,9,02438,1,99,9,99,9",,,,,,,,,,,"10210,5,10192,5",,,,,,,,,,"MET10001/14/22 17:53:01 METAR KSJC 150153Z VRB03KT 10SM SCT080 BKN150 15/04 A3015 RMK AO2 SLP209 T01500044",
"72494523293","2022-01-15T02:53:00","7","37.35938","-121.92444","15.0","SAN JOSE, CA US","FM-15","KSJC ","V020","160,5,N,0015,5","04572,5,M,N","016093,5,N,5","+0144,5","+0056,5","10208,5","01,0000,9,5",,,,,,,,,,,,,,,,,,,,,,,,,,"02,5,+02438,5,99,9","07,5,+04572,5,99,9",,"1,99,1,+02438,5,9","3,99,1,+04572,5,9",,"9,AGL   ,+99999,+99999","99,99,9,99,9,99,9,02438,1,99,9,99,9",,,,,,,,,,,"10210,5,10192,5","0,9,007,9,+999,9",,,,,,,,,"MET10601/14/22 18:53:01 METAR KSJC 150253Z 16003KT 10SM FEW080 BKN150 14/06 A3015 RMK AO2 SLP208 T01440056 50007",
"72494523293","2022-01-15T03:53:00","7","37.35938","-121.92444","15.0","SAN JOSE, CA US","FM-15","KSJC ","V020","120,5,N,0015,5","22000,5,9,N","016093,5,N,5","+0122,5","+0050,5","10212,5","01,0000,9,5",,,,,,,,,,,,,,,,,,,,,,,,,,"04,5,+05486,5,99,9",,,"2,99,1,+05486,5,9",,,"9,AGL   ,+99999,+99999","04,99,5,99,9,99,9,05486,1,99,9,99,9",,,,,,,,,,,"10213,5,10195,5",,,,,,,,,,"MET09301/14/22 19:53:02 METAR KSJC 150353Z 12003KT 10SM SCT180 12/05 A3016 RMK AO2 SLP212 T01220050","D01      0ADE726"
"72494523293","2022-01-15T04:53:00","7","37.35938","-121.92444","15.0","SAN JOSE, CA US","FM-15","KSJC ","V020","150,5,N,0031,5","05486,5,M,N","016093,5,N,5","+0100,5","+0050,5","10218,5","01,0000,9,5",,,,,,,,,,,,,,,,,,,,,,,,,,"07,5,+05486,5,99,9",,,"3,99,1,+05486,5,9",,,"9,AGL   ,+99999,+99999","99,99,9,99,9,99,9,05486,1,99,9,99,9",,,,,,,,,,,"10220,5,10202,5",,,,,,,,,,"MET09301/14/22 20:53:02 METAR KSJC 150453Z 15006KT 10SM BKN180 10/05 A3018 RMK AO2 SLP218 T01000050",
"72494523293","2022-01-15T05:53:00","7","37.35938","-121.92444","15.0","SAN JOSE, CA US","FM-15","KSJC ","V020","999,9,C,0000,5","06096,5,M,N","016093,5,N,5","+0106,5","+0050,5","10218,5","01,0000,9,5",,,,,,,,,,,,,,,,,,,,,,,,,,"07,5,+06096,5,99,9",,,"3,99,1,+06096,5,9",,,"9,AGL   ,+99999,+99999","99,99,9,99,9,99,9,06096,1,99,9,99,9","060,M,+0178,1","060,N,+0100,1",,,,,,,,,"10220,5,10202,5","1,9,010,9,+999,9",,,,,,,,,"MET11101/14/22 21:53:02 METAR KSJC 150553Z 00000KT 10SM BKN200 11/05 A3018 RMK AO2 SLP218 T01060050 10178 20100 51010",
"72494523293","2022-01-15T06:53:00","7","37.35938","-121.92444","15.0","SAN JOSE, CA US","FM-15","KSJC ","V020","200,5,N,0015,5","06096,5,M,N","016093,5,N,5","+0100,5","+0050,5","10220,5","01,0000,9,5",,,,,,,,,,,,,,,,,,,,,,,,,,"07,5,+06096,5,99,9",,,"3,99,1,+06096,5,9",,,"9,AGL   ,+99999,+99999","99,99,9,99,9,99,9,06096,1,99,9,99,9",,,,,,,,,,,"10220,5,10202,5",,,,,,,,,,"MET09301/14/22 22:53:02 METAR KSJC 150653Z 20003KT 10SM BKN200 10/05 A3018 RMK AO2 SLP220 T01000050",
"72494523293","2022-01-15T07:53:00","7","37.35938","-121.92444","15.0","SAN JOSE, CA US","FM-15","KSJC ","V020","999,9,C,0000,5","06096,5,M,N","016093,5,N,5","+0083,5","+0039,5","10220,5","01,0000,9,5",,,,,,,,,,,,,,,,,,,,,,,,,,"02,5,+03658,5,99,9","07,5,+06096,5,99,9",,"1,99,1,+03658,5,9","3,99,1,+06096,5,9",,"9,AGL   ,+99999,+99999","99,99,9,99,9,99,9,03658,1,99,9,99,9","240,M,+0189,1","240,N,+0061,1",,,,,,,,,"10220,5,10202,5",,,,,,,,,,"MET11501/14/22 23:53:02 METAR KSJC 150753Z 00000KT 10SM FEW120 BKN200 08/04 A3018 RMK AO2 SLP220 LAST T00830039 401890061",
"72494523293","2022-01-15T07:59:00","6","37.35938","-121.92444","15.0","SAN JOSE, CA US","SOD  ","KSJC ","V020","999,9,9,9999,9","99999,9,9,9","999999,9,9,9","+9999,9","+9999,9","99999,9","24,0000,9,5",,,,,,,,,,,,,,,,,"AU,01,FG  ,5","AU,21,MIFG,5","AU,13,BR  ,5",,,"01,6,24,6","02,6,24,6",,,,,,,,,,,"240,M,+0189,5","240,N,+0061,5",,,,,,,,,,,"10201,4,10196,4",,,,,"1,24,00805,320,9999,5","2,24,00671,320,9999,5","3,24,00165,999,9999,5","SOD71024 HR PRECIPITATION (IN): 0.00 WEATHER(CODE):12  24 HR MAX TEMP (F): 6624 HR MIN TEMP (F): 43AVERAGE STATION PRESSURE:30.125 MINIMUM SEA LEVEL PRESSURE:30.11 TIME OF OCCURRENCE:1439 PEAK WIND SPEED (MPH): 18 PEAK WIND DIR (DEG):320 PEAK WIND TIME (LST):      FASTEST 2MIN SPEED (MPH): 15FASTEST 2MIN DIR (DEG):320 FASTEST 2MIN TIME (LST):     AVERAGE WIND SPEED (MPH): 3.7 24 HR AVG TEMP (F): 55DEPART FROM NORMAL:  4  HEATING DEGREE DAYS: 10 COOLING DEGREE DAYS:  0 LATEST DAY MAX TEMP (0700-1900 LST):66  LATEST NIGHT MIN TEMP(1900-0800 LST):43 HOURLY INCREMENTAL PRECIPITATION VALUES (IN):.00 0.00 0.00 0.00 0.00 0.00 0.00 0.00 0.00 0.00 0.00 0.00 0.00 0.00 0.00 0.00 0.00 0.00 0.00 0.00 0.00 0.00 0.00 0.00","R01    127AXW090R02    127AXW090"
"72494523293","2022-01-15T08:53:00","7","37.35938","-121.92444","15.0","SAN JOSE, CA US","FM-15","KSJC ","V020","230,5,N,0015,5","22000,5,9,N","016093,5,N,5","+0078,5","+0039,5","10221,5","01,0000,9,5",,,,,,,,,,,,,,,,,,,,,,,,,,"00,5,+99999,9,99,9",,,"0,99,1,+99999,9,9",,,,"00,99,1,99,9,99,9,99999,9,99,9,99,9",,,,,,,,,,,"10224,5,10205,5","1,9,002,9,+999,9",,,,,,,,,"MET09601/15/22 00:53:02 METAR KSJC 150853Z 23003KT 10SM CLR 08/04 A3019 RMK AO2 SLP221 T00780039 51002",
"72494523293","2022-01-15T09:53:00","7","37.35938","-121.92444","15.0","SAN JOSE, CA US","FM-15","KSJC ","V020","160,5,N,0015,5","22000,5,9,N","016093,5,N,5","+0067,5","+0033,5","10220,5","01,0000,9,5",,,,,,,,,,,,,,,,,,,,,,,,,,"00,5,+99999,9,99,9",,,"0,99,1,+99999,9,9",,,,"00,99,1,99,9,99,9,99999,9,99,9,99,9",,,,,,,,,,,"10220,5,10202,5",,,,,,,,,,"MET09001/15/22 01:53:02 METAR KSJC 150953Z 16003KT 10SM CLR 07/03 A3018 RMK AO2 SLP220 T00670033",
"72494523293","2022-01-15T10:53:00","7","37.35938","-121.92444","15.0","SAN JOSE, CA US","FM-15","KSJC ","V020","999,9,C,0000,5","22000,5,9,N","016093,5,N,5","+0067,5","+0033,5","10222,5","01,0000,9,5",,,,,,,,,,,,,,,,,,,,,,,,,,"00,5,+99999,9,99,9",,,"0,99,1,+99999,9,9",,,,"00,99,1,99,9,99,9,99999,9,99,9,99,9",,,,,,,,,,,"10224,5,10205,5",,,,,,,,,,"MET09001/15/22 02:53:02 METAR KSJC 151053Z 00000KT 10SM CLR 07/03 A3019 RMK AO2 SLP222 T00670033",
"72494523293","2022-01-15T11:53:00","7","37.35938","-121.92444","15.0","SAN JOSE, CA US","FM-15","KSJC ","V020","999,9,C,0000,5","22000,5,9,N","016093,5,N,5","+0056,5","+0028,5","10227,5","01,0000,9,5",,,,,,,,,,,,,,,,,,,,,,,,,,"00,5,+99999,9,99,9",,,"0,99,1,+99999,9,9",,,,"00,99,1,99,9,99,9,99999,9,99,9,99,9","060,M,+0106,1","060,N,+0056,1",,,,,,,,,"10227,5,10209,5","3,9,006,9,+999,9",,,,,,,,,"MET10801/15/22 03:53:02 METAR KSJC 151153Z 00000KT 10SM CLR 06/03 A3020 RMK AO2 SLP227 T00560028 10106 20056 53006",
"72494523293","2022-01-15T12:53:00","7","37.35938","-121.92444","15.0","SAN JOSE, CA US","FM-15","KSJC ","V020","999,9,C,0000,5","22000,5,9,N","016093,5,N,5","+0067,5","+0033,5","10222,5","01,0000,9,5",,,,,,,,,,,,,,,,,,,,,,,,,,"00,5,+99999,9,99,9",,,"0,99,1,+99999,9,9",,,,"00,99,1,99,9,99,9,99999,9,99,9,99,9",,,,,,,,,,,"10224,5,10205,5",,,,,,,,,,"MET09001/15/22 04:53:02 METAR KSJC 151253Z 00000KT 10SM CLR 07/03 A3019 RMK AO2 SLP222 T00670033",
"72494523293","2022-01-15T13:53:00","7","37.35938","-121.92444","15.0","SAN JOSE, CA US","FM-15","KSJC ","V020","130,5,N,0021,5","22000,5,9,N","016093,5,N,5","+0050,5","+0028,5","10223,5","01,0000,9,5",,,,,,,,,,,,,,,,,,,,,,,,,,"02,5,+00152,5,99,9","04,5,+04877,5,99,9",,"1,99,1,+00152,5,9","2,99,1,+04877,5,9",,"9,AGL   ,+99999,+99999","04,99,5,99,9,99,9,00152,1,99,9,99,9",,,,,,,,,,,"10224,5,10205,5",,,,,,,,,,"MET10501/15/22 05:53:02 METAR KSJC 151353Z 13004KT 10SM FEW005 SCT160 05/03 A3019 RMK AO2 SLP223 T00500028 (DR)","D01      0ADE726"
"72494523293","2022-01-15T14:53:00","7","37.35938","-121.92444","15.0","SAN JOSE, CA US","FM-15","KSJC ","V020","140,5,N,0015,5","04877,5,M,N","011265,5,N,5","+0056,5","+0028,5","10230,5","01,0000,9,5",,,,,,,,,,,,,,,,,,,,,,,,,,"02,5,+00152,5,99,9","04,5,+03048,5,99,9","07,5,+04877,5,99,9","1,99,1,+00152,5,9","2,99,1,+03048,5,9","3,99,1,+04877,5,9","9,AGL   ,+99999,+99999","99,99,9,99,9,99,9,00152,1,99,9,99,9",,,,,,,,,,,"10230,5,10212,5","3,9,003,9,+999,9",,,,,,,,,"MET11701/15/22 06:53:02 METAR KSJC 151453Z 14003KT 7SM FEW005 SCT100 BKN160 06/03 A3021 RMK AO2 SLP230 T00560028 53003 (DR)",
"72494523293","2022-01-15T15:53:00","7","37.35938","-121.92444","15.0","SAN JOSE, CA US","FM-15","KSJC ","V020","999,9,C,0000,5","04877,5,M,N","016093,5,N,5","+0056,5","+0033,5","10235,5","01,0000,9,5",,,,,,,,,,,,,,,,,,,,,,,,,,"02,5,+00152,5,99,9","04,5,+02743,5,99,9","07,5,+04877,5,99,9","1,99,1,+00152,5,9","2,99,1,+02743,5,9","3,99,1,+04877,5,9","9,AGL   ,+99999,+99999","99,99,9,99,9,99,9,00152,1,99,9,99,9",,,,,,,,,,,"10237,5,10219,5",,,,,,,,,,"MET11201/15/22 07:53:02 METAR KSJC 151553Z 00000KT 10SM FEW005 SCT090 BKN160 06/03 A3023 RMK AO2 SLP235 T00560033 (DR)",
"72494523293","2022-01-15T16:53:00","7","37.35938","-121.92444","15.0","SAN JOSE, CA US","FM-15","KSJC ","V020","160,5,N,0021,5","04877,5,M,N","016093,5,N,5","+0072,5","+0050,5","10235,5","01,0000,9,5",,,,,,,,,,,,,,,,,,,,,,,,,,"02,5,+00183,5,99,9","04,5,+02743,5,99,9","07,5,+04877,5,99,9","1,99,1,+00183,5,9","2,99,1,+02743,5,9","3,99,1,+04877,5,9","9,AGL   ,+99999,+99999","99,99,9,99,9,99,9,00183,1,99,9,99,9",,,,,,,,,,,"10237,5,10219,5",,,,,,,,,,"MET11201/15/22 08:53:02 METAR KSJC 151653Z 16004KT 10SM FEW006 SCT090 BKN160 07/05 A3023 RMK AO2 SLP235 T00720050 (DR)",
"72494523293","2022-01-15T17:53:00","7","37.35938","-121.92444","15.0","SAN JOSE, CA US","FM-15","KSJC ","V020","999,9,C,0000,5","04877,5,M,N","016093,5,N,5","+0106,5","+0067,5","10236,5","01,0000,9,5",,,,,,,,,,,,,,,,,,,,,,,,,,"02,5,+00975,5,99,9","04,5,+03048,5,99,9","07,5,+04877,5,99,9","1,99,1,+00975,5,9","2,99,1,+03048,5,9","3,99,1,+04877,5,9","9,AGL   ,+99999,+99999","99,99,9,99,9,99,9,00975,1,99,9,99,9","060,M,+0106,1","060,N,+0044,1",,,,,,,,,"10237,5,10219,5","1,9,006,9,+999,9",,,,,,,,,"MET13001/15/22 09:53:02 METAR KSJC 151753Z 00000KT 10SM FEW032 SCT100 BKN160 11/07 A3023 RMK AO2 SLP236 T01060067 10106 20044 51006 (DR)",
"72494523293","2022-01-15T18:53:00","7","37.35938","-121.92444","15.0","SAN JOSE, CA US","FM-15","KSJC ","V020","999,9,C,0000,5","06096,5,M,N","016093,5,N,5","+0144,5","+0061,5","10234,5","01,0000,9,5",,,,,,,,,,,,,,,,,,,,,,,,,,"02,5,+01006,5,99,9","04,5,+03048,5,99,9","07,5,+06096,5,99,9","1,99,1,+01006,5,9","2,99,1,+03048,5,9","3,99,1,+06096,5,9","9,AGL   ,+99999,+99999","99,99,9,99,9,99,9,01006,1,99,9,99,9",,,,,,,,,,,"10234,5,10216,5",,,,,,,,,,"MET11201/15/22 10:53:02 METAR KSJC 151853Z 00000KT 10SM FEW033 SCT100 BKN200 14/06 A3022 RMK AO2 SLP234 T01440061 (DR)",
"72494523293","2022-01-15T19:53:00","7","37.35938","-121.92444","15.0","SAN JOSE, CA US","FM-15","KSJC ","V020","999,9,C,0000,5","06096,5,M,N","016093,5,N,5","+0150,5","+0050,5","10227,5","01,0000,9,5",,,,,,,,,,,,,,,,,,,,,,,,,,"02,5,+01006,5,99,9","04,5,+03048,5,99,9","07,5,+06096,5,99,9","1,99,1,+01006,5,9","2,99,1,+03048,5,9","3,99,1,+06096,5,9","9,AGL   ,+99999,+99999","99,99,9,99,9,99,9,01006,1,99,9,99,9",,,,,,,,,,,"10227,5,10209,5",,,,,,,,,,"MET11201/15/22 11:53:02 METAR KSJC 151953Z 00000KT 10SM FEW033 SCT100 BKN200 15/05 A3020 RMK AO2 SLP227 T01500050 (DR)",
"72494523293","2022-01-15T20:53:00","7","37.35938","-121.92444","15.0","SAN JOSE, CA US","FM-15","KSJC ","V020","999,9,C,0000,5","07620,5,M,N","016093,5,N,5","+0167,5","+0050,5","10220,5","01,0000,9,5",,,,,,,,,,,,,,,,,,,,,,,,,,"02,5,+01158,5,99,9","04,5,+03048,5,99,9","07,5,+07620,5,99,9","1,99,1,+01158,5,9","2,99,1,+03048,5,9","3,99,1,+07620,5,9","9,AGL   ,+99999,+99999","99,99,9,99,9,99,9,01158,1,99,9,99,9",,,,,,,,,,,"10220,5,10202,5","8,9,015,9,+999,9",,,,,,,,,"MET11801/15/22 12:53:02 METAR KSJC 152053Z 00000KT 10SM FEW038 SCT100 BKN250 17/05 A3018 RMK AO2 SLP220 T01670050 58015 (DR)",
"72494523293","2022-01-15T21:53:00","7","37.35938","-121.92444","15.0","SAN JOSE, CA US","FM-15","KSJC ","V020","999,9,C,0000,5","07620,5,M,N","016093,5,N,5","+0189,5","+0067,5","10210,5","01,0000,9,5",,,,,,,,,,,,,,,,,,,,,,,,,,"02,5,+01158,5,99,9","04,5,+03048,5,99,9","07,5,+07620,5,99,9","1,99,1,+01158,5,9","2,99,1,+03048,5,9","3,99,1,+07620,5,9","9,AGL   ,+99999,+99999","99,99,9,99,9,99,9,01158,1,99,9,99,9",,,,,,,,,,,"10210,5,10192,5",,,,,,,,,,"MET11201/15/22 13:53:02 METAR KSJC 152153Z 00000KT 10SM FEW038 SCT100 BKN250 19/07 A3015 RMK AO2 SLP210 T01890067 (CN)",
"72494523293","2022-01-15T22:53:00","7","37.35938","-121.92444","15.0","SAN JOSE, CA US","FM-15","KSJC ","V020","999,9,C,0000,5","06096,5,M,N","016093,5,N,5","+0189,5","+0050,5","10208,5","01,0000,9,5",,,,,,,,,,,,,,,,,,,,,,,,,,"02,5,+02743,5,99,9","07,5,+06096,5,99,9",,"1,99,1,+02743,5,9","3,99,1,+06096,5,9",,"9,AGL   ,+99999,+99999","99,99,9,99,9,99,9,02743,1,99,9,99,9",,,,,,,,,,,"10210,5,10192,5",,,,,,,,,,"MET10501/15/22 14:53:02 METAR KSJC 152253Z 00000KT 10SM FEW090 BKN200 19/05 A3015 RMK AO2 SLP208 T01890050 (CN)",
"72494523293","2022-01-15T23:53:00","7","37.35938","-121.92444","15.0","SAN JOSE, CA US","FM-15","KSJC ","V020","999,9,C,0000,5","06096,5,M,N","016093,5,N,5","+0178,5","+0067,5","10209,5","01,0000,9,5",,,,,,,,,,,,,,,,,,,,,,,,,,"02,5,+02743,5,99,9","07,5,+06096,5,99,9",,"1,99,1,+02743,5,9","3,99,1,+06096,5,9",,"9,AGL   ,+99999,+99999","99,99,9,99,9,99,9,02743,1,99,9,99,9","060,M,+0200,1","060,N,+0106,1",,,,,,,,,"10210,5,10192,5","5,9,011,9,+999,9",,,,,,,,,"MET12301/15/22 15:53:02 METAR KSJC 152353Z 00000KT 10SM FEW090 BKN200 18/07 A3015 RMK AO2 SLP209 T01780067 10200 20106 55011 (CN)",
"72494523293","2022-01-16T00:53:00","7","37.35938","-121.92444","15.0","SAN JOSE, CA US","FM-15","KSJC ","V020","320,5,N,0026,5","06096,5,M,N","016093,5,N,5","+0139,5","+0078,5","10211,5","01,0000,2,5",,,,,,,,,,,,,,,,,,,,,,,,,,"04,5,+02743,5,99,9","07,5,+06096,5,99,9",,"2,99,1,+02743,5,9","3,99,1,+06096,5,9",,"9,AGL   ,+99999,+99999","99,99,9,99,9,99,9,02743,1,99,9,99,9",,,,,,,,,,,"10213,5,10195,5",,,,,,,,,,"MET11501/15/22 16:53:01 METAR KSJC 160053Z 32005KT 10SM SCT090 BKN200 14/08 A3016 RMK AO2 RAB10E23 SLP211 P0000 T01390078",
"72494523293","2022-01-16T01:53:00","7","37.35938","-121.92444","15.0","SAN JOSE, CA US","FM-15","KSJC ","V020","999,9,C,0000,5","04877,5,M,N","016093,5,N,5","+0150,5","+0067,5","10214,5","01,0000,9,5",,,,,,,,,,,,,,,,,,,,,,,,,,"04,5,+02743,5,99,9","07,5,+04877,5,99,9",,"2,99,1,+02743,5,9","3,99,1,+04877,5,9",,"9,AGL   ,+99999,+99999","99,99,9,99,9,99,9,02743,1,99,9,99,9",,,,,,,,,,,"10213,5,10195,5",,,,,,,,,,"MET10001/15/22 17:53:01 METAR KSJC 160153Z 00000KT 10SM SCT090 BKN160 15/07 A3016 RMK AO2 SLP214 T01500067",
"72494523293","2022-01-16T02:53:00","7","37.35938","-121.92444","15.0","SAN JOSE, CA US","FM-15","KSJC ","V020","999,9,C,0000,5","03048,5,M,N","016093,5,N,5","+0144,5","+0072,5","10218,5","01,0000,9,5","03,0000,2,1",,,,,,,,,,,,,,,,,,,,,,,,,"07,5,+03048,5,99,9","07,5,+04877,5,99,9",,"3,99,1,+03048,5,9","3,99,1,+04877,5,9",,"9,AGL   ,+99999,+99999","99,99,9,99,9,99,9,03048,1,99,9,99,9",,,,,,,,,,,"10220,5,10202,5","3,9,009,9,+999,9",,,,,,,,,"MET11201/15/22 18:53:01 METAR KSJC 160253Z 00000KT 10SM BKN100 BKN160 14/07 A3018 RMK AO2 SLP218 60000 T01440072 53009",
"72494523293","2022-01-16T03:53:00","7","37.35938","-121.92444","15.0","SAN JOSE, CA US","FM-15","KSJC ","V020","999,9,C,0000,5","04572,5,M,N","016093,5,N,5","+0144,5","+0067,5","10219,5","01,0000,9,5",,,,,,,,,,,,,,,,,,,,,,,,,,"07,5,+04572,5,99,9","08,5,+06096,5,99,9",,"3,99,1,+04572,5,9","4,99,1,+06096,5,9",,"9,AGL   ,+99999,+99999","99,99,9,99,9,99,9,04572,1,99,9,99,9",,,,,,,,,,,"10220,5,10202,5",,,,,,,,,,"MET10001/15/22 19:53:02 METAR KSJC 160353Z 00000KT 10SM BKN150 OVC200 14/07 A3018 RMK AO2 SLP219 T01440067",
"72494523293","2022-01-16T04:53:00","7","37.35938","-121.92444","15.0","SAN JOSE, CA US","FM-15","KSJC ","V020","320,5,N,0031,5","04572,5,M,N","016093,5,N,5","+0128,5","+0072,5","10215,5","01,0000,9,5",,,,,,,,,,,,,,,,,,,,,,,,,,"07,5,+04572,5,99,9","08,5,+07620,5,99,9",,"3,99,1,+04572,5,9","4,99,1,+07620,5,9",,"9,AGL   ,+99999,+99999","99,99,9,99,9,99,9,04572,1,99,9,99,9",,,,,,,,,,,"10217,5,10199,5",,,,,,,,,,"MET10001/15/22 20:53:02 METAR KSJC 160453Z 32006KT 10SM BKN150 OVC250 13/07 A3017 RMK AO2 SLP215 T01280072",
"72494523293","2022-01-16T05:53:00","7","37.35938","-121.92444","15.0","SAN JOSE, CA US","FM-15","KSJC ","V020","999,9,C,0000,5","03353,5,M,N","016093,5,N,5","+0139,5","+0072,5","10222,5","01,0000,9,5","06,0000,2,1",,,,,,,,,,,,,,,,,,,,,,,,,"07,5,+03353,5,99,9","07,5,+07620,5,99,9",,"3,99,1,+03353,5,9","3,99,1,+07620,5,9",,"9,AGL   ,+99999,+99999","99,99,9,99,9,99,9,03353,1,99,9,99,9","060,M,+0178,1","060,N,+0122,1",,,,,,,,,"10224,5,10205,5","3,9,004,9,+999,9",,,,,,,,,"MET12401/15/22 21:53:02 METAR KSJC 160553Z 00000KT 10SM BKN110 BKN250 14/07 A3019 RMK AO2 SLP222 60000 T01390072 10178 20122 53004",
"72494523293","2022-01-16T06:53:00","7","37.35938","-121.92444","15.0","SAN JOSE, CA US","FM-15","KSJC ","V020","080,5,N,0021,5","03048,5,M,N","014484,5,N,5","+0133,5","+0078,5","10218,5","01,0000,9,5",,,,,,,,,,,,,,,,,,,,,,,,,,"07,5,+03048,5,99,9","07,5,+07620,5,99,9",,"3,99,1,+03048,5,9","3,99,1,+07620,5,9",,"9,AGL   ,+99999,+99999","99,99,9,99,9,99,9,03048,1,99,9,99,9",,,,,,,,,,,"10220,5,10202,5",,,,,,,,,,"MET09901/15/22 22:53:02 METAR KSJC 160653Z 08004KT 9SM BKN100 BKN250 13/08 A3018 RMK AO2 SLP218 T01330078",
"72494523293","2022-01-16T07:53:00","7","37.35938","-121.92444","15.0","SAN JOSE, CA US","FM-15","KSJC ","V020","999,9,C,0000,5","03048,5,M,N","014484,5,N,5","+0128,5","+0072,5","10215,5","01,0000,9,5",,,,,,,,,,,,,,,,,,,,,,,,,,"07,5,+03048,5,99,9",,,"3,99,1,+03048,5,9",,,"9,AGL   ,+99999,+99999","99,99,9,99,9,99,9,03048,1,99,9,99,9","240,M,+0200,1","240,N,+0044,1",,,,,,,,,"10217,5,10199,5",,,,,,,,,,"MET10701/15/22 23:53:02 METAR KSJC 160753Z 00000KT 9SM BKN100 13/07 A3017 RMK AO2 SLP215 LAST T01280072 402000044",
"72494523293","2022-01-16T07:59:00","6","37.35938","-121.92444","15.0","SAN JOSE, CA US","SOD  ","KSJC ","V020","999,9,9,9999,9","99999,9,9,9","999999,9,9,9","+9999,9","+9999,9","99999,9","24,0000,2,5",,,,,,,,,,,,,,,,,,,,,,"01,6,24,6","08,6,24,6",,,,,,,,,,,"240,M,+0200,5","240,N,+0044,5",,,,,,,,,,,"10205,4,10207,4",,,,,"1,24,00358,200,9999,5","2,24,00313,320,9999,5","3,24,00067,999,9999,5","SOD71024 HR PRECIPITATION (IN):    T WEATHER(CODE):18  24 HR MAX TEMP (F): 6824 HR MIN TEMP (F): 40AVERAGE STATION PRESSURE:30.135 MINIMUM SEA LEVEL PRESSURE:30.14 TIME OF OCCURRENCE:1516 PEAK WIND SPEED (MPH):  8 PEAK WIND DIR (DEG):200 PEAK WIND TIME (LST):      FASTEST 2MIN SPEED (MPH):  7FASTEST 2MIN DIR (DEG):320 FASTEST 2MIN TIME (LST):     AVERAGE WIND SPEED (MPH): 1.5 24 HR AVG TEMP (F): 54DEPART FROM NORMAL:  3  HEATING DEGREE DAYS: 11 COOLING DEGREE DAYS:  0 LATEST DAY MAX TEMP (0700-1900 LST):68  LATEST NIGHT MIN TEMP(1900-0800 LST):40 HOURLY INCREMENTAL PRECIPITATION VALUES (IN):.00 0.00 0.00 0.00 0.00 0.00 0.00 0.00 0.00 0.00 0.00 0.00 0.00 0.00 0.00 0.00 T    0.00 0.00 0.00 0.00 0.00 0.00 0.00","R01    187AXW093R02    187AXW093"
"72494523293","2022-01-16T08:53:00","7","37.35938","-121.92444","15.0","SAN JOSE, CA US","FM-15","KSJC ","V020","999,9,C,0000,5","03048,5,M,N","016093,5,N,5","+0117,5","+0072,5","10204,5","01,0000,9,5",,,,,,,,,,,,,,,,,,,,,,,,,,"07,5,+03048,5,99,9",,,"3,99,1,+03048,5,9",,,"9,AGL   ,+99999,+99999","99,99,9,99,9,99,9,03048,1,99,9,99,9",,,,,,,,,,,"10203,5,10185,5","8,9,019,9,+999,9",,,,,,,,,"MET09901/16/22 00:53:02 METAR KSJC 160853Z 00000KT 10SM BKN100 12/07 A3013 RMK AO2 SLP204 T01170072 58019",
"72494523293","2022-01-16T09:53:00","7","37.35938","-121.92444","15.0","SAN JOSE, CA US","FM-15","KSJC ","V020","180,5,N,0021,5","03353,5,M,N","016093,5,N,5","+0122,5","+0072,5","10210,5","01,0000,9,5",,,,,,,,,,,,,,,,,,,,,,,,,,"08,5,+03353,5,99,9",,,"4,99,1,+03353,5,9",,,"9,AGL   ,+99999,+99999","99,99,9,99,9,99,9,03353,1,99,9,99,9",,,,,,,,,,,"10210,5,10192,5",,,,,,,,,,"MET09301/16/22 01:53:02 METAR KSJC 160953Z 18004KT 10SM OVC110 12/07 A3015 RMK AO2 SLP210 T01220072",
"72494523293","2022-01-16T10:53:00","7","37.35938","-121.92444","15.0","SAN JOSE, CA US","FM-15","KSJC ","V020","130,5,N,0015,5","03353,5,M,N","016093,5,N,5","+0111,5","+0072,5","10213,5","01,0000,9,5",,,,,,,,,,,,,,,,,,,,,,,,,,"08,5,+03353,5,99,9",,,"4,99,1,+03353,5,9",,,"9,AGL   ,+99999,+99999","99,99,9,99,9,99,9,03353,1,99,9,99,9",,,,,,,,,,,"10213,5,10195,5",,,,,,,,,,"MET09301/16/22 02:53:02 METAR KSJC 161053Z 13003KT 10SM OVC110 11/07 A3016 RMK AO2 SLP213 T01110072",
"72494523293","2022-01-16T11:53:00","7","37.35938","-121.92444","15.0","SAN JOSE, CA US","FM-15","KSJC ","V020","999,9,C,0000,5","03353,5,M,N","016093,5,N,5","+0117,5","+0072,5","10204,5","01,0000,9,5",,,,,,,,,,,,,,,,,,,,,,,,,,"08,5,+03353,5,99,9",,,"4,99,1,+03353,5,9",,,"9,AGL   ,+99999,+99999","99,99,9,99,9,99,9,03353,1,99,9,99,9","060,M,+0139,1","060,N,+0111,1",,,,,,,,,"10207,5,10188,5","0,9,000,9,+999,9",,,,,,,,,"MET11101/16/22 03:53:02 METAR KSJC 161153Z 00000KT 10SM OVC110 12/07 A3014 RMK AO2 SLP204 T01170072 10139 20111 50000",
"72494523293","2022-01-16T12:53:00","7","37.35938","-121.92444","15.0","SAN JOSE, CA US","FM-15","KSJC ","V020","230,5,N,0015,5","02896,5,M,N","016093,5,N,5","+0111,5","+0078,5","10199,5","01,0000,9,5",,,,,,,,,,,,,,,,,,,,,,,,,,"08,5,+02896,5,99,9",,,"4,99,1,+02896,5,9",,,"9,AGL   ,+99999,+99999","99,99,9,99,9,99,9,02896,1,99,9,99,9",,,,,,,,,,,"10200,5,10182,5",,,,,,,,,,"MET09301/16/22 04:53:02 METAR KSJC 161253Z 23003KT 10SM OVC095 11/08 A3012 RMK AO2 SLP199 T01110078",
"72494523293","2022-01-16T13:53:00","7","37.35938","-121.92444","15.0","SAN JOSE, CA US","FM-15","KSJC ","V020","999,9,C,0000,5","05486,5,M,N","016093,5,N,5","+0111,5","+0067,5","10202,5","01,0000,9,5",,,,,,,,,,,,,,,,,,,,,,,,,,"02,5,+02743,5,99,9","07,5,+05486,5,99,9",,"1,99,1,+02743,5,9","3,99,1,+05486,5,9",,"9,AGL   ,+99999,+99999","99,99,9,99,9,99,9,02743,1,99,9,99,9",,,,,,,,,,,"10203,5,10185,5",,,,,,,,,,"MET10501/16/22 05:53:02 METAR KSJC 161353Z 00000KT 10SM FEW090 BKN180 11/07 A3013 RMK AO2 SLP202 T01110067 (DR)",
"72494523293","2022-01-16T14:53:00","7","37.35938","-121.92444","15.0","SAN JOSE, CA US","FM-15","KSJC ","V020","999,9,C,0000,5","05486,5,M,N","016093,5,N,5","+0106,5","+0067,5","10202,5","01,0000,9,5",,,,,,,,,,,,,,,,,,,,,,,,,,"02,5,+02743,5,99,9","04,5,+03353,5,99,9","07,5,+05486,5,99,9","1,99,1,+02743,5,9","2,99,1,+03353,5,9","3,99,1,+05486,5,9","9,AGL   ,+99999,+99999","99,99,9,99,9,99,9,02743,1,99,9,99,9",,,,,,,,,,,"10203,5,10185,5","5,9,002,9,+999,9",,,,,,,,,"MET11801/16/22 06:53:02 METAR KSJC 161453Z 00000KT 10SM FEW090 SCT110 BKN180 11/07 A3013 RMK AO2 SLP202 T01060067 55002 (DR)",
"72494523293","2022-01-16T15:53:00","7","37.35938","-121.92444","15.0","SAN JOSE, CA US","FM-15","KSJC ","V020","999,9,C,0000,5","22000,5,9,N","016093,5,N,5","+0089,5","+0067,5","10204,5","01,0000,9,5",,,,,,,,,,,,,,,,,,,,,,,,,,"02,5,+02438,5,99,9","04,5,+03353,5,99,9","04,5,+04877,5,99,9","1,99,1,+02438,5,9","2,99,1,+03353,5,9","2,99,1,+04877,5,9","9,AGL   ,+99999,+99999","04,99,5,99,9,99,9,02438,1,99,9,99,9",,,,,,,,,,,"10207,5,10188,5",,,,,,,,,,"MET11201/16/22 07:53:02 METAR KSJC 161553Z 00000KT 10SM FEW080 SCT110 SCT160 09/07 A3014 RMK AO2 SLP204 T00890067 (DR)","D01      0ADE726"
"72494523293","2022-01-16T16:53:00","7","37.35938","-121.92444","15.0","SAN JOSE, CA US","FM-15","KSJC ","V020","150,5,N,0015,5","03658,5,M,N","016093,5,N,5","+0111,5","+0078,5","10203,5","01,0000,9,5",,,,,,,,,,,,,,,,,,,,,,,,,,"02,5,+02438,5,99,9","07,5,+03658,5,99,9",,"1,99,1,+02438,5,9","3,99,1,+03658,5,9",,"9,AGL   ,+99999,+99999","99,99,9,99,9,99,9,02438,1,99,9,99,9",,,,,,,,,,,"10203,5,10185,5",,,,,,,,,,"MET10501/16/22 08:53:02 METAR KSJC 161653Z 15003KT 10SM FEW080 BKN120 11/08 A3013 RMK AO2 SLP203 T01110078 (DR)",
"72494523293","2022-01-16T17:53:00","7","37.35938","-121.92444","15.0","SAN JOSE, CA US","FM-15","KSJC ","V020","999,9,C,0000,5","03658,5,M,N","016093,5,N,5","+0128,5","+0078,5","10205,5","01,0000,9,5",,,,,,,,,,,,,,,,,,,,,,,,,,"02,5,+01829,5,99,9","07,5,+03658,5,99,9","07,5,+04877,5,99,9","1,99,1,+01829,5,9","3,99,1,+03658,5,9","3,99,1,+04877,5,9","9,AGL   ,+99999,+99999","99,99,9,99,9,99,9,01829,1,99,9,99,9","060,M,+0128,1","060,N,+0089,1",,,,,,,,,"10207,5,10188,5","2,9,002,9,+999,9",,,,,,,,,"MET13001/16/22 09:53:02 METAR KSJC 161753Z 00000KT 10SM FEW060 BKN120 BKN160 13/08 A3014 RMK AO2 SLP205 T01280078 10128 20089 52002 (DR)",
"72494523293","2022-01-16T18:53:00","7","37.35938","-121.92444","15.0","SAN JOSE, CA US","FM-15","KSJC ","V020","999,9,C,0000,5","03658,5,M,N","016093,5,N,5","+0144,5","+0078,5","10204,5","01,0000,9,5",,,,,,,,,,,,,,,,,,,,,,,,,,"02,5,+01829,5,99,9","07,5,+03658,5,99,9","07,5,+04877,5,99,9","1,99,1,+01829,5,9","3,99,1,+03658,5,9","3,99,1,+04877,5,9","9,AGL   ,+99999,+99999","99,99,9,99,9,99,9,01829,1,99,9,99,9",,,,,,,,,,,"10207,5,10188,5",,,,,,,,,,"MET11201/16/22 10:53:02 METAR KSJC 161853Z 00000KT 10SM FEW060 BKN120 BKN160 14/08 A3014 RMK AO2 SLP204 T01440078 (DR)",
"72494523293","2022-01-16T19:53:00","7","37.35938","-121.92444","15.0","SAN JOSE, CA US","FM-15","KSJC ","V020","280,5,N,0021,5","04877,5,M,N","016093,5,N,5","+0167,5","+0078,5","10196,5","01,0000,9,5",,,,,,,,,,,,,,,,,,,,,,,,,,"02,5,+01981,5,99,9","04,5,+03353,5,99,9","07,5,+04877,5,99,9","1,99,1,+01981,5,9","2,99,1,+03353,5,9","3,99,1,+04877,5,9","9,AGL   ,+99999,+99999","99,99,9,99,9,99,9,01981,1,99,9,99,9",,,,,,,,,,,"10196,5,10178,5",,,,,,,,,,"MET11201/16/22 11:53:02 METAR KSJC 161953Z 28004KT 10SM FEW065 SCT110 BKN160 17/08 A3011 RMK AO2 SLP196 T01670078 (DR)",
"72494523293","2022-01-16T20:53:00","7","37.35938","-121.92444","15.0","SAN JOSE, CA US","FM-15","KSJC ","V020","340,5,N,0031,5","04877,5,M,N","016093,5,N,5","+0178,5","+0089,5","10188,5","01,0000,9,5",,,,,,,,,,,,,,,,,,,,,,,,,,"02,5,+01829,5,99,9","04,5,+03048,5,99,9","07,5,+04877,5,99,9","1,99,1,+01829,5,9","2,99,1,+03048,5,9","3,99,1,+04877,5,9","9,AGL   ,+99999,+99999","99,99,9,99,9,99,9,01829,1,99,9,99,9",,,,,,,,,,,"10190,5,10172,5","8,9,017,9,+999,9",,,,,,,,,"MET11301/16/22 12:53:02 METAR KSJC 162053Z 34006KT 10SM FEW060 SCT100 BKN160 18/09 A3009 RMK AO2 SLP188 T01780089 58017",
"72494523293","2022-01-16T21:53:00","7","37.35938","-121.92444","15.0","SAN JOSE, CA US","FM-15","KSJC ","V020","350,5,N,0026,5","02743,5,M,N","016093,5,N,5","+0183,5","+0078,5","10181,5","01,0000,9,5",,,,,,,,,,,,,,,,,,,,,,,,,,"02,5,+01829,5,99,9","07,5,+02743,5,99,9","07,5,+04877,5,99,9","1,99,1,+01829,5,9","3,99,1,+02743,5,9","3,99,1,+04877,5,9","9,AGL   ,+99999,+99999","99,99,9,99,9,99,9,01829,1,99,9,99,9",,,,,,,,,,,"10183,5,10165,5",,,,,,,,,,"MET10701/16/22 13:53:02 METAR KSJC 162153Z 35005KT 10SM FEW060 BKN090 BKN160 18/08 A3007 RMK AO2 SLP181 T01830078",
"72494523293","2022-01-16T22:53:00","7","37.35938","-121.92444","15.0","SAN JOSE, CA US","FM-15","KSJC ","V020","330,5,N,0031,5","03353,5,M,N","016093,5,N,5","+0172,5","+0078,5","10173,5","01,0000,9,5",,,,,,,,,,,,,,,,,,,,,,,,,,"02,5,+00091,5,99,9","07,5,+03353,5,99,9","07,5,+04877,5,99,9","1,99,1,+00091,5,9","3,99,1,+03353,5,9","3,99,1,+04877,5,9","9,AGL   ,+99999,+99999","99,99,9,99,9,99,9,00091,1,99,9,99,9",,,,,,,,,,,"10173,5,10155,5",,,,,,,,,,"MET11701/16/22 14:53:02 METAR KSJC 162253Z 33006KT 10SM FEW003 BKN110 BKN160 17/08 A3004 RMK AO2 SLP173 FU FEW003 T01720078",
"72494523293","2022-01-16T23:53:00","7","37.35938","-121.92444","15.0","SAN JOSE, CA US","FM-15","KSJC ","V020","320,5,N,0026,5","03353,5,M,N","016093,5,N,5","+0161,5","+0078,5","10176,5","01,0000,9,5",,,,,,,,,,,,,,,,,,,,,,,,,,"07,5,+03353,5,99,9","07,5,+04877,5,99,9",,"3,99,1,+03353,5,9","3,99,1,+04877,5,9",,"9,AGL   ,+99999,+99999","99,99,9,99,9,99,9,03353,1,99,9,99,9","060,M,+0183,1","060,N,+0128,1",,,,,,,,,"10176,5,10158,5","5,9,012,9,+999,9",,,,,,,,,"MET11801/16/22 15:53:02 METAR KSJC 162353Z 32005KT 10SM BKN110 BKN160 16/08 A3005 RMK AO2 SLP176 T01610078 10183 20128 55012",
"72494523293","2022-01-17T00:53:00","7","37.35938","-121.92444","15.0","SAN JOSE, CA US","FM-15","KSJC ","V020","350,5,N,0026,5","03353,5,M,N","016093,5,N,5","+0150,5","+0067,5","10178,5","01,0000,9,5",,,,,,,,,,,,,,,,,,,,,,,,,,"02,5,+02743,5,99,9","07,5,+03353,5,99,9","07,5,+04877,5,99,9","1,99,1,+02743,5,9","3,99,1,+03353,5,9","3,99,1,+04877,5,9","9,AGL   ,+99999,+99999","99,99,9,99,9,99,9,02743,1,99,9,99,9",,,,,,,,,,,"10179,5,10161,5",,,,,,,,,,"MET10701/16/22 16:53:01 METAR KSJC 170053Z 35005KT 10SM FEW090 BKN110 BKN160 15/07 A3006 RMK AO2 SLP178 T01500067",
"72494523293","2022-01-17T01:53:00","7","37.35938","-121.92444","15.0","SAN JOSE, CA US","FM-15","KSJC ","V020","360,5,N,0021,5","03353,5,M,N","016093,5,N,5","+0150,5","+0061,5","10175,5","01,0000,9,5",,,,,,,,,,,,,,,,,,,,,,,,,,"02,5,+02743,5,99,9","07,5,+03353,5,99,9","07,5,+04877,5,99,9","1,99,1,+02743,5,9","3,99,1,+03353,5,9","3,99,1,+04877,5,9","9,AGL   ,+99999,+99999","99,99,9,99,9,99,9,02743,1,99,9,99,9",,,,,,,,,,,"10176,5,10158,5",,,,,,,,,,"MET10701/16/22 17:53:01 METAR KSJC 170153Z 36004KT 10SM FEW090 BKN110 BKN160 15/06 A3005 RMK AO2 SLP175 T01500061",
"72494523293","2022-01-17T02:53:00","7","37.35938","-121.92444","15.0","SAN JOSE, CA US","FM-15","KSJC ","V020","999,9,C,0000,5","03658,5,M,N","016093,5,N,5","+0139,5","+0056,5","10176,5","01,0000,9,5",,,,,,,,,,,,,,,,,,,,,,,,,,"02,5,+02743,5,99,9","07,5,+03658,5,99,9",,"1,99,1,+02743,5,9","3,99,1,+03658,5,9",,"9,AGL   ,+99999,+99999","99,99,9,99,9,99,9,02743,1,99,9,99,9",,,,,,,,,,,"10176,5,10158,5","0,9,000,9,+999,9",,,,,,,,,"MET10601/16/22 18:53:01 METAR KSJC 170253Z 00000KT 10SM FEW090 BKN120 14/06 A3005 RMK AO2 SLP176 T01390056 50000",
"72494523293","2022-01-17T03:53:00","7","37.35938","-121.92444","15.0","SAN JOSE, CA US","FM-15","KSJC ","V020","999,9,C,0000,5","03658,5,M,N","014484,5,N,5","+0139,5","+0061,5","10176,5","01,0000,9,5",,,,,,,,,,,,,,,,,,,,,,,,,,"07,5,+03658,5,99,9",,,"3,99,1,+03658,5,9",,,"9,AGL   ,+99999,+99999","99,99,9,99,9,99,9,03658,1,99,9,99,9",,,,,,,,,,,"10176,5,10158,5",,,,,,,,,,"MET09201/16/22 19:53:01 METAR KSJC 170353Z 00000KT 9SM BKN120 14/06 A3005 RMK AO2 SLP176 T01390061",
"72494523293","2022-01-17T04:53:00","7","37.35938","-121.92444","15.0","SAN JOSE, CA US","FM-15","KSJC ","V020","999,9,C,0000,5","22000,5,9,N","016093,5,N,5","+0128,5","+0061,5","10179,5","01,0000,9,5",,,,,,,,,,,,,,,,,,,,,,,,,,"02,5,+02438,5,99,9","04,5,+03658,5,99,9",,"1,99,1,+02438,5,9","2,99,1,+03658,5,9",,"9,AGL   ,+99999,+99999","04,99,5,99,9,99,9,02438,1,99,9,99,9",,,,,,,,,,,"10179,5,10161,5",,,,,,,,,,"MET10001/16/22 20:53:01 METAR KSJC 170453Z 00000KT 10SM FEW080 SCT120 13/06 A3006 RMK AO2 SLP179 T01280061","D01      0ADE726"
"72494523293","2022-01-17T05:53:00","7","37.35938","-121.92444","15.0","SAN JOSE, CA US","FM-15","KSJC ","V020","999,9,C,0000,5","03658,5,M,N","014484,5,N,5","+0128,5","+0067,5","10182,5","01,0000,9,5",,,,,,,,,,,,,,,,,,,,,,,,,,"04,5,+02591,5,99,9","07,5,+03658,5,99,9",,"2,99,1,+02591,5,9","3,99,1,+03658,5,9",,"9,AGL   ,+99999,+99999","99,99,9,99,9,99,9,02591,1,99,9,99,9","060,M,+0161,1","060,N,+0117,1",,,,,,,,,"10183,5,10165,5","3,9,006,9,+999,9",,,,,,,,,"MET11701/16/22 21:53:01 METAR KSJC 170553Z 00000KT 9SM SCT085 BKN120 13/07 A3007 RMK AO2 SLP182 T01280067 10161 20117 53006",
"72494523293","2022-01-17T06:53:00","7","37.35938","-121.92444","15.0","SAN JOSE, CA US","FM-15","KSJC ","V020","999,9,C,0000,5","02896,5,M,N","014484,5,N,5","+0122,5","+0072,5","10185,5","01,0000,9,5",,,,,,,,,,,,,,,,,,,,,,,,,,"07,5,+02896,5,99,9","07,5,+03962,5,99,9",,"3,99,1,+02896,5,9","3,99,1,+03962,5,9",,"9,AGL   ,+99999,+99999","99,99,9,99,9,99,9,02896,1,99,9,99,9",,,,,,,,,,,"10186,5,10168,5",,,,,,,,,,"MET09901/16/22 22:53:01 METAR KSJC 170653Z 00000KT 9SM BKN095 BKN130 12/07 A3008 RMK AO2 SLP185 T01220072",
"72494523293","2022-01-17T07:53:00","7","37.35938","-121.92444","15.0","SAN JOSE, CA US","FM-15","KSJC ","V020","999,9,C,0000,5","02896,5,M,N","014484,5,N,5","+0117,5","+0072,5","10183,5","01,0000,9,5",,,,,,,,,,,,,,,,,,,,,,,,,,"07,5,+02896,5,99,9",,,"3,99,1,+02896,5,9",,,"9,AGL   ,+99999,+99999","99,99,9,99,9,99,9,02896,1,99,9,99,9","240,M,+0183,1","240,N,+0089,1",,,,,,,,,"10183,5,10165,5",,,,,,,,,,"MET10701/16/22 23:53:01 METAR KSJC 170753Z 00000KT 9SM BKN095 12/07 A3007 RMK AO2 SLP183 LAST T01170072 401830089",
"72494523293","2022-01-17T07:59:00","6","37.35938","-121.92444","15.0","SAN JOSE, CA US","SOD  ","KSJC ","V020","999,9,9,9999,9","99999,9,9,9","999999,9,9,9","+9999,9","+9999,9","99999,9","24,0000,9,5",,,,,,,,,,,,,,,,,,,,,,,,,,,,,,,,,,"240,M,+0183,5","240,N,+0089,5",,,,,,,,,,,"10174,4,10169,4",,,,,"1,24,00447,360,9999,5","2,24,00313,320,9999,5","3,24,00103,999,9999,5","SOD69624 HR PRECIPITATION (IN): 0.00 24 HR MAX TEMP (F): 6524 HR MIN TEMP (F): 48AVERAGE STATION PRESSURE(D):30.045 MINIMUM SEA LEVEL PRESSURE:30.03 TIME OF OCCURRENCE:1423 PEAK WIND SPEED (MPH): 10 PEAK WIND DIR (DEG):360 PEAK WIND TIME (LST):      FASTEST 2MIN SPEED (MPH):  7FASTEST 2MIN DIR (DEG):320 FASTEST 2MIN TIME (LST):     AVERAGE WIND SPEED (MPH): 2.3 24 HR AVG TEMP (F): 57DEPART FROM NORMAL:  6  HEATING DEGREE DAYS:  8 COOLING DEGREE DAYS:  0 LATEST DAY MAX TEMP (0700-1900 LST): 65 LATEST NIGHT MIN TEMP(1900-0800 LST):48 HOURLY INCREMENTAL PRECIPITATION VALUES (IN):0.00 0.00 0.00 0.00 0.00 0.00 0.00 0.00 0.00 0.00 0.00 0.00 0.00 0.00 0.00 0.00 0.00 0.00 0.00 0.00 0.00 0.00 0.00 0.00",
"72494523293","2022-01-17T08:53:00","7","37.35938","-121.92444","15.0","SAN JOSE, CA US","FM-15","KSJC ","V020","050,5,N,0021,5","22000,5,9,N","016093,5,N,5","+0111,5","+0072,5","10179,5","01,0000,9,5",,,,,,,,,,,,,,,,,,,,,,,,,,"04,5,+03048,5,99,9",,,"2,99,1,+03048,5,9",,,"9,AGL   ,+99999,+99999","04,99,5,99,9,99,9,03048,1,99,9,99,9",,,,,,,,,,,"10179,5,10161,5","8,9,003,9,+999,9",,,,,,,,,"MET09901/17/22 00:53:02 METAR KSJC 170853Z 05004KT 10SM SCT100 11/07 A3006 RMK AO2 SLP179 T01110072 58003","D01      0ADE726"
"72494523293","2022-01-17T09:53:00","7","37.35938","-121.92444","15.0","SAN JOSE, CA US","FM-15","KSJC ","V020","210,5,N,0021,5","02286,5,M,N","014484,5,N,5","+0100,5","+0072,5","10176,5","01,0000,9,5",,,,,,,,,,,,,,,,,,,,,,,,,,"07,5,+02286,5,99,9",,,"3,99,1,+02286,5,9",,,"9,AGL   ,+99999,+99999","99,99,9,99,9,99,9,02286,1,99,9,99,9",,,,,,,,,,,"10176,5,10158,5",,,,,,,,,,"MET09201/17/22 01:53:02 METAR KSJC 170953Z 21004KT 9SM BKN075 10/07 A3005 RMK AO2 SLP176 T01000072",
"72494523293","2022-01-17T10:53:00","7","37.35938","-121.92444","15.0","SAN JOSE, CA US","FM-15","KSJC ","V020","999,9,C,0000,5","02134,5,M,N","014484,5,N,5","+0100,5","+0072,5","10174,5","01,0000,9,5",,,,,,,,,,,,,,,,,,,,,,,,,,"08,5,+02134,5,99,9",,,"4,99,1,+02134,5,9",,,"9,AGL   ,+99999,+99999","99,99,9,99,9,99,9,02134,1,99,9,99,9",,,,,,,,,,,"10176,5,10158,5",,,,,,,,,,"MET09201/17/22 02:53:02 METAR KSJC 171053Z 00000KT 9SM OVC070 10/07 A3005 RMK AO2 SLP174 T01000072",
"72494523293","2022-01-17T11:53:00","7","37.35938","-121.92444","15.0","SAN JOSE, CA US","FM-15","KSJC ","V020","999,9,C,0000,5","22000,5,9,N","014484,5,N,5","+0100,5","+0067,5","10170,5","01,0000,9,5",,,,,,,,,,,,,,,,,,,,,,,,,,"02,5,+02438,5,99,9",,,"1,99,1,+02438,5,9",,,"9,AGL   ,+99999,+99999","02,99,5,99,9,99,9,02438,1,99,9,99,9","060,M,+0128,1","060,N,+0094,1",,,,,,,,,"10173,5,10155,5","8,9,009,9,+999,9",,,,,,,,,"MET11001/17/22 03:53:02 METAR KSJC 171153Z 00000KT 9SM FEW080 10/07 A3004 RMK AO2 SLP170 T01000067 10128 20094 58009","D01      0ADE726"
"72494523293","2022-01-17T12:53:00","7","37.35938","-121.92444","15.0","SAN JOSE, CA US","FM-15","KSJC ","V020","999,9,C,0000,5","02134,5,M,N","014484,5,N,5","+0083,5","+0061,5","10171,5","01,0000,9,5",,,,,,,,,,,,,,,,,,,,,,,,,,"07,5,+02134,5,99,9",,,"3,99,1,+02134,5,9",,,"9,AGL   ,+99999,+99999","99,99,9,99,9,99,9,02134,1,99,9,99,9",,,,,,,,,,,"10173,5,10155,5",,,,,,,,,,"MET09201/17/22 04:53:02 METAR KSJC 171253Z 00000KT 9SM BKN070 08/06 A3004 RMK AO2 SLP171 T00830061",
"72494523293","2022-01-17T13:53:00","7","37.35938","-121.92444","15.0","SAN JOSE, CA US","FM-15","KSJC ","V020","999,9,C,0000,5","22000,5,9,N","016093,5,N,5","+0083,5","+0056,5","10172,5","01,0000,9,5",,,,,,,,,,,,,,,,,,,,,,,,,,"04,5,+02134,5,99,9",,,"2,99,1,+02134,5,9",,,"9,AGL   ,+99999,+99999","04,99,5,99,9,99,9,02134,1,99,9,99,9",,,,,,,,,,,"10173,5,10155,5",,,,,,,,,,"MET09801/17/22 05:53:02 METAR KSJC 171353Z 00000KT 10SM SCT070 08/06 A3004 RMK AO2 SLP172 T00830056 (TC)","D01      0ADE726"
"72494523293","2022-01-17T14:53:00","7","37.35938","-121.92444","15.0","SAN JOSE, CA US","FM-15","KSJC ","V020","140,5,N,0021,5","22000,5,9,N","014484,5,N,5","+0067,5","+0050,5","10177,5","01,0000,9,5",,,,,,,,,,,,,,,,,,,,,,,,,,"04,5,+02286,5,99,9",,,"2,99,1,+02286,5,9",,,"9,AGL   ,+99999,+99999","04,99,5,99,9,99,9,02286,1,99,9,99,9",,,,,,,,,,,"10179,5,10161,5","3,9,007,9,+999,9",,,,,,,,,"MET10301/17/22 06:53:02 METAR KSJC 171453Z 14004KT 9SM SCT075 07/05 A3006 RMK AO2 SLP177 T00670050 53007 (TC)","D01      0ADE726"
"72494523293","2022-01-17T15:53:00","7","37.35938","-121.92444","15.0","SAN JOSE, CA US","FM-15","KSJC ","V020","999,9,C,0000,5","22000,5,9,N","016093,5,N,5","+0078,5","+0050,5","10181,5","01,0000,9,5",,,,,,,,,,,,,,,,,,,,,,,,,,"04,5,+02286,5,99,9","04,5,+04572,5,99,9","04,5,+06096,5,99,9","2,99,1,+02286,5,9","2,99,1,+04572,5,9","2,99,1,+06096,5,9","9,AGL   ,+99999,+99999","04,99,5,99,9,99,9,02286,1,99,9,99,9",,,,,,,,,,,"10183,5,10165,5",,,,,,,,,,"MET11201/17/22 07:53:02 METAR KSJC 171553Z 00000KT 10SM SCT075 SCT150 SCT200 08/05 A3007 RMK AO2 SLP181 T00780050 (TC)","D01      0ADE726"
"72494523293","2022-01-17T16:53:00","7","37.35938","-121.92444","15.0","SAN JOSE, CA US","FM-15","KSJC ","V020","999,9,C,0000,5","02438,5,M,N","016093,5,N,5","+0111,5","+0083,5","10185,5","01,0000,9,5",,,,,,,,,,,,,,,,,,,,,,,,,,"02,5,+00305,5,99,9","07,5,+02438,5,99,9","07,5,+03658,5,99,9","1,99,1,+00305,5,9","3,99,1,+02438,5,9","3,99,1,+03658,5,9","9,AGL   ,+99999,+99999","99,99,9,99,9,99,9,00305,1,99,9,99,9",,,,,,,,,,,"10186,5,10168,5",,,,,,,,,,"MET11201/17/22 08:53:02 METAR KSJC 171653Z 00000KT 10SM FEW010 BKN080 BKN120 11/08 A3008 RMK AO2 SLP185 T01110083 (TC)",
"72494523293","2022-01-17T17:53:00","7","37.35938","-121.92444","15.0","SAN JOSE, CA US","FM-15","KSJC ","V020","999,9,C,0000,5","02591,5,M,N","012875,5,N,5","+0117,5","+0078,5","10188,5","01,0000,9,5",,,,,,,,,,,,,,,,,,,,,,,,,,"02,5,+00305,5,99,9","04,5,+01829,5,99,9","07,5,+02591,5,99,9","1,99,1,+00305,5,9","2,99,1,+01829,5,9","3,99,1,+02591,5,9","9,AGL   ,+99999,+99999","99,99,9,99,9,99,9,00305,1,99,9,99,9","060,M,+0117,1","060,N,+0056,1",,,,,,,,,"10190,5,10172,5","2,9,012,9,+999,9",,,,,,,,,"MET12901/17/22 09:53:02 METAR KSJC 171753Z 00000KT 8SM FEW010 SCT060 BKN085 12/08 A3009 RMK AO2 SLP188 T01170078 10117 20056 52012 (TC)",
"72494523293","2022-01-17T18:53:00","7","37.35938","-121.92444","15.0","SAN JOSE, CA US","FM-15","KSJC ","V020","999,9,C,0000,5","03048,5,M,N","009656,5,N,5","+0128,5","+0083,5","10189,5","01,0000,9,5",,,,,,,,,,,,,,,,,,,,"0,0,00,7,0,1,5","05,1",,,,,"02,5,+00305,5,99,9","04,5,+02286,5,99,9","07,5,+03048,5,99,9","1,99,1,+00305,5,9","2,99,1,+02286,5,9","3,99,1,+03048,5,9","9,AGL   ,+99999,+99999","99,99,9,99,9,99,9,00305,1,99,9,99,9",,,,,,,,,,,"10190,5,10172,5",,,,,"05,5",,,,,"MET11401/17/22 10:53:02 METAR KSJC 171853Z 00000KT 6SM HZ FEW010 SCT075 BKN100 13/08 A3009 RMK AO2 SLP189 T01280083 (TC)",
"72494523293","2022-01-17T19:53:00","7","37.35938","-121.92444","15.0","SAN JOSE, CA US","FM-15","KSJC ","V020","200,5,N,0015,5","03048,5,M,N","009656,5,N,5","+0144,5","+0089,5","10181,5","01,0000,9,5",,,,,,,,,,,,,,,,,,,,"0,0,00,7,0,1,5","05,1",,,,,"02,5,+00335,5,99,9","04,5,+02134,5,99,9","07,5,+03048,5,99,9","1,99,1,+00335,5,9","2,99,1,+02134,5,9","3,99,1,+03048,5,9","9,AGL   ,+99999,+99999","99,99,9,99,9,99,9,00335,1,99,9,99,9",,,,,,,,,,,"10183,5,10165,5",,,,,"05,5",,,,,"MET11401/17/22 11:53:02 METAR KSJC 171953Z 20003KT 6SM HZ FEW011 SCT070 BKN100 14/09 A3007 RMK AO2 SLP181 T01440089 (TC)",
"72494523293","2022-01-17T20:53:00","7","37.35938","-121.92444","15.0","SAN JOSE, CA US","FM-15","KSJC ","V020","999,9,C,0000,5","03048,5,M,N","009656,5,N,5","+0150,5","+0083,5","10180,5","01,0000,9,5",,,,,,,,,,,,,,,,,,,,"0,0,00,7,0,1,5","05,1",,,,,"02,5,+00335,5,99,9","04,5,+02134,5,99,9","07,5,+03048,5,99,9","1,99,1,+00335,5,9","2,99,1,+02134,5,9","3,99,1,+03048,5,9","9,AGL   ,+99999,+99999","99,99,9,99,9,99,9,00335,1,99,9,99,9",,,,,,,,,,,"10179,5,10161,5","8,9,009,9,+999,9",,,,"05,5",,,,,"MET12001/17/22 12:53:02 METAR KSJC 172053Z 00000KT 6SM HZ FEW011 SCT070 BKN100 15/08 A3006 RMK AO2 SLP180 T01500083 58009 (TC)",
"72494523293","2022-01-17T21:53:00","7","37.35938","-121.92444","15.0","SAN JOSE, CA US","FM-15","KSJC ","V020","999,9,C,0000,5","03048,5,M,N","011265,5,N,5","+0167,5","+0078,5","10165,5","01,0000,9,5",,,,,,,,,,,,,,,,,,,,,,,,,,"04,5,+02286,5,99,9","07,5,+03048,5,99,9",,"2,99,1,+02286,5,9","3,99,1,+03048,5,9",,"9,AGL   ,+99999,+99999","99,99,9,99,9,99,9,02286,1,99,9,99,9",,,,,,,,,,,"10166,5,10148,5",,,,,,,,,,"MET10401/17/22 13:53:02 METAR KSJC 172153Z 00000KT 7SM SCT075 BKN100 17/08 A3002 RMK AO2 SLP165 T01670078 (JK)",
"72494523293","2022-01-17T22:53:00","7","37.35938","-121.92444","15.0","SAN JOSE, CA US","FM-15","KSJC ","V020","190,5,N,0015,5","03048,5,M,N","011265,5,N,5","+0172,5","+0078,5","10165,5","01,0000,9,5",,,,,,,,,,,,,,,,,,,,,,,,,,"04,5,+02286,5,99,9","07,5,+03048,5,99,9","07,5,+04877,5,99,9","2,99,1,+02286,5,9","3,99,1,+03048,5,9","3,99,1,+04877,5,9","9,AGL   ,+99999,+99999","99,99,9,99,9,99,9,02286,1,99,9,99,9",,,,,,,,,,,"10166,5,10148,5",,,,,,,,,,"MET11101/17/22 14:53:02 METAR KSJC 172253Z 19003KT 7SM SCT075 BKN100 BKN160 17/08 A3002 RMK AO2 SLP165 T01720078 (JK)",
"72494523293","2022-01-17T23:53:00","7","37.35938","-121.92444","15.0","SAN JOSE, CA US","FM-15","KSJC ","V020","340,5,N,0015,5","04877,5,M,N","012875,5,N,5","+0172,5","+0061,5","10162,5","01,0000,2,5",,,,,,,,,,,,,,,,,,,,,,,,,,"02,5,+02286,5,99,9","04,5,+03048,5,99,9","07,5,+04877,5,99,9","1,99,1,+02286,5,9","2,99,1,+03048,5,9","3,99,1,+04877,5,9","9,AGL   ,+99999,+99999","99,99,9,99,9,99,9,02286,1,99,9,99,9","060,M,+0178,1","060,N,+0117,1",,,,,,,,,"10163,5,10144,5","6,9,018,9,+999,9",,,,,,,,,"MET12901/17/22 15:53:02 METAR KSJC 172353Z 34003KT 8SM FEW075 SCT100 BKN160 17/06 A3001 RMK AO2 SLP162 T01720061 10178 20117 56018 (JK)",
"72494523293","2022-01-18T00:53:00","7","37.35938","-121.92444","15.0","SAN JOSE, CA US","FM-15","KSJC ","V020","330,5,N,0041,5","04877,5,M,N","012875,5,N,5","+0150,5","+0078,5","10163,5","01,0000,9,5",,,,,,,,,,,,,,,,,,,,,,,,,,"02,5,+02286,5,99,9","04,5,+03048,5,99,9","07,5,+04877,5,99,9","1,99,1,+02286,5,9","2,99,1,+03048,5,9","3,99,1,+04877,5,9","9,AGL   ,+99999,+99999","99,99,9,99,9,99,9,02286,1,99,9,99,9",,,,,,,,,,,"10163,5,10144,5",,,,,,,,,,"MET10601/17/22 16:53:01 METAR KSJC 180053Z 33008KT 8SM FEW075 SCT100 BKN160 15/08 A3001 RMK AO2 SLP163 T01500078",
"72494523293","2022-01-18T01:53:00","7","37.35938","-121.92444","15.0","SAN JOSE, CA US","FM-15","KSJC ","V020","320,5,N,0031,5","03048,5,M,N","012875,5,N,5","+0117,5","+0078,5","10170,5","01,0000,9,5",,,,,,,,,,,,,,,,,,,,,,,,,,"04,5,+02286,5,99,9","07,5,+03048,5,99,9",,"2,99,1,+02286,5,9","3,99,1,+03048,5,9",,"9,AGL   ,+99999,+99999","99,99,9,99,9,99,9,02286,1,99,9,99,9",,,,,,,,,,,"10169,5,10151,5",,,,,,,,,,"MET09901/17/22 17:53:01 METAR KSJC 180153Z 32006KT 8SM SCT075 BKN100 12/08 A3003 RMK AO2 SLP170 T01170078",
"72494523293","2022-01-18T02:53:00","7","37.35938","-121.92444","15.0","SAN JOSE, CA US","FM-15","KSJC ","V020","290,5,N,0015,5","03048,5,M,N","012875,5,N,5","+0122,5","+0072,5","10175,5","01,0000,9,5",,,,,,,,,,,,,,,,,,,,,,,,,,"04,5,+02286,5,99,9","07,5,+03048,5,99,9",,"2,99,1,+02286,5,9","3,99,1,+03048,5,9",,"9,AGL   ,+99999,+99999","99,99,9,99,9,99,9,02286,1,99,9,99,9",,,,,,,,,,,"10176,5,10158,5","3,9,013,9,+999,9",,,,,,,,,"MET10501/17/22 18:53:01 METAR KSJC 180253Z 29003KT 8SM SCT075 BKN100 12/07 A3005 RMK AO2 SLP175 T01220072 53013",
"72494523293","2022-01-18T03:53:00","7","37.35938","-121.92444","15.0","SAN JOSE, CA US","FM-15","KSJC ","V020","999,9,C,0000,5","22000,5,9,N","012875,5,N,5","+0117,5","+0067,5","10177,5","01,0000,9,5",,,,,,,,,,,,,,,,,,,,,,,,,,"02,5,+02286,5,99,9","04,5,+03048,5,99,9",,"1,99,1,+02286,5,9","2,99,1,+03048,5,9",,"9,AGL   ,+99999,+99999","04,99,5,99,9,99,9,02286,1,99,9,99,9",,,,,,,,,,,"10179,5,10161,5",,,,,,,,,,"MET09901/17/22 19:53:01 METAR KSJC 180353Z 00000KT 8SM FEW075 SCT100 12/07 A3006 RMK AO2 SLP177 T01170067","D01      0ADE726"
"72494523293","2022-01-18T04:53:00","7","37.35938","-121.92444","15.0","SAN JOSE, CA US","FM-15","KSJC ","V020","999,9,C,0000,5","03048,5,M,N","014484,5,N,5","+0122,5","+0072,5","10180,5","01,0000,9,5",,,,,,,,,,,,,,,,,,,,,,,,,,"07,5,+03048,5,99,9",,,"3,99,1,+03048,5,9",,,"9,AGL   ,+99999,+99999","99,99,9,99,9,99,9,03048,1,99,9,99,9",,,,,,,,,,,"10183,5,10165,5",,,,,,,,,,"MET09201/17/22 20:53:01 METAR KSJC 180453Z 00000KT 9SM BKN100 12/07 A3007 RMK AO2 SLP180 T01220072",
"72494523293","2022-01-18T05:53:00","7","37.35938","-121.92444","15.0","SAN JOSE, CA US","FM-15","KSJC ","V020","999,9,C,0000,5","03048,5,M,N","012875,5,N,5","+0122,5","+0072,5","10183,5","01,0000,9,5",,,,,,,,,,,,,,,,,,,,,,,,,,"07,5,+03048,5,99,9",,,"3,99,1,+03048,5,9",,,"9,AGL   ,+99999,+99999","99,99,9,99,9,99,9,03048,1,99,9,99,9","060,M,+0172,1","060,N,+0111,1",,,,,,,,,"10183,5,10165,5","3,9,008,9,+999,9",,,,,,,,,"MET11001/17/22 21:53:01 METAR KSJC 180553Z 00000KT 8SM BKN100 12/07 A3007 RMK AO2 SLP183 T01220072 10172 20111 53008",
"72494523293","2022-01-18T06:53:00","7","37.35938","-121.92444","15.0","SAN JOSE, CA US","FM-15","KSJC ","V020","999,9,C,0000,5","03353,5,M,N","012875,5,N,5","+0111,5","+0067,5","10182,5","01,0000,9,5",,,,,,,,,,,,,,,,,,,,,,,,,,"07,5,+03353,5,99,9",,,"3,99,1,+03353,5,9",,,"9,AGL   ,+99999,+99999","99,99,9,99,9,99,9,03353,1,99,9,99,9",,,,,,,,,,,"10183,5,10165,5",,,,,,,,,,"MET09201/17/22 22:53:01 METAR KSJC 180653Z 00000KT 8SM BKN110 11/07 A3007 RMK AO2 SLP182 T01110067",
"72494523293","2022-01-18T07:53:00","7","37.35938","-121.92444","15.0","SAN JOSE, CA US","FM-15","KSJC ","V020","999,9,C,0000,5","22000,5,9,N","012875,5,N,5","+0094,5","+0061,5","10184,5","01,0000,9,5",,,,,,,,,,,,,,,,,,,,,,,,,,"02,5,+03353,5,99,9",,,"1,99,1,+03353,5,9",,,"9,AGL   ,+99999,+99999","02,99,5,99,9,99,9,03353,1,99,9,99,9","240,M,+0178,1","240,N,+0056,1",,,,,,,,,"10186,5,10168,5",,,,,,,,,,"MET10701/17/22 23:53:01 METAR KSJC 180753Z 00000KT 8SM FEW110 09/06 A3008 RMK AO2 SLP184 LAST T00940061 401780056","D01      0ADE726"
"72494523293","2022-01-18T07:59:00","6","37.35938","-121.92444","15.0","SAN JOSE, CA US","SOD  ","KSJC ","V020","999,9,9,9999,9","99999,9,9,9","999999,9,9,9","+9999,9","+9999,9","99999,9","24,0000,9,5",,,,,,,,,,,,,,,,,"AU,08,HZ  ,5",,,,,"08,5,24,5",,,,,,,,,,,,"240,M,+0178,5","240,N,+0056,5",,,,,,,,,,,"10157,4,10159,4",,,,,"1,24,00581,360,9999,5","2,24,00447,330,9999,5","3,24,00080,999,9999,5","SOD70924 HR PRECIPITATION (IN): 0.00 WEATHER(CODE):8  24 HR MAX TEMP (F): 6424 HR MIN TEMP (F): 42AVERAGE STATION PRESSURE:29.995 MINIMUM SEA LEVEL PRESSURE:30.00 TIME OF OCCURRENCE:1616 PEAK WIND SPEED (MPH): 13 PEAK WIND DIR (DEG):360 PEAK WIND TIME (LST):      FASTEST 2MIN SPEED (MPH): 10FASTEST 2MIN DIR (DEG):330 FASTEST 2MIN TIME (LST):     AVERAGE WIND SPEED (MPH): 1.8 24 HR AVG TEMP (F): 53DEPART FROM NORMAL:  2  HEATING DEGREE DAYS: 12 COOLING DEGREE DAYS:  0 LATEST DAY MAX TEMP (0700-1900 LST):64  LATEST NIGHT MIN TEMP(1900-0800 LST):42 HOURLY INCREMENTAL PRECIPITATION VALUES (IN):.00 0.00 0.00 0.00 0.00 0.00 0.00 0.00 0.00 0.00 0.00 0.00 0.00 0.00 0.00 T    0.00 0.00 0.00 0.00 0.00 0.00 0.00 0.00",
"72494523293","2022-01-18T08:53:00","7","37.35938","-121.92444","15.0","SAN JOSE, CA US","FM-15","KSJC ","V020","999,9,C,0000,5","22000,5,9,N","016093,5,N,5","+0094,5","+0061,5","10185,5","01,0000,9,5",,,,,,,,,,,,,,,,,,,,,,,,,,"00,5,+99999,9,99,9",,,"0,99,1,+99999,9,9",,,,"00,99,1,99,9,99,9,99999,9,99,9,99,9",,,,,,,,,,,"10186,5,10168,5","3,9,002,9,+999,9",,,,,,,,,"MET09601/18/22 00:53:02 METAR KSJC 180853Z 00000KT 10SM CLR 09/06 A3008 RMK AO2 SLP185 T00940061 53002",
"72494523293","2022-01-18T09:53:00","7","37.35938","-121.92444","15.0","SAN JOSE, CA US","FM-15","KSJC ","V020","999,9,C,0000,5","22000,5,9,N","014484,5,N,5","+0083,5","+0061,5","10192,5","01,0000,9,5",,,,,,,,,,,,,,,,,,,,,,,,,,"00,5,+99999,9,99,9",,,"0,99,1,+99999,9,9",,,,"00,99,1,99,9,99,9,99999,9,99,9,99,9",,,,,,,,,,,"10193,5,10175,5",,,,,,,,,,"MET08901/18/22 01:53:02 METAR KSJC 180953Z 00000KT 9SM CLR 08/06 A3010 RMK AO2 SLP192 T00830061",
"72494523293","2022-01-18T10:53:00","7","37.35938","-121.92444","15.0","SAN JOSE, CA US","FM-15","KSJC ","V020","220,5,N,0021,5","22000,5,9,N","012875,5,N,5","+0072,5","+0050,5","10191,5","01,0000,9,5",,,,,,,,,,,,,,,,,,,,,,,,,,"00,5,+99999,9,99,9",,,"0,99,1,+99999,9,9",,,,"00,99,1,99,9,99,9,99999,9,99,9,99,9",,,,,,,,,,,"10193,5,10175,5",,,,,,,,,,"MET08901/18/22 02:53:02 METAR KSJC 181053Z 22004KT 8SM CLR 07/05 A3010 RMK AO2 SLP191 T00720050",
"72494523293","2022-01-18T11:53:00","7","37.35938","-121.92444","15.0","SAN JOSE, CA US","FM-15","KSJC ","V020","999,9,C,0000,5","22000,5,9,N","016093,5,N,5","+0067,5","+0044,5","10192,5","01,0000,9,5",,,,,,,,,,,,,,,,,,,,,,,,,,"00,5,+99999,9,99,9",,,"0,99,1,+99999,9,9",,,,"00,99,1,99,9,99,9,99999,9,99,9,99,9","060,M,+0122,1","060,N,+0061,1",,,,,,,,,"10193,5,10175,5","1,9,007,9,+999,9",,,,,,,,,"MET10801/18/22 03:53:02 METAR KSJC 181153Z 00000KT 10SM CLR 07/04 A3010 RMK AO2 SLP192 T00670044 10122 20061 51007",
"72494523293","2022-01-18T12:53:00","7","37.35938","-121.92444","15.0","SAN JOSE, CA US","FM-15","KSJC ","V020","170,5,N,0015,5","22000,5,9,N","008047,5,N,5","+0067,5","+0050,5","10191,5","01,0000,9,5",,,,,,,,,,,,,,,,,,,,"0,0,00,1,0,1,5","10,5",,,,,"00,5,+99999,9,99,9",,,"0,99,1,+99999,9,9",,,,"00,99,1,99,9,99,9,99999,9,99,9,99,9",,,,,,,,,,,"10193,5,10175,5",,,,,,,,,,"MET09201/18/22 04:53:02 METAR KSJC 181253Z 17003KT 5SM BR CLR 07/05 A3010 RMK AO2 SLP191 T00670050",
"72494523293","2022-01-18T13:37:00","7","37.35938","-121.92444","15.0","SAN JOSE, CA US","FM-16","KSJC ","V020","999,9,C,0000,5","22000,5,9,N","012875,5,N,5","+0067,5","+0044,5","99999,9",,,,,,,,,,,,,,,,,,,,,,,,,,,"04,5,+00213,5,99,9",,,"2,99,1,+00213,5,9",,,"9,AGL   ,+99999,+99999","04,99,5,99,9,99,9,00213,1,99,9,99,9",,,,,,,,,,,"10196,5,10178,5",,,,,,,,,,"MET09001/18/22 05:37:02 SPECI KSJC 181337Z 00000KT 8SM SCT007 07/04 A3011 RMK AO2 T00670044 (TC)","D01      0ADE726"
"72494523293","2022-01-18T13:53:00","7","37.35938","-121.92444","15.0","SAN JOSE, CA US","FM-15","KSJC ","V020","999,9,C,0000,5","22000,5,9,N","012875,5,N,5","+0061,5","+0039,5","10197,5","01,0000,9,5",,,,,,,,,,,,,,,,,,,,,,,,,,"04,5,+00213,5,99,9",,,"2,99,1,+00213,5,9",,,"9,AGL   ,+99999,+99999","04,99,5,99,9,99,9,00213,1,99,9,99,9",,,,,,,,,,,"10196,5,10178,5",,,,,,,,,,"MET09701/18/22 05:53:02 METAR KSJC 181353Z 00000KT 8SM SCT007 06/04 A3011 RMK AO2 SLP197 T00610039 (TC)","D01      0ADE726"
"72494523293","2022-01-18T14:31:00","7","37.35938","-121.92444","15.0","SAN JOSE, CA US","FM-16","KSJC ","V020","999,9,C,0000,5","00152,5,M,N","014484,5,N,5","+0061,5","+0044,5","99999,9",,,,,,,,,,,,,,,,,,,,,,,,,,,"07,5,+00152,5,99,9","07,5,+00213,5,99,9",,"3,99,1,+00152,5,9","3,99,1,+00213,5,9",,"9,AGL   ,+99999,+99999","99,99,9,99,9,99,9,00152,1,99,9,99,9",,,,,,,,,,,"10200,5,10182,5",,,,,,,,,,"MET09701/18/22 06:31:02 SPECI KSJC 181431Z 00000KT 9SM BKN005 BKN007 06/04 A3012 RMK AO2 T00610044 (TC)",
"72494523293","2022-01-18T14:53:00","7","37.35938","-121.92444","15.0","SAN JOSE, CA US","FM-15","KSJC ","V020","999,9,C,0000,5","00152,5,M,N","016093,5,N,5","+0072,5","+0050,5","10201,5","01,0000,9,5",,,,,,,,,,,,,,,,,,,,,,,,,,"07,5,+00152,5,99,9","08,5,+00213,5,99,9",,"3,99,1,+00152,5,9","4,99,1,+00213,5,9",,"9,AGL   ,+99999,+99999","99,99,9,99,9,99,9,00152,1,99,9,99,9",,,,,,,,,,,"10203,5,10185,5","3,9,008,9,+999,9",,,,,,,,,"MET11101/18/22 06:53:02 METAR KSJC 181453Z 00000KT 10SM BKN005 OVC007 07/05 A3013 RMK AO2 SLP201 T00720050 53008 (TC)",
"72494523293","2022-01-18T15:53:00","7","37.35938","-121.92444","15.0","SAN JOSE, CA US","FM-15","KSJC ","V020","999,9,C,0000,5","00152,5,M,N","012875,5,N,5","+0078,5","+0061,5","10203,5","01,0000,9,5",,,,,,,,,,,,,,,,,,,,,,,,,,"07,5,+00152,5,99,9","08,5,+00213,5,99,9",,"3,99,1,+00152,5,9","4,99,1,+00213,5,9",,"9,AGL   ,+99999,+99999","99,99,9,99,9,99,9,00152,1,99,9,99,9",,,,,,,,,,,"10203,5,10185,5",,,,,,,,,,"MET10401/18/22 07:53:02 METAR KSJC 181553Z 00000KT 8SM BKN005 OVC007 08/06 A3013 RMK AO2 SLP203 T00780061 (TC)",
"72494523293","2022-01-18T16:21:00","7","37.35938","-121.92444","15.0","SAN JOSE, CA US","FM-16","KSJC ","V020","999,9,C,0000,5","00091,5,M,N","008047,5,N,5","+0083,5","+0067,5","99999,9",,,,,,,,,,,,,,,,,,,,,"0,0,00,1,0,1,5","10,5",,,,,"10,5,+00000,5,99,9","07,5,+00091,5,99,9","08,5,+00183,5,99,9","6,99,1,+00000,5,9","3,99,1,+00091,5,9","4,99,1,+00183,5,9","9,AGL   ,+99999,+99999","99,99,9,99,9,99,9,00000,1,99,9,99,9",,,,,,,,,,,"10207,5,10188,5",,,,,,,,,,"MET12601/18/22 08:21:02 SPECI KSJC 181621Z 00000KT 5SM BR FEW000 BKN003 OVC006 08/07 A3014 RMK AO2 VIS SE 10 NW 1 1/2 T00830067 (TC)",
"72494523293","2022-01-18T16:30:00","7","37.35938","-121.92444","15.0","SAN JOSE, CA US","FM-16","KSJC ","V020","999,9,C,0000,5","00091,5,M,N","004023,5,N,5","+0089,5","+0072,5","99999,9",,,,,,,,,,,,,,,,,,,,,"0,0,00,1,0,1,5","10,5",,,,,"10,5,+00000,5,99,9","07,5,+00091,5,99,9","08,5,+00152,5,99,9","6,99,1,+00000,5,9","3,99,1,+00091,5,9","4,99,1,+00152,5,9","9,AGL   ,+99999,+99999","99,99,9,99,9,99,9,00000,1,99,9,99,9",,,,,,,,,,,"10207,5,10188,5",,,,,,,,,,"MET12801/18/22 08:30:02 SPECI KSJC 181630Z 00000KT 2 1/2SM BR FEW000 BKN003 OVC005 09/07 A3014 RMK AO2 VIS SE 9 NW-NE 1 T00890072 (TC)",
"72494523293","2022-01-18T16:38:00","7","37.35938","-121.92444","15.0","SAN JOSE, CA US","FM-16","KSJC ","V020","340,5,N,0021,5","00061,5,M,N","001609,5,N,5","+0083,5","+0072,5","99999,9",,,,,,,,,,,,,,,,,,,,,"0,0,00,1,0,1,5","10,5",,,,"30,L,9999,9","10,5,+00000,5,99,9","07,5,+00061,5,99,9","08,5,+00122,5,99,9","6,99,1,+00000,5,9","3,99,1,+00061,5,9","4,99,1,+00122,5,9","9,AGL   ,+99999,+99999","99,99,9,99,9,99,9,00000,1,99,9,99,9",,,,,,,,,,,"10210,5,10192,5",,,,,,,,,,"MET13601/18/22 08:38:02 SPECI KSJC 181638Z 34004KT 1SM R30L/3500VP6000FT BR FEW000 BKN002 OVC004 08/07 A3015 RMK AO2 VIS E-SE 4 T00830072 (TC)",
"72494523293","2022-01-18T16:48:00","7","37.35938","-121.92444","15.0","SAN JOSE, CA US","FM-16","KSJC ","V020","360,5,N,0015,5","00091,5,M,N","000805,5,N,5","+0080,5","+0070,5","99999,9",,,,,,,,,,,,,,,,,,,,,"0,0,00,2,0,1,5","30,5",,,,"30,L,9999,9","10,5,+00000,5,99,9","08,5,+00091,5,99,9",,"6,99,1,+00000,5,9","4,99,1,+00091,5,9",,"9,AGL   ,+99999,+99999","99,99,9,99,9,99,9,00000,1,99,9,99,9",,,,,,,,,,,"10210,5,10192,5",,,,,,,,,,"MET11001/18/22 08:48:02 SPECI KSJC 181648Z 36003KT 1/2SM R30L/2400VP6000FT FG FEW000 OVC003 08/07 A3015 RMK AO2 (TC)",
"72494523293","2022-01-18T16:49:00","7","37.35938","-121.92444","15.0","SAN JOSE, CA US","FM-16","KSJC ","V020","360,5,N,0021,5","00091,5,M,N","000402,5,N,5","+0080,5","+0070,5","99999,9",,,,,,,,,,,,,,,,,,,,,"0,0,00,2,0,1,5","30,5",,,,"30,L,9999,9","10,5,+00000,5,99,9","08,5,+00091,5,99,9",,"6,99,1,+00000,5,9","4,99,1,+00091,5,9",,"9,AGL   ,+99999,+99999","99,99,9,99,9,99,9,00000,1,99,9,99,9",,,,,,,,,,,"10213,5,10195,5",,,,,,,,,,"MET11001/18/22 08:49:02 SPECI KSJC 181649Z 36004KT 1/4SM R30L/2400VP6000FT FG FEW000 OVC003 08/07 A3016 RMK AO2 (TC)",
"72494523293","2022-01-18T16:53:00","7","37.35938","-121.92444","15.0","SAN JOSE, CA US","FM-15","KSJC ","V020","320,5,N,0026,5","00000,5,M,N","000402,5,N,5","+0089,5","+0072,5","10211,5","01,0000,9,5",,,,,,,,,,,,,,,,,,,,"0,0,00,2,0,1,5","30,5",,,,"30,L,9999,9","10,5,+00000,5,99,9","08,5,+00061,5,99,9",,"6,99,1,+00000,5,9","4,99,1,+00061,5,9",,"9,AGL   ,+99999,+99999","99,99,9,99,9,99,9,00000,1,99,9,99,9",,,,,,,,,,,"10213,5,10195,5",,,,,,,,,,"MET13701/18/22 08:53:02 METAR KSJC 181653Z 32005KT 1/4SM R30L/2400VP6000FT FG BKN000 OVC002 09/07 A3016 RMK AO2 SLP211 FG BKN000 T00890072 (TC)",
"72494523293","2022-01-18T17:03:00","7","37.35938","-121.92444","15.0","SAN JOSE, CA US","FM-16","KSJC ","V020","340,5,N,0015,5","00000,5,M,N","000402,5,N,5","+0089,5","+0078,5","99999,9",,,,,,,,,,,,,,,,,,,,,"0,0,00,2,0,1,5","30,5",,,,"30,L,9999,9","10,5,+00000,5,99,9","08,5,+00030,5,99,9",,"6,99,1,+00000,5,9","4,99,1,+00030,5,9",,"9,AGL   ,+99999,+99999","99,99,9,99,9,99,9,00000,1,99,9,99,9",,,,,,,,,,,"10213,5,10195,5",,,,,,,,,,"MET14301/18/22 09:03:02 SPECI KSJC 181703Z 34003KT 1/4SM R30L/3500VP6000FT FG BKN000 OVC001 09/08 A3016 RMK AO2 VIS NE-E 3/4 FG BKN000 T00890078 (TC)",
"72494523293","2022-01-18T17:08:00","7","37.35938","-121.92444","15.0","SAN JOSE, CA US","FM-16","KSJC ","V020","020,5,N,0021,5","00000,5,M,N","001609,5,N,5","+0089,5","+0078,5","99999,9",,,,,,,,,,,,,,,,,,,,,"0,0,00,1,0,1,5","10,5",,,,"30,L,9999,9","10,5,+00000,5,99,9","08,5,+00030,5,99,9",,"6,99,1,+00000,5,9","4,99,1,+00030,5,9",,"9,AGL   ,+99999,+99999","99,99,9,99,9,99,9,00000,1,99,9,99,9",,,,,,,,,,,"10213,5,10195,5",,,,,,,,,,"MET12801/18/22 09:08:02 SPECI KSJC 181708Z 02004KT 1SM R30L/4500VP6000FT BR BKN000 OVC001 09/08 A3016 RMK AO2 FG BKN000 T00890078 (TC)",
"72494523293","2022-01-18T17:11:00","7","37.35938","-121.92444","15.0","SAN JOSE, CA US","FM-16","KSJC ","V020","999,9,C,0000,5","00000,5,M,N","001609,5,N,5","+0089,5","+0078,5","99999,9",,,,,,,,,,,,,,,,,,,,,"0,0,00,1,0,1,5","10,5",,,,"30,L,9999,9","10,5,+00000,5,99,9","08,5,+00091,5,99,9",,"6,99,1,+00000,5,9","4,99,1,+00091,5,9",,"9,AGL   ,+99999,+99999","99,99,9,99,9,99,9,00000,1,99,9,99,9",,,,,,,,,,,"10213,5,10195,5",,,,,,,,,,"MET11301/18/22 09:11:02 SPECI KSJC 181711Z 00000KT 1SM R30L/P6000FT BR BKN000 OVC003 09/08 A3016 RMK AO2 T00890078 (TC)",
"72494523293","2022-01-18T17:53:00","7","37.35938","-121.92444","15.0","SAN JOSE, CA US","FM-15","KSJC ","V020","999,9,C,0000,5","00061,5,M,N","002816,5,N,5","+0094,5","+0083,5","10216,5","01,0000,9,5",,,,,,,,,,,,,,,,,,,,"0,0,00,1,0,1,5","10,5",,,,,"10,5,+00000,5,99,9","07,5,+00061,5,99,9","08,5,+00091,5,99,9","6,99,1,+00000,5,9","3,99,1,+00061,5,9","4,99,1,+00091,5,9","9,AGL   ,+99999,+99999","99,99,9,99,9,99,9,00000,1,99,9,99,9","060,M,+0094,1","060,N,+0056,1",,,,,,,,,"10217,5,10199,5","3,9,015,9,+999,9",,,,,,,,,"MET13601/18/22 09:53:02 METAR KSJC 181753Z 00000KT 1 3/4SM BR FEW000 BKN002 OVC003 09/08 A3017 RMK AO2 SLP216 T00940083 10094 20056 53015 (TC)",
"72494523293","2022-01-18T18:11:00","7","37.35938","-121.92444","15.0","SAN JOSE, CA US","FM-16","KSJC ","V020","350,5,N,0021,5","00091,5,M,N","004023,5,N,5","+0100,5","+0083,5","99999,9",,,,,,,,,,,,,,,,,,,,,"0,0,00,1,0,1,5","10,5",,,,,"10,5,+00000,5,99,9","07,5,+00091,5,99,9","08,5,+00152,5,99,9","6,99,1,+00000,5,9","3,99,1,+00091,5,9","4,99,1,+00152,5,9","9,AGL   ,+99999,+99999","99,99,9,99,9,99,9,00000,1,99,9,99,9",,,,,,,,,,,"10220,5,10202,5",,,,,,,,,,"MET11101/18/22 10:11:02 SPECI KSJC 181811Z 35004KT 2 1/2SM BR FEW000 BKN003 OVC005 10/08 A3018 RMK AO2 T01000083 (TC)",
"72494523293","2022-01-18T18:24:00","7","37.35938","-121.92444","15.0","SAN JOSE, CA US","FM-16","KSJC ","V020","360,5,N,0021,5","00091,5,M,N","004828,5,N,5","+0100,5","+0083,5","99999,9",,,,,,,,,,,,,,,,,,,,,"0,0,00,1,0,1,5","10,5",,,,,"10,5,+00000,5,99,9","07,5,+00091,5,99,9","08,5,+00152,5,99,9","6,99,1,+00000,5,9","3,99,1,+00091,5,9","4,99,1,+00152,5,9","9,AGL   ,+99999,+99999","99,99,9,99,9,99,9,00000,1,99,9,99,9",,,,,,,,,,,"10220,5,10202,5",,,,,,,,,,"MET10701/18/22 10:24:02 SPECI KSJC 181824Z 36004KT 3SM BR FEW000 BKN003 OVC005 10/08 A3018 RMK AO2 T01000083 (TC)",
"72494523293","2022-01-18T18:53:00","7","37.35938","-121.92444","15.0","SAN JOSE, CA US","FM-15","KSJC ","V020","360,5,N,0026,5","00152,5,M,N","006437,5,N,5","+0106,5","+0089,5","10219,5","01,0000,9,5",,,,,,,,,,,,,,,,,,,,"0,0,00,1,0,1,5","10,5",,,,,"10,5,+00000,5,99,9","07,5,+00152,5,99,9","08,5,+00274,5,99,9","6,99,1,+00000,5,9","3,99,1,+00152,5,9","4,99,1,+00274,5,9","9,AGL   ,+99999,+99999","99,99,9,99,9,99,9,00000,1,99,9,99,9",,,,,,,,,,,"10220,5,10202,5",,,,,,,,,,"MET11401/18/22 10:53:02 METAR KSJC 181853Z 36005KT 4SM BR FEW000 BKN005 OVC009 11/09 A3018 RMK AO2 SLP219 T01060089 (TC)",
"72494523293","2022-01-18T19:53:00","7","37.35938","-121.92444","15.0","SAN JOSE, CA US","FM-15","KSJC ","V020","330,5,N,0026,5","00274,5,M,N","008047,5,N,5","+0111,5","+0083,5","10217,5","01,0000,9,5",,,,,,,,,,,,,,,,,,,,"0,0,00,7,0,1,5","05,1",,,,,"10,5,+00000,5,99,9","07,5,+00274,5,99,9","08,5,+00335,5,99,9","6,99,1,+00000,5,9","3,99,1,+00274,5,9","4,99,1,+00335,5,9","9,AGL   ,+99999,+99999","99,99,9,99,9,99,9,00000,1,99,9,99,9",,,,,,,,,,,"10220,5,10202,5",,,,,"05,5",,,,,"MET11401/18/22 11:53:02 METAR KSJC 181953Z 33005KT 5SM HZ FEW000 BKN009 OVC011 11/08 A3018 RMK AO2 SLP217 T01110083 (TC)",
"72494523293","2022-01-18T20:36:00","7","37.35938","-121.92444","15.0","SAN JOSE, CA US","FM-16","KSJC ","V020","999,9,C,0000,5","00335,5,M,N","009656,5,N,5","+0111,5","+0083,5","99999,9",,,,,,,,,,,,,,,,,,,,,"0,0,00,7,0,1,5","05,1",,,,,"10,5,+00000,5,99,9","07,5,+00335,5,99,9","08,5,+00427,5,99,9","6,99,1,+00000,5,9","3,99,1,+00335,5,9","4,99,1,+00427,5,9","9,AGL   ,+99999,+99999","99,99,9,99,9,99,9,00000,1,99,9,99,9",,,,,,,,,,,"10210,5,10192,5",,,,,"05,5",,,,,"MET10701/18/22 12:36:02 SPECI KSJC 182036Z 00000KT 6SM HZ FEW000 BKN011 OVC014 11/08 A3015 RMK AO2 T01110083 (TC)",
"72494523293","2022-01-18T20:53:00","7","37.35938","-121.92444","15.0","SAN JOSE, CA US","FM-15","KSJC ","V020","999,9,C,0000,5","00427,5,M,N","011265,5,N,5","+0117,5","+0083,5","10207,5","01,0000,9,5",,,,,,,,,,,,,,,,,,,,,,,,,,"10,5,+00000,5,99,9","07,5,+00427,5,99,9","07,5,+03048,5,99,9","6,99,1,+00000,5,9","3,99,1,+00427,5,9","3,99,1,+03048,5,9","9,AGL   ,+99999,+99999","99,99,9,99,9,99,9,00000,1,99,9,99,9",,,,,,,,,,,"10207,5,10188,5","8,9,008,9,+999,9",,,,,,,,,"MET11701/18/22 12:53:02 METAR KSJC 182053Z 00000KT 7SM FEW000 BKN014 BKN100 12/08 A3014 RMK AO2 SLP207 T01170083 58008 (TC)",
"72494523293","2022-01-18T21:05:00","7","37.35938","-121.92444","15.0","SAN JOSE, CA US","FM-16","KSJC ","V020","999,9,V,0021,5","03048,5,M,N","011265,5,N,5","+0122,5","+0089,5","99999,9",,,,,,,,,,,,,,,,,,,,,,,,,,,"10,5,+00000,5,99,9","04,5,+00427,5,99,9","07,5,+03048,5,99,9","6,99,1,+00000,5,9","2,99,1,+00427,5,9","3,99,1,+03048,5,9","9,AGL   ,+99999,+99999","99,99,9,99,9,99,9,00000,1,99,9,99,9",,,,,,,,,,,"10207,5,10188,5",,,,,,,,,,"MET10401/18/22 13:05:02 SPECI KSJC 182105Z VRB04KT 7SM FEW000 SCT014 BKN100 12/09 A3014 RMK AO2 T01220089 (JK)",
"72494523293","2022-01-18T21:53:00","7","37.35938","-121.92444","15.0","SAN JOSE, CA US","FM-15","KSJC ","V020","999,9,V,0015,5","03048,5,M,N","011265,5,N,5","+0133,5","+0083,5","10195,5","01,0000,9,5",,,,,,,,,,,,,,,,,,,,,,,,,,"10,5,+00000,5,99,9","04,5,+00427,5,99,9","07,5,+03048,5,99,9","6,99,1,+00000,5,9","2,99,1,+00427,5,9","3,99,1,+03048,5,9","9,AGL   ,+99999,+99999","99,99,9,99,9,99,9,00000,1,99,9,99,9",,,,,,,,,,,"10196,5,10178,5",,,,,,,,,,"MET11101/18/22 13:53:02 METAR KSJC 182153Z VRB03KT 7SM FEW000 SCT014 BKN100 13/08 A3011 RMK AO2 SLP195 T01330083 (JK)",
"72494523293","2022-01-18T22:53:00","7","37.35938","-121.92444","15.0","SAN JOSE, CA US","FM-15","KSJC ","V020","340,5,N,0021,5","02438,5,M,N","014484,5,N,5","+0139,5","+0078,5","10193,5","01,0000,9,5",,,,,,,,,,,,,,,,,,,,,,,,,,"10,5,+00000,5,99,9","07,5,+02438,5,99,9","07,5,+03658,5,99,9","6,99,1,+00000,5,9","3,99,1,+02438,5,9","3,99,1,+03658,5,9","9,AGL   ,+99999,+99999","99,99,9,99,9,99,9,00000,1,99,9,99,9",,,,,,,,,,,"10193,5,10175,5",,,,,,,,,,"MET11101/18/22 14:53:02 METAR KSJC 182253Z 34004KT 9SM FEW000 BKN080 BKN120 14/08 A3010 RMK AO2 SLP193 T01390078 (JK)",
"72494523293","2022-01-18T23:53:00","7","37.35938","-121.92444","15.0","SAN JOSE, CA US","FM-15","KSJC ","V020","340,5,N,0026,5","02438,5,M,N","014484,5,N,5","+0139,5","+0078,5","10197,5","01,0000,9,5",,,,,,,,,,,,,,,,,,,,,,,,,,"10,5,+00000,5,99,9","07,5,+02438,5,99,9","07,5,+03658,5,99,9","6,99,1,+00000,5,9","3,99,1,+02438,5,9","3,99,1,+03658,5,9","9,AGL   ,+99999,+99999","99,99,9,99,9,99,9,00000,1,99,9,99,9","060,M,+0150,1","060,N,+0094,1",,,,,,,,,"10196,5,10178,5","5,9,010,9,+999,9",,,,,,,,,"MET12901/18/22 15:53:02 METAR KSJC 182353Z 34005KT 9SM FEW000 BKN080 BKN120 14/08 A3011 RMK AO2 SLP197 T01390078 10150 20094 55010 (JK)",
"72494523293","2022-01-19T00:53:00","7","37.35938","-121.92444","15.0","SAN JOSE, CA US","FM-15","KSJC ","V020","320,5,N,0031,5","22000,5,9,N","014484,5,N,5","+0122,5","+0078,5","10199,5","01,0000,9,5",,,,,,,,,,,,,,,,,,,,,,,,,,"10,5,+00000,5,99,9","04,5,+02438,5,99,9","04,5,+03658,5,99,9","6,99,1,+00000,5,9","2,99,1,+02438,5,9","2,99,1,+03658,5,9","9,AGL   ,+99999,+99999","04,99,5,99,9,99,9,00000,1,99,9,99,9",,,,,,,,,,,"10200,5,10182,5",,,,,,,,,,"MET10601/18/22 16:53:01 METAR KSJC 190053Z 32006KT 9SM FEW000 SCT080 SCT120 12/08 A3012 RMK AO2 SLP199 T01220078","D01      0ADE726"
"72494523293","2022-01-19T01:53:00","7","37.35938","-121.92444","15.0","SAN JOSE, CA US","FM-15","KSJC ","V020","320,5,N,0026,5","22000,5,9,N","016093,5,N,5","+0106,5","+0078,5","10201,5","01,0000,9,5",,,,,,,,,,,,,,,,,,,,,,,,,,"04,5,+02438,5,99,9","04,5,+03658,5,99,9",,"2,99,1,+02438,5,9","2,99,1,+03658,5,9",,"9,AGL   ,+99999,+99999","04,99,5,99,9,99,9,02438,1,99,9,99,9",,,,,,,,,,,"10203,5,10185,5",,,,,,,,,,"MET10001/18/22 17:53:01 METAR KSJC 190153Z 32005KT 10SM SCT080 SCT120 11/08 A3013 RMK AO2 SLP201 T01060078","D01      0ADE726"
"72494523293","2022-01-19T02:53:00","7","37.35938","-121.92444","15.0","SAN JOSE, CA US","FM-15","KSJC ","V020","330,5,N,0031,5","05486,5,M,N","016093,5,N,5","+0106,5","+0083,5","10208,5","01,0000,9,5",,,,,,,,,,,,,,,,,,,,,,,,,,"04,5,+02438,5,99,9","07,5,+05486,5,99,9",,"2,99,1,+02438,5,9","3,99,1,+05486,5,9",,"9,AGL   ,+99999,+99999","99,99,9,99,9,99,9,02438,1,99,9,99,9",,,,,,,,,,,"10210,5,10192,5","3,9,012,9,+999,9",,,,,,,,,"MET10601/18/22 18:53:01 METAR KSJC 190253Z 33006KT 10SM SCT080 BKN180 11/08 A3015 RMK AO2 SLP208 T01060083 53012",
"72494523293","2022-01-19T03:53:00","7","37.35938","-121.92444","15.0","SAN JOSE, CA US","FM-15","KSJC ","V020","330,5,N,0036,5","02438,5,M,N","016093,5,N,5","+0106,5","+0083,5","10213,5","01,0000,9,5",,,,,,,,,,,,,,,,,,,,,,,,,,"07,5,+02438,5,99,9","07,5,+05486,5,99,9",,"3,99,1,+02438,5,9","3,99,1,+05486,5,9",,"9,AGL   ,+99999,+99999","99,99,9,99,9,99,9,02438,1,99,9,99,9",,,,,,,,,,,"10213,5,10195,5",,,,,,,,,,"MET10001/18/22 19:53:01 METAR KSJC 190353Z 33007KT 10SM BKN080 BKN180 11/08 A3016 RMK AO2 SLP213 T01060083",
"72494523293","2022-01-19T04:53:00","7","37.35938","-121.92444","15.0","SAN JOSE, CA US","FM-15","KSJC ","V020","999,9,C,0000,5","04267,5,M,N","016093,5,N,5","+0100,5","+0078,5","10215,5","01,0000,9,5",,,,,,,,,,,,,,,,,,,,,,,,,,"02,5,+00305,5,99,9","07,5,+04267,5,99,9",,"1,99,1,+00305,5,9","3,99,1,+04267,5,9",,"9,AGL   ,+99999,+99999","99,99,9,99,9,99,9,00305,1,99,9,99,9",,,,,,,,,,,"10217,5,10199,5",,,,,,,,,,"MET10001/18/22 20:53:01 METAR KSJC 190453Z 00000KT 10SM FEW010 BKN140 10/08 A3017 RMK AO2 SLP215 T01000078",
"72494523293","2022-01-19T05:53:00","7","37.35938","-121.92444","15.0","SAN JOSE, CA US","FM-15","KSJC ","V020","999,9,C,0000,5","04267,5,M,N","016093,5,N,5","+0100,5","+0078,5","10222,5","01,0000,9,5",,,,,,,,,,,,,,,,,,,,,,,,,,"02,5,+00305,5,99,9","07,5,+04267,5,99,9",,"1,99,1,+00305,5,9","3,99,1,+04267,5,9",,"9,AGL   ,+99999,+99999","99,99,9,99,9,99,9,00305,1,99,9,99,9","060,M,+0144,1","060,N,+0094,1",,,,,,,,,"10224,5,10205,5","3,9,014,9,+999,9",,,,,,,,,"MET11801/18/22 21:53:01 METAR KSJC 190553Z 00000KT 10SM FEW010 BKN140 10/08 A3019 RMK AO2 SLP222 T01000078 10144 20094 53014",
"72494523293","2022-01-19T06:53:00","7","37.35938","-121.92444","15.0","SAN JOSE, CA US","FM-15","KSJC ","V020","999,9,C,0000,5","04267,5,M,N","016093,5,N,5","+0089,5","+0072,5","10223,5","01,0000,9,5",,,,,,,,,,,,,,,,,,,,,,,,,,"02,5,+00305,5,99,9","07,5,+04267,5,99,9",,"1,99,1,+00305,5,9","3,99,1,+04267,5,9",,"9,AGL   ,+99999,+99999","99,99,9,99,9,99,9,00305,1,99,9,99,9",,,,,,,,,,,"10224,5,10205,5",,,,,,,,,,"MET10001/18/22 22:53:01 METAR KSJC 190653Z 00000KT 10SM FEW010 BKN140 09/07 A3019 RMK AO2 SLP223 T00890072",
"72494523293","2022-01-19T07:33:00","7","37.35938","-121.92444","15.0","SAN JOSE, CA US","FM-16","KSJC ","V020","999,9,C,0000,5","00305,5,M,N","016093,5,N,5","+0089,5","+0072,5","99999,9",,,,,,,,,,,,,,,,,,,,,,,,,,,"07,5,+00305,5,99,9","07,5,+04267,5,99,9",,"3,99,1,+00305,5,9","3,99,1,+04267,5,9",,"9,AGL   ,+99999,+99999","99,99,9,99,9,99,9,00305,1,99,9,99,9",,,,,,,,,,,"10227,5,10209,5",,,,,,,,,,"MET09301/18/22 23:33:01 SPECI KSJC 190733Z 00000KT 10SM BKN010 BKN140 09/07 A3020 RMK AO2 T00890072",
"72494523293","2022-01-19T07:53:00","7","37.35938","-121.92444","15.0","SAN JOSE, CA US","FM-15","KSJC ","V020","999,9,C,0000,5","00305,5,M,N","016093,5,N,5","+0089,5","+0067,5","10224,5","01,0000,9,5",,,,,,,,,,,,,,,,,,,,,,,,,,"07,5,+00305,5,99,9","07,5,+04267,5,99,9",,"3,99,1,+00305,5,9","3,99,1,+04267,5,9",,"9,AGL   ,+99999,+99999","99,99,9,99,9,99,9,00305,1,99,9,99,9","240,M,+0150,1","240,N,+0056,1",,,,,,,,,"10227,5,10209,5",,,,,,,,,,"MET11501/18/22 23:53:01 METAR KSJC 190753Z 00000KT 10SM BKN010 BKN140 09/07 A3020 RMK AO2 SLP224 LAST T00890067 401500056",
"72494523293","2022-01-19T07:59:00","6","37.35938","-121.92444","15.0","SAN JOSE, CA US","SOD  ","KSJC ","V020","999,9,9,9999,9","99999,9,9,9","999999,9,9,9","+9999,9","+9999,9","99999,9","24,0000,9,5",,,,,,,,,,,,,,,,,"AU,01,FG  ,5","AU,13,BR  ,5","AU,08,HZ  ,5",,,"01,6,24,6","02,6,24,6","08,6,24,6",,,,,,,,,,"240,M,+0150,5","240,N,+0056,5",,,,,,,,,,,"10188,4,10183,4",,,,,"1,24,00626,340,9999,5","2,24,00536,340,9999,5","3,24,00125,999,9999,5","SOD71124 HR PRECIPITATION (IN): 0.00 WEATHER(CODE):128  24 HR MAX TEMP (F): 5924 HR MIN TEMP (F): 42AVERAGE STATION PRESSURE:30.085 MINIMUM SEA LEVEL PRESSURE:30.07 TIME OF OCCURRENCE:0021 PEAK WIND SPEED (MPH): 14 PEAK WIND DIR (DEG):340 PEAK WIND TIME (LST):      FASTEST 2MIN SPEED (MPH): 12FASTEST 2MIN DIR (DEG):340 FASTEST 2MIN TIME (LST):     AVERAGE WIND SPEED (MPH): 2.8 24 HR AVG TEMP (F): 51DEPART FROM NORMAL:  0  HEATING DEGREE DAYS: 14 COOLING DEGREE DAYS:  0 LATEST DAY MAX TEMP (0700-1900 LST):59  LATEST NIGHT MIN TEMP(1900-0800 LST):42 HOURLY INCREMENTAL PRECIPITATION VALUES (IN):.00 0.00 0.00 0.00 0.00 0.00 0.00 0.00 0.00 0.00 0.00 0.00 0.00 0.00 0.00 0.00 0.00 0.00 0.00 0.00 0.00 0.00 0.00 0.00","R01   1287AXW090R02   1287AXW090R03   1287AXW090"
"72494523293","2022-01-19T08:53:00","7","37.35938","-121.92444","15.0","SAN JOSE, CA US","FM-15","KSJC ","V020","999,9,C,0000,5","00305,5,M,N","014484,5,N,5","+0089,5","+0067,5","10223,5","01,0000,9,5",,,,,,,,,,,,,,,,,,,,,,,,,,"08,5,+00305,5,99,9",,,"4,99,1,+00305,5,9",,,"9,AGL   ,+99999,+99999","99,99,9,99,9,99,9,00305,1,99,9,99,9",,,,,,,,,,,"10224,5,10205,5","0,9,001,9,+999,9",,,,,,,,,"MET09801/19/22 00:53:02 METAR KSJC 190853Z 00000KT 9SM OVC010 09/07 A3019 RMK AO2 SLP223 T00890067 50001",
"72494523293","2022-01-19T09:14:00","7","37.35938","-121.92444","15.0","SAN JOSE, CA US","FM-16","KSJC ","V020","999,9,C,0000,5","00274,5,M,N","014484,5,N,5","+0094,5","+0072,5","99999,9",,,,,,,,,,,,,,,,,,,,,,,,,,,"08,5,+00274,5,99,9",,,"4,99,1,+00274,5,9",,,"9,AGL   ,+99999,+99999","99,99,9,99,9,99,9,00274,1,99,9,99,9",,,,,,,,,,,"10230,5,10212,5",,,,,,,,,,"MET08501/19/22 01:14:02 SPECI KSJC 190914Z 00000KT 9SM OVC009 09/07 A3021 RMK AO2 T00940072",
"72494523293","2022-01-19T09:53:00","7","37.35938","-121.92444","15.0","SAN JOSE, CA US","FM-15","KSJC ","V020","999,9,C,0000,5","00244,5,M,N","016093,5,N,5","+0094,5","+0078,5","10226,5","01,0000,9,5",,,,,,,,,,,,,,,,,,,,,,,,,,"08,5,+00244,5,99,9",,,"4,99,1,+00244,5,9",,,"9,AGL   ,+99999,+99999","99,99,9,99,9,99,9,00244,1,99,9,99,9",,,,,,,,,,,"10227,5,10209,5",,,,,,,,,,"MET09301/19/22 01:53:02 METAR KSJC 190953Z 00000KT 10SM OVC008 09/08 A3020 RMK AO2 SLP226 T00940078",
"72494523293","2022-01-19T10:53:00","7","37.35938","-121.92444","15.0","SAN JOSE, CA US","FM-15","KSJC ","V020","999,9,C,0000,5","00213,5,M,N","009656,5,N,5","+0100,5","+0078,5","10232,5","01,0000,9,5",,,,,,,,,,,,,,,,,,,,"0,0,00,1,0,1,5","10,5",,,,,"08,5,+00213,5,99,9",,,"4,99,1,+00213,5,9",,,"9,AGL   ,+99999,+99999","99,99,9,99,9,99,9,00213,1,99,9,99,9",,,,,,,,,,,"10234,5,10216,5",,,,,,,,,,"MET09501/19/22 02:53:02 METAR KSJC 191053Z 00000KT 6SM BR OVC007 10/08 A3022 RMK AO2 SLP232 T01000078",
"72494523293","2022-01-19T11:53:00","7","37.35938","-121.92444","15.0","SAN JOSE, CA US","FM-15","KSJC ","V020","999,9,C,0000,5","00213,5,M,N","008047,5,N,5","+0100,5","+0083,5","10230,5","01,0000,9,5",,,,,,,,,,,,,,,,,,,,"0,0,00,1,0,1,5","10,5",,,,,"08,5,+00213,5,99,9",,,"4,99,1,+00213,5,9",,,"9,AGL   ,+99999,+99999","99,99,9,99,9,99,9,00213,1,99,9,99,9","060,M,+0100,1","060,N,+0078,1",,,,,,,,,"10230,5,10212,5","0,9,007,9,+999,9",,,,,,,,,"MET11301/19/22 03:53:02 METAR KSJC 191153Z 00000KT 5SM BR OVC007 10/08 A3021 RMK AO2 SLP230 T01000083 10100 20078 50007",
"72494523293","2022-01-19T12:53:00","7","37.35938","-121.92444","15.0","SAN JOSE, CA US","FM-15","KSJC ","V020","999,9,C,0000,5","00183,5,M,N","008047,5,N,5","+0094,5","+0078,5","10229,5","01,0000,9,5",,,,,,,,,,,,,,,,,,,,"0,0,00,1,0,1,5","10,5",,,,,"08,5,+00183,5,99,9",,,"4,99,1,+00183,5,9",,,"9,AGL   ,+99999,+99999","99,99,9,99,9,99,9,00183,1,99,9,99,9",,,,,,,,,,,"10230,5,10212,5",,,,,,,,,,"MET09501/19/22 04:53:02 METAR KSJC 191253Z 00000KT 5SM BR OVC006 09/08 A3021 RMK AO2 SLP229 T00940078",
"72494523293","2022-01-19T13:53:00","7","37.35938","-121.92444","15.0","SAN JOSE, CA US","FM-15","KSJC ","V020","999,9,C,0000,5","00152,5,M,N","006437,5,N,5","+0094,5","+0078,5","10227,5","01,0000,9,5",,,,,,,,,,,,,,,,,,,,"0,0,00,1,0,1,5","10,5",,,,,"07,5,+00152,5,99,9","08,5,+00213,5,99,9",,"3,99,1,+00152,5,9","4,99,1,+00213,5,9",,"9,AGL   ,+99999,+99999","99,99,9,99,9,99,9,00152,1,99,9,99,9",,,,,,,,,,,"10227,5,10209,5",,,,,,,,,,"MET10701/19/22 05:53:02 METAR KSJC 191353Z 00000KT 4SM BR BKN005 OVC007 09/08 A3020 RMK AO2 SLP227 T00940078 (TC)",
"72494523293","2022-01-19T14:53:00","7","37.35938","-121.92444","15.0","SAN JOSE, CA US","FM-15","KSJC ","V020","050,5,N,0021,5","00152,5,M,N","004828,5,N,5","+0094,5","+0078,5","10238,5","01,0000,9,5",,,,,,,,,,,,,,,,,,,,"0,0,00,1,0,1,5","10,5",,,,,"07,5,+00152,5,99,9","08,5,+00213,5,99,9",,"3,99,1,+00152,5,9","4,99,1,+00213,5,9",,"9,AGL   ,+99999,+99999","99,99,9,99,9,99,9,00152,1,99,9,99,9",,,,,,,,,,,"10240,5,10222,5","3,9,007,9,+999,9",,,,,,,,,"MET11301/19/22 06:53:02 METAR KSJC 191453Z 05004KT 3SM BR BKN005 OVC007 09/08 A3024 RMK AO2 SLP238 T00940078 53007 (TC)",
"72494523293","2022-01-19T15:53:00","7","37.35938","-121.92444","15.0","SAN JOSE, CA US","FM-15","KSJC ","V020","170,5,N,0015,5","00183,5,M,N","004828,5,N,5","+0094,5","+0078,5","10244,5","01,0000,9,5",,,,,,,,,,,,,,,,,,,,"0,0,00,1,0,1,5","10,5",,,,,"10,5,+00000,5,99,9","07,5,+00183,5,99,9","08,5,+00244,5,99,9","6,99,1,+00000,5,9","3,99,1,+00183,5,9","4,99,1,+00244,5,9","9,AGL   ,+99999,+99999","99,99,9,99,9,99,9,00000,1,99,9,99,9",,,,,,,,,,,"10244,5,10226,5",,,,,,,,,,"MET11401/19/22 07:53:02 METAR KSJC 191553Z 17003KT 3SM BR FEW000 BKN006 OVC008 09/08 A3025 RMK AO2 SLP244 T00940078 (TC)",
"72494523293","2022-01-19T16:53:00","7","37.35938","-121.92444","15.0","SAN JOSE, CA US","FM-15","KSJC ","V020","999,9,C,0000,5","00183,5,M,N","006437,5,N,5","+0094,5","+0078,5","10249,5","01,0000,9,5",,,,,,,,,,,,,,,,,,,,"0,0,00,1,0,1,5","10,5",,,,,"10,5,+00000,5,99,9","07,5,+00183,5,99,9","08,5,+00244,5,99,9","6,99,1,+00000,5,9","3,99,1,+00183,5,9","4,99,1,+00244,5,9","9,AGL   ,+99999,+99999","99,99,9,99,9,99,9,00000,1,99,9,99,9",,,,,,,,,,,"10251,5,10232,5",,,,,,,,,,"MET11401/19/22 08:53:02 METAR KSJC 191653Z 00000KT 4SM BR FEW000 BKN006 OVC008 09/08 A3027 RMK AO2 SLP249 T00940078 (TC)",
"72494523293","2022-01-19T17:53:00","7","37.35938","-121.92444","15.0","SAN JOSE, CA US","FM-15","KSJC ","V020","999,9,C,0000,5","00183,5,M,N","006437,5,N,5","+0100,5","+0083,5","10253,5","01,0000,9,5",,,,,,,,,,,,,,,,,,,,"0,0,00,1,0,1,5","10,5",,,,,"10,5,+00000,5,99,9","07,5,+00183,5,99,9","08,5,+00244,5,99,9","6,99,1,+00000,5,9","3,99,1,+00183,5,9","4,99,1,+00244,5,9","9,AGL   ,+99999,+99999","99,99,9,99,9,99,9,00000,1,99,9,99,9","060,M,+0100,1","060,N,+0089,1",,,,,,,,,"10254,5,10236,5","1,9,015,9,+999,9",,,,,,,,,"MET13201/19/22 09:53:02 METAR KSJC 191753Z 00000KT 4SM BR FEW000 BKN006 OVC008 10/08 A3028 RMK AO2 SLP253 T01000083 10100 20089 51015 (TC)",
"72494523293","2022-01-19T18:53:00","7","37.35938","-121.92444","15.0","SAN JOSE, CA US","FM-15","KSJC ","V020","999,9,C,0000,5","00183,5,M,N","009656,5,N,5","+0106,5","+0089,5","10253,5","01,0000,9,5",,,,,,,,,,,,,,,,,,,,"0,0,00,1,0,1,5","10,5",,,,,"10,5,+00000,5,99,9","07,5,+00183,5,99,9","08,5,+00244,5,99,9","6,99,1,+00000,5,9","3,99,1,+00183,5,9","4,99,1,+00244,5,9","9,AGL   ,+99999,+99999","99,99,9,99,9,99,9,00000,1,99,9,99,9",,,,,,,,,,,"10254,5,10236,5",,,,,,,,,,"MET11401/19/22 10:53:02 METAR KSJC 191853Z 00000KT 6SM BR FEW000 BKN006 OVC008 11/09 A3028 RMK AO2 SLP253 T01060089 (TC)",
"72494523293","2022-01-19T19:33:00","7","37.35938","-121.92444","15.0","SAN JOSE, CA US","FM-16","KSJC ","V020","330,5,N,0015,5","22000,5,9,N","009656,5,N,5","+0117,5","+0089,5","99999,9",,,,,,,,,,,,,,,,,,,,,"0,0,00,7,0,1,5","05,1",,,,,"10,5,+00000,5,99,9","02,5,+00183,5,99,9","04,5,+00274,5,99,9","6,99,1,+00000,5,9","1,99,1,+00183,5,9","2,99,1,+00274,5,9","9,AGL   ,+99999,+99999","04,99,5,99,9,99,9,00000,1,99,9,99,9",,,,,,,,,,,"10247,5,10229,5",,,,,"05,5",,,,,"MET10701/19/22 11:33:02 SPECI KSJC 191933Z 33003KT 6SM HZ FEW000 FEW006 SCT009 12/09 A3026 RMK AO2 T01170089 (TC)","D01      0ADE726"
"72494523293","2022-01-19T19:53:00","7","37.35938","-121.92444","15.0","SAN JOSE, CA US","FM-15","KSJC ","V020","999,9,V,0015,5","22000,5,9,N","009656,5,N,5","+0122,5","+0089,5","10243,5","01,0000,9,5",,,,,,,,,,,,,,,,,,,,"0,0,00,7,0,1,5","05,1",,,,,"10,5,+00000,5,99,9","02,5,+00274,5,99,9",,"6,99,1,+00000,5,9","1,99,1,+00274,5,9",,"9,AGL   ,+99999,+99999","02,99,5,99,9,99,9,00000,1,99,9,99,9",,,,,,,,,,,"10244,5,10226,5",,,,,"05,5",,,,,"MET10701/19/22 11:53:02 METAR KSJC 191953Z VRB03KT 6SM HZ FEW000 FEW009 12/09 A3025 RMK AO2 SLP243 T01220089 (TC)","D01      0ADE726"
"72494523293","2022-01-19T20:53:00","7","37.35938","-121.92444","15.0","SAN JOSE, CA US","FM-15","KSJC ","V020","040,5,N,0015,5","22000,5,9,N","011265,5,N,5","+0139,5","+0089,5","10235,5","01,0000,9,5",,,,,,,,,,,,,,,,,,,,,,,,,,"02,5,+00518,5,99,9",,,"1,99,1,+00518,5,9",,,"9,AGL   ,+99999,+99999","02,99,5,99,9,99,9,00518,1,99,9,99,9",,,,,,,,,,,"10237,5,10219,5","8,9,017,9,+999,9",,,,,,,,,"MET10301/19/22 12:53:02 METAR KSJC 192053Z 04003KT 7SM FEW017 14/09 A3023 RMK AO2 SLP235 T01390089 58017 (TC)","D01      0ADE726"
"72494523293","2022-01-19T21:53:00","7","37.35938","-121.92444","15.0","SAN JOSE, CA US","FM-15","KSJC ","V020","340,5,N,0026,5","22000,5,9,N","016093,5,N,5","+0156,5","+0083,5","10228,5","01,0000,9,5",,,,,,,,,,,,,,,,,,,,,,,,,,"02,5,+02438,5,99,9",,,"1,99,1,+02438,5,9",,,"9,AGL   ,+99999,+99999","02,99,5,99,9,99,9,02438,1,99,9,99,9",,,,,,,,,,,"10230,5,10212,5",,,,,,,,,,"MET09801/19/22 13:53:02 METAR KSJC 192153Z 34005KT 10SM FEW080 16/08 A3021 RMK AO2 SLP228 T01560083 (JK)","D01      0ADE726"
"72494523293","2022-01-19T22:53:00","7","37.35938","-121.92444","15.0","SAN JOSE, CA US","FM-15","KSJC ","V020","330,5,N,0036,5","22000,5,9,N","016093,5,N,5","+0172,5","+0083,5","10225,5","01,0000,9,5",,,,,,,,,,,,,,,,,,,,,,,,,,"02,5,+02438,5,99,9",,,"1,99,1,+02438,5,9",,,"9,AGL   ,+99999,+99999","02,99,5,99,9,99,9,02438,1,99,9,99,9",,,,,,,,,,,"10227,5,10209,5",,,,,,,,,,"MET09801/19/22 14:53:02 METAR KSJC 192253Z 33007KT 10SM FEW080 17/08 A3020 RMK AO2 SLP225 T01720083 (JK)","D01      0ADE726"
"72494523293","2022-01-19T23:53:00","7","37.35938","-121.92444","15.0","SAN JOSE, CA US","FM-15","KSJC ","V020","330,5,N,0031,5","22000,5,9,N","016093,5,N,5","+0167,5","+0078,5","10226,5","01,0000,9,5",,,,,,,,,,,,,,,,,,,,,,,,,,"02,5,+02438,5,99,9",,,"1,99,1,+02438,5,9",,,"9,AGL   ,+99999,+99999","02,99,5,99,9,99,9,02438,1,99,9,99,9","060,M,+0172,1","060,N,+0100,1",,,,,,,,,"10227,5,10209,5","5,9,009,9,+999,9",,,,,,,,,"MET11601/19/22 15:53:02 METAR KSJC 192353Z 33006KT 10SM FEW080 17/08 A3020 RMK AO2 SLP226 T01670078 10172 20100 55009 (JK)","D01      0ADE726"
"72494523293","2022-01-20T00:53:00","7","37.35938","-121.92444","15.0","SAN JOSE, CA US","FM-15","KSJC ","V020","320,5,N,0041,5","22000,5,9,N","016093,5,N,5","+0139,5","+0067,5","10229,5","01,0000,9,5",,,,,,,,,,,,,,,,,,,,,,,,,,"02,5,+02438,5,99,9","04,5,+04877,5,99,9",,"1,99,1,+02438,5,9","2,99,1,+04877,5,9",,"9,AGL   ,+99999,+99999","04,99,5,99,9,99,9,02438,1,99,9,99,9",,,,,,,,,,,"10230,5,10212,5",,,,,,,,,,"MET10001/19/22 16:53:01 METAR KSJC 200053Z 32008KT 10SM FEW080 SCT160 14/07 A3021 RMK AO2 SLP229 T01390067","D01      0ADE726"
"72494523293","2022-01-20T01:53:00","7","37.35938","-121.92444","15.0","SAN JOSE, CA US","FM-15","KSJC ","V020","320,5,N,0031,5","22000,5,9,N","016093,5,N,5","+0122,5","+0067,5","10233,5","01,0000,9,5",,,,,,,,,,,,,,,,,,,,,,,,,,"02,5,+02438,5,99,9","04,5,+04877,5,99,9",,"1,99,1,+02438,5,9","2,99,1,+04877,5,9",,"9,AGL   ,+99999,+99999","04,99,5,99,9,99,9,02438,1,99,9,99,9",,,,,,,,,,,"10234,5,10216,5",,,,,,,,,,"MET10001/19/22 17:53:01 METAR KSJC 200153Z 32006KT 10SM FEW080 SCT160 12/07 A3022 RMK AO2 SLP233 T01220067","D01      0ADE726"
"72494523293","2022-01-20T02:53:00","7","37.35938","-121.92444","15.0","SAN JOSE, CA US","FM-15","KSJC ","V020","999,9,C,0000,5","22000,5,9,N","016093,5,N,5","+0122,5","+0078,5","10238,5","01,0000,9,5",,,,,,,,,,,,,,,,,,,,,,,,,,"02,5,+02438,5,99,9","04,5,+04877,5,99,9",,"1,99,1,+02438,5,9","2,99,1,+04877,5,9",,"9,AGL   ,+99999,+99999","04,99,5,99,9,99,9,02438,1,99,9,99,9",,,,,,,,,,,"10240,5,10222,5","3,9,012,9,+999,9",,,,,,,,,"MET10601/19/22 18:53:01 METAR KSJC 200253Z 00000KT 10SM FEW080 SCT160 12/08 A3024 RMK AO2 SLP238 T01220078 53012","D01      0ADE726"
"72494523293","2022-01-20T03:53:00","7","37.35938","-121.92444","15.0","SAN JOSE, CA US","FM-15","KSJC ","V020","250,5,N,0021,5","22000,5,9,N","016093,5,N,5","+0117,5","+0078,5","10241,5","01,0000,9,5",,,,,,,,,,,,,,,,,,,,,,,,,,"02,5,+05486,5,99,9",,,"1,99,1,+05486,5,9",,,"9,AGL   ,+99999,+99999","02,99,5,99,9,99,9,05486,1,99,9,99,9",,,,,,,,,,,"10244,5,10226,5",,,,,,,,,,"MET09301/19/22 19:53:02 METAR KSJC 200353Z 25004KT 10SM FEW180 12/08 A3025 RMK AO2 SLP241 T01170078","D01      0ADE726"
"72494523293","2022-01-20T04:53:00","7","37.35938","-121.92444","15.0","SAN JOSE, CA US","FM-15","KSJC ","V020","350,5,N,0021,5","22000,5,9,N","016093,5,N,5","+0117,5","+0083,5","10243,5","01,0000,9,5",,,,,,,,,,,,,,,,,,,,,,,,,,"02,5,+05486,5,99,9",,,"1,99,1,+05486,5,9",,,"9,AGL   ,+99999,+99999","02,99,5,99,9,99,9,05486,1,99,9,99,9",,,,,,,,,,,"10244,5,10226,5",,,,,,,,,,"MET09301/19/22 20:53:02 METAR KSJC 200453Z 35004KT 10SM FEW180 12/08 A3025 RMK AO2 SLP243 T01170083","D01      0ADE726"
"72494523293","2022-01-20T05:53:00","7","37.35938","-121.92444","15.0","SAN JOSE, CA US","FM-15","KSJC ","V020","150,5,N,0015,5","22000,5,9,N","016093,5,N,5","+0100,5","+0078,5","10249,5","01,0000,9,5",,,,,,,,,,,,,,,,,,,,,,,,,,"02,5,+00366,5,99,9",,,"1,99,1,+00366,5,9",,,"9,AGL   ,+99999,+99999","02,99,5,99,9,99,9,00366,1,99,9,99,9","060,M,+0167,1","060,N,+0094,1",,,,,,,,,"10251,5,10232,5","3,9,011,9,+999,9",,,,,,,,,"MET11101/19/22 21:53:02 METAR KSJC 200553Z 15003KT 10SM FEW012 10/08 A3027 RMK AO2 SLP249 T01000078 10167 20094 53011","D01      0ADE726"
"72494523293","2022-01-20T06:53:00","7","37.35938","-121.92444","15.0","SAN JOSE, CA US","FM-15","KSJC ","V020","220,5,N,0015,5","22000,5,9,N","016093,5,N,5","+0094,5","+0072,5","10252,5","01,0000,9,5",,,,,,,,,,,,,,,,,,,,,,,,,,"02,5,+00366,5,99,9","02,5,+05486,5,99,9",,"1,99,1,+00366,5,9","1,99,1,+05486,5,9",,"9,AGL   ,+99999,+99999","02,99,5,99,9,99,9,00366,1,99,9,99,9",,,,,,,,,,,"10254,5,10236,5",,,,,,,,,,"MET10001/19/22 22:53:02 METAR KSJC 200653Z 22003KT 10SM FEW012 FEW180 09/07 A3028 RMK AO2 SLP252 T00940072","D01      0ADE726"
"72494523293","2022-01-20T07:53:00","7","37.35938","-121.92444","15.0","SAN JOSE, CA US","FM-15","KSJC ","V020","090,5,N,0021,5","22000,5,9,N","016093,5,N,5","+0083,5","+0067,5","10254,5","01,0000,9,5",,,,,,,,,,,,,,,,,,,,,,,,,,"02,5,+00366,5,99,9","04,5,+07620,5,99,9",,"1,99,1,+00366,5,9","2,99,1,+07620,5,9",,"9,AGL   ,+99999,+99999","04,99,5,99,9,99,9,00366,1,99,9,99,9","240,M,+0172,1","240,N,+0078,1",,,,,,,,,"10254,5,10236,5",,,,,,,,,,"MET11501/19/22 23:53:02 METAR KSJC 200753Z 09004KT 10SM FEW012 SCT250 08/07 A3028 RMK AO2 SLP254 LAST T00830067 401720078","D01      0ADE726"
"72494523293","2022-01-20T07:59:00","6","37.35938","-121.92444","15.0","SAN JOSE, CA US","SOD  ","KSJC ","V020","999,9,9,9999,9","99999,9,9,9","999999,9,9,9","+9999,9","+9999,9","99999,9","24,0000,9,5",,,,,,,,,,,,,,,,,"AU,13,BR  ,5","AU,08,HZ  ,5",,,,"01,5,24,5","08,5,24,5",,,,,,,,,,,"240,M,+0172,5","240,N,+0078,5",,,,,,,,,,,"10220,4,10220,4",,,,,"1,24,00536,320,9999,5","2,24,00447,330,9999,5","3,24,00134,999,9999,5","SOD71024 HR PRECIPITATION (IN): 0.00 WEATHER(CODE):18  24 HR MAX TEMP (F): 6324 HR MIN TEMP (F): 46AVERAGE STATION PRESSURE:30.180 MINIMUM SEA LEVEL PRESSURE:30.18 TIME OF OCCURRENCE:0027 PEAK WIND SPEED (MPH): 12 PEAK WIND DIR (DEG):320 PEAK WIND TIME (LST):      FASTEST 2MIN SPEED (MPH): 10FASTEST 2MIN DIR (DEG):330 FASTEST 2MIN TIME (LST):     AVERAGE WIND SPEED (MPH): 3.0 24 HR AVG TEMP (F): 55DEPART FROM NORMAL:  4  HEATING DEGREE DAYS: 10 COOLING DEGREE DAYS:  0 LATEST DAY MAX TEMP (0700-1900 LST):63  LATEST NIGHT MIN TEMP(1900-0800 LST):46 HOURLY INCREMENTAL PRECIPITATION VALUES (IN):.00 0.00 0.00 0.00 0.00 0.00 0.00 0.00 0.00 0.00 0.00 0.00 0.00 0.00 0.00 0.00 0.00 0.00 0.00 0.00 0.00 0.00 0.00 0.00",
"72494523293","2022-01-20T08:53:00","7","37.35938","-121.92444","15.0","SAN JOSE, CA US","FM-15","KSJC ","V020","999,9,C,0000,5","22000,5,9,N","016093,5,N,5","+0078,5","+0050,5","10254,5","01,0000,9,5",,,,,,,,,,,,,,,,,,,,,,,,,,"00,5,+99999,9,99,9",,,"0,99,1,+99999,9,9",,,,"00,99,1,99,9,99,9,99999,9,99,9,99,9",,,,,,,,,,,"10254,5,10236,5","0,9,004,9,+999,9",,,,,,,,,"MET09601/20/22 00:53:02 METAR KSJC 200853Z 00000KT 10SM CLR 08/05 A3028 RMK AO2 SLP254 T00780050 50004",
"72494523293","2022-01-20T09:53:00","7","37.35938","-121.92444","15.0","SAN JOSE, CA US","FM-15","KSJC ","V020","999,9,C,0000,5","22000,5,9,N","016093,5,N,5","+0072,5","+0050,5","10260,5","01,0000,9,5",,,,,,,,,,,,,,,,,,,,,,,,,,"00,5,+99999,9,99,9",,,"0,99,1,+99999,9,9",,,,"00,99,1,99,9,99,9,99999,9,99,9,99,9",,,,,,,,,,,"10261,5,10243,5",,,,,,,,,,"MET09001/20/22 01:53:02 METAR KSJC 200953Z 00000KT 10SM CLR 07/05 A3030 RMK AO2 SLP260 T00720050",
"72494523293","2022-01-20T10:53:00","7","37.35938","-121.92444","15.0","SAN JOSE, CA US","FM-15","KSJC ","V020","999,9,C,0000,5","22000,5,9,N","016093,5,N,5","+0067,5","+0044,5","10260,5","01,0000,9,5",,,,,,,,,,,,,,,,,,,,,,,,,,"00,5,+99999,9,99,9",,,"0,99,1,+99999,9,9",,,,"00,99,1,99,9,99,9,99999,9,99,9,99,9",,,,,,,,,,,"10261,5,10243,5",,,,,,,,,,"MET09001/20/22 02:53:02 METAR KSJC 201053Z 00000KT 10SM CLR 07/04 A3030 RMK AO2 SLP260 T00670044",
"72494523293","2022-01-20T11:53:00","7","37.35938","-121.92444","15.0","SAN JOSE, CA US","FM-15","KSJC ","V020","999,9,C,0000,5","22000,5,9,N","016093,5,N,5","+0061,5","+0039,5","10258,5","01,0000,9,5",,,,,,,,,,,,,,,,,,,,,,,,,,"00,5,+99999,9,99,9",,,"0,99,1,+99999,9,9",,,,"00,99,1,99,9,99,9,99999,9,99,9,99,9","060,M,+0100,1","060,N,+0061,1",,,,,,,,,"10261,5,10243,5","0,9,004,9,+999,9",,,,,,,,,"MET10801/20/22 03:53:02 METAR KSJC 201153Z 00000KT 10SM CLR 06/04 A3030 RMK AO2 SLP258 T00610039 10100 20061 50004",
"72494523293","2022-01-20T12:53:00","7","37.35938","-121.92444","15.0","SAN JOSE, CA US","FM-15","KSJC ","V020","999,9,C,0000,5","22000,5,9,N","016093,5,N,5","+0061,5","+0033,5","10261,5","01,0000,9,5",,,,,,,,,,,,,,,,,,,,,,,,,,"00,5,+99999,9,99,9",,,"0,99,1,+99999,9,9",,,,"00,99,1,99,9,99,9,99999,9,99,9,99,9",,,,,,,,,,,"10264,5,10246,5",,,,,,,,,,"MET09001/20/22 04:53:02 METAR KSJC 201253Z 00000KT 10SM CLR 06/03 A3031 RMK AO2 SLP261 T00610033",
"72494523293","2022-01-20T13:53:00","7","37.35938","-121.92444","15.0","SAN JOSE, CA US","FM-15","KSJC ","V020","999,9,C,0000,5","22000,5,9,N","016093,5,N,5","+0056,5","+0039,5","10262,5","01,0000,9,5",,,,,,,,,,,,,,,,,,,,,,,,,,"02,5,+00244,5,99,9",,,"1,99,1,+00244,5,9",,,"9,AGL   ,+99999,+99999","02,99,5,99,9,99,9,00244,1,99,9,99,9",,,,,,,,,,,"10264,5,10246,5",,,,,,,,,,"MET09801/20/22 05:53:02 METAR KSJC 201353Z 00000KT 10SM FEW008 06/04 A3031 RMK AO2 SLP262 T00560039 (TC)","D01      0ADE726"
"72494523293","2022-01-20T14:53:00","7","37.35938","-121.92444","15.0","SAN JOSE, CA US","FM-15","KSJC ","V020","999,9,C,0000,5","22000,5,9,N","016093,5,N,5","+0056,5","+0033,5","10267,5","01,0000,9,5",,,,,,,,,,,,,,,,,,,,,,,,,,"02,5,+00244,5,99,9","02,5,+04572,5,99,9",,"1,99,1,+00244,5,9","1,99,1,+04572,5,9",,"9,AGL   ,+99999,+99999","02,99,5,99,9,99,9,00244,1,99,9,99,9",,,,,,,,,,,"10268,5,10249,5","3,9,008,9,+999,9",,,,,,,,,"MET11101/20/22 06:53:02 METAR KSJC 201453Z 00000KT 10SM FEW008 FEW150 06/03 A3032 RMK AO2 SLP267 T00560033 53008 (TC)","D01      0ADE726"
"72494523293","2022-01-20T15:53:00","7","37.35938","-121.92444","15.0","SAN JOSE, CA US","FM-15","KSJC ","V020","999,9,C,0000,5","22000,5,9,N","014484,5,N,5","+0061,5","+0044,5","10270,5","01,0000,9,5",,,,,,,,,,,,,,,,,,,,,,,,,,"02,5,+00244,5,99,9","02,5,+04572,5,99,9",,"1,99,1,+00244,5,9","1,99,1,+04572,5,9",,"9,AGL   ,+99999,+99999","02,99,5,99,9,99,9,00244,1,99,9,99,9",,,,,,,,,,,"10271,5,10253,5",,,,,,,,,,"MET10401/20/22 07:53:02 METAR KSJC 201553Z 00000KT 9SM FEW008 FEW150 06/04 A3033 RMK AO2 SLP270 T00610044 (TC)","D01      0ADE726"
"72494523293","2022-01-20T16:53:00","7","37.35938","-121.92444","15.0","SAN JOSE, CA US","FM-15","KSJC ","V020","999,9,C,0000,5","22000,5,9,N","016093,5,N,5","+0089,5","+0072,5","10272,5","01,0000,9,5",,,,,,,,,,,,,,,,,,,,,,,,,,"02,5,+00244,5,99,9","02,5,+04572,5,99,9",,"1,99,1,+00244,5,9","1,99,1,+04572,5,9",,"9,AGL   ,+99999,+99999","02,99,5,99,9,99,9,00244,1,99,9,99,9",,,,,,,,,,,"10274,5,10256,5",,,,,,,,,,"MET10501/20/22 08:53:02 METAR KSJC 201653Z 00000KT 10SM FEW008 FEW150 09/07 A3034 RMK AO2 SLP272 T00890072 (TC)","D01      0ADE726"
"72494523293","2022-01-20T17:53:00","7","37.35938","-121.92444","15.0","SAN JOSE, CA US","FM-15","KSJC ","V020","999,9,C,0000,5","22000,5,9,N","016093,5,N,5","+0111,5","+0072,5","10278,5","01,0000,9,5",,,,,,,,,,,,,,,,,,,,,,,,,,"02,5,+00244,5,99,9","02,5,+04572,5,99,9",,"1,99,1,+00244,5,9","1,99,1,+04572,5,9",,"9,AGL   ,+99999,+99999","02,99,5,99,9,99,9,00244,1,99,9,99,9","060,M,+0117,1","060,N,+0050,1",,,,,,,,,"10281,5,10263,5","3,9,012,9,+999,9",,,,,,,,,"MET12301/20/22 09:53:02 METAR KSJC 201753Z 00000KT 10SM FEW008 FEW150 11/07 A3036 RMK AO2 SLP278 T01110072 10117 20050 53012 (TC)","D01      0ADE726"
"72494523293","2022-01-20T18:53:00","7","37.35938","-121.92444","15.0","SAN JOSE, CA US","FM-15","KSJC ","V020","330,5,N,0015,5","22000,5,9,N","016093,5,N,5","+0139,5","+0072,5","10279,5","01,0000,9,5",,,,,,,,,,,,,,,,,,,,,,,,,,"02,5,+04572,5,99,9",,,"1,99,1,+04572,5,9",,,"9,AGL   ,+99999,+99999","02,99,5,99,9,99,9,04572,1,99,9,99,9",,,,,,,,,,,"10281,5,10263,5",,,,,,,,,,"MET09801/20/22 10:53:02 METAR KSJC 201853Z 33003KT 10SM FEW150 14/07 A3036 RMK AO2 SLP279 T01390072 (TC)","D01      0ADE726"
"72494523293","2022-01-20T19:53:00","7","37.35938","-121.92444","15.0","SAN JOSE, CA US","FM-15","KSJC ","V020","330,5,N,0026,5","22000,5,9,N","016093,5,N,5","+0150,5","+0089,5","10274,5","01,0000,9,5",,,,,,,,,,,,,,,,,,,,,,,,,,"02,5,+03048,5,99,9",,,"1,99,1,+03048,5,9",,,"9,AGL   ,+99999,+99999","02,99,5,99,9,99,9,03048,1,99,9,99,9",,,,,,,,,,,"10274,5,10256,5",,,,,,,,,,"MET09801/20/22 11:53:02 METAR KSJC 201953Z 33005KT 10SM FEW100 15/09 A3034 RMK AO2 SLP274 T01500089 (TC)","D01      0ADE726"
"72494523293","2022-01-20T20:53:00","7","37.35938","-121.92444","15.0","SAN JOSE, CA US","FM-15","KSJC ","V020","999,9,C,0000,5","22000,5,9,N","016093,5,N,5","+0167,5","+0083,5","10259,5","01,0000,9,5",,,,,,,,,,,,,,,,,,,,,,,,,,"02,5,+03048,5,99,9",,,"1,99,1,+03048,5,9",,,"9,AGL   ,+99999,+99999","02,99,5,99,9,99,9,03048,1,99,9,99,9",,,,,,,,,,,"10261,5,10243,5","8,9,019,9,+999,9",,,,,,,,,"MET10401/20/22 12:53:02 METAR KSJC 202053Z 00000KT 10SM FEW100 17/08 A3030 RMK AO2 SLP259 T01670083 58019 (TC)","D01      0ADE726"
"72494523293","2022-01-20T21:53:00","7","37.35938","-121.92444","15.0","SAN JOSE, CA US","FM-15","KSJC ","V020","999,9,C,0000,5","22000,5,9,N","016093,5,N,5","+0178,5","+0078,5","10247,5","01,0000,9,5",,,,,,,,,,,,,,,,,,,,,,,,,,"02,5,+03048,5,99,9",,,"1,99,1,+03048,5,9",,,"9,AGL   ,+99999,+99999","02,99,5,99,9,99,9,03048,1,99,9,99,9",,,,,,,,,,,"10247,5,10229,5",,,,,,,,,,"MET09801/20/22 13:53:02 METAR KSJC 202153Z 00000KT 10SM FEW100 18/08 A3026 RMK AO2 SLP247 T01780078 (JK)","D01      0ADE726"
"72494523293","2022-01-20T22:53:00","7","37.35938","-121.92444","15.0","SAN JOSE, CA US","FM-15","KSJC ","V020","999,9,C,0000,5","22000,5,9,N","016093,5,N,5","+0189,5","+0078,5","10242,5","01,0000,9,5",,,,,,,,,,,,,,,,,,,,,,,,,,"02,5,+03048,5,99,9","04,5,+03658,5,99,9",,"1,99,1,+03048,5,9","2,99,1,+03658,5,9",,"9,AGL   ,+99999,+99999","04,99,5,99,9,99,9,03048,1,99,9,99,9",,,,,,,,,,,"10244,5,10226,5",,,,,,,,,,"MET10501/20/22 14:53:02 METAR KSJC 202253Z 00000KT 10SM FEW100 SCT120 19/08 A3025 RMK AO2 SLP242 T01890078 (JK)","D01      0ADE726"
"72494523293","2022-01-20T23:53:00","7","37.35938","-121.92444","15.0","SAN JOSE, CA US","FM-15","KSJC ","V020","330,5,N,0015,5","22000,5,9,N","016093,5,N,5","+0189,5","+0083,5","10241,5","01,0000,9,5",,,,,,,,,,,,,,,,,,,,,,,,,,"02,5,+03048,5,99,9","04,5,+05486,5,99,9",,"1,99,1,+03048,5,9","2,99,1,+05486,5,9",,"9,AGL   ,+99999,+99999","04,99,5,99,9,99,9,03048,1,99,9,99,9","060,M,+0194,1","060,N,+0111,1",,,,,,,,,"10240,5,10222,5","6,9,019,9,+999,9",,,,,,,,,"MET12301/20/22 15:53:02 METAR KSJC 202353Z 33003KT 10SM FEW100 SCT180 19/08 A3024 RMK AO2 SLP241 T01890083 10194 20111 56019 (JK)","D01      0ADE726"
"72494523293","2022-01-21T00:53:00","7","37.35938","-121.92444","15.0","SAN JOSE, CA US","FM-15","KSJC ","V020","330,5,N,0026,5","22000,5,9,N","016093,5,N,5","+0161,5","+0089,5","10243,5","01,0000,9,5",,,,,,,,,,,,,,,,,,,,,,,,,,"02,5,+03048,5,99,9","04,5,+05486,5,99,9",,"1,99,1,+03048,5,9","2,99,1,+05486,5,9",,"9,AGL   ,+99999,+99999","04,99,5,99,9,99,9,03048,1,99,9,99,9",,,,,,,,,,,"10244,5,10226,5",,,,,,,,,,"MET10001/20/22 16:53:01 METAR KSJC 210053Z 33005KT 10SM FEW100 SCT180 16/09 A3025 RMK AO2 SLP243 T01610089","D01      0ADE726"
"72494523293","2022-01-21T01:53:00","7","37.35938","-121.92444","15.0","SAN JOSE, CA US","FM-15","KSJC ","V020","330,5,N,0015,5","22000,5,9,N","016093,5,N,5","+0144,5","+0083,5","10241,5","01,0000,9,5",,,,,,,,,,,,,,,,,,,,,,,,,,"02,5,+03048,5,99,9","02,5,+05486,5,99,9",,"1,99,1,+03048,5,9","1,99,1,+05486,5,9",,"9,AGL   ,+99999,+99999","02,99,5,99,9,99,9,03048,1,99,9,99,9",,,,,,,,,,,"10244,5,10226,5",,,,,,,,,,"MET10001/20/22 17:53:01 METAR KSJC 210153Z 33003KT 10SM FEW100 FEW180 14/08 A3025 RMK AO2 SLP241 T01440083","D01      0ADE726"
"72494523293","2022-01-21T02:53:00","7","37.35938","-121.92444","15.0","SAN JOSE, CA US","FM-15","KSJC ","V020","330,5,N,0026,5","22000,5,9,N","016093,5,N,5","+0133,5","+0078,5","10245,5","01,0000,9,5",,,,,,,,,,,,,,,,,,,,,,,,,,"00,5,+99999,9,99,9",,,"0,99,1,+99999,9,9",,,,"00,99,1,99,9,99,9,99999,9,99,9,99,9",,,,,,,,,,,"10247,5,10229,5","3,9,005,9,+999,9",,,,,,,,,"MET09601/20/22 18:53:01 METAR KSJC 210253Z 33005KT 10SM CLR 13/08 A3026 RMK AO2 SLP245 T01330078 53005",
"72494523293","2022-01-21T03:53:00","7","37.35938","-121.92444","15.0","SAN JOSE, CA US","FM-15","KSJC ","V020","320,5,N,0021,5","22000,5,9,N","016093,5,N,5","+0117,5","+0072,5","10245,5","01,0000,9,5",,,,,,,,,,,,,,,,,,,,,,,,,,"00,5,+99999,9,99,9",,,"0,99,1,+99999,9,9",,,,"00,99,1,99,9,99,9,99999,9,99,9,99,9",,,,,,,,,,,"10247,5,10229,5",,,,,,,,,,"MET09001/20/22 19:53:02 METAR KSJC 210353Z 32004KT 10SM CLR 12/07 A3026 RMK AO2 SLP245 T01170072",
"72494523293","2022-01-21T04:53:00","7","37.35938","-121.92444","15.0","SAN JOSE, CA US","FM-15","KSJC ","V020","999,9,C,0000,5","22000,5,9,N","016093,5,N,5","+0122,5","+0078,5","10245,5","01,0000,9,5",,,,,,,,,,,,,,,,,,,,,,,,,,"02,5,+06096,5,99,9",,,"1,99,1,+06096,5,9",,,"9,AGL   ,+99999,+99999","02,99,5,99,9,99,9,06096,1,99,9,99,9",,,,,,,,,,,"10247,5,10229,5",,,,,,,,,,"MET09301/20/22 20:53:02 METAR KSJC 210453Z 00000KT 10SM FEW200 12/08 A3026 RMK AO2 SLP245 T01220078","D01      0ADE726"
"72494523293","2022-01-21T05:53:00","7","37.35938","-121.92444","15.0","SAN JOSE, CA US","FM-15","KSJC ","V020","999,9,C,0000,5","22000,5,9,N","016093,5,N,5","+0117,5","+0072,5","10244,5","01,0000,9,5",,,,,,,,,,,,,,,,,,,,,,,,,,"00,5,+99999,9,99,9",,,"0,99,1,+99999,9,9",,,,"00,99,1,99,9,99,9,99999,9,99,9,99,9","060,M,+0189,1","060,N,+0106,1",,,,,,,,,"10244,5,10226,5","8,9,001,9,+999,9",,,,,,,,,"MET10801/20/22 21:53:02 METAR KSJC 210553Z 00000KT 10SM CLR 12/07 A3025 RMK AO2 SLP244 T01170072 10189 20106 58001",
"72494523293","2022-01-21T06:53:00","7","37.35938","-121.92444","15.0","SAN JOSE, CA US","FM-15","KSJC ","V020","150,5,N,0015,5","22000,5,9,N","016093,5,N,5","+0100,5","+0067,5","10239,5","01,0000,9,5",,,,,,,,,,,,,,,,,,,,,,,,,,"00,5,+99999,9,99,9",,,"0,99,1,+99999,9,9",,,,"00,99,1,99,9,99,9,99999,9,99,9,99,9",,,,,,,,,,,"10240,5,10222,5",,,,,,,,,,"MET09001/20/22 22:53:02 METAR KSJC 210653Z 15003KT 10SM CLR 10/07 A3024 RMK AO2 SLP239 T01000067",
"72494523293","2022-01-21T07:53:00","7","37.35938","-121.92444","15.0","SAN JOSE, CA US","FM-15","KSJC ","V020","999,9,C,0000,5","22000,5,9,N","016093,5,N,5","+0094,5","+0067,5","10242,5","01,0000,9,5",,,,,,,,,,,,,,,,,,,,,,,,,,"00,5,+99999,9,99,9",,,"0,99,1,+99999,9,9",,,,"00,99,1,99,9,99,9,99999,9,99,9,99,9","240,M,+0194,1","240,N,+0050,1",,,,,,,,,"10244,5,10226,5",,,,,,,,,,"MET10501/20/22 23:53:02 METAR KSJC 210753Z 00000KT 10SM CLR 09/07 A3025 RMK AO2 SLP242 LAST T00940067 401940050",
"72494523293","2022-01-21T07:59:00","6","37.35938","-121.92444","15.0","SAN JOSE, CA US","SOD  ","KSJC ","V020","999,9,9,9999,9","99999,9,9,9","999999,9,9,9","+9999,9","+9999,9","99999,9","24,0000,9,5",,,,,,,,,,,,,,,,,,,,,,,,,,,,,,,,,,"240,M,+0194,5","240,N,+0050,5",,,,,,,,,,,"10237,4,10237,4",,,,,"1,24,00626,320,9999,5","2,24,00536,320,9999,5","3,24,00067,999,9999,5","SOD69224 HR PRECIPITATION (IN): 0.00 24 HR MAX TEMP (F): 6724 HR MIN TEMP (F): 41AVERAGE STATION PRESSURE:30.230 MINIMUM SEA LEVEL PRESSURE:30.23 TIME OF OCCURRENCE:2339 PEAK WIND SPEED (MPH): 14 PEAK WIND DIR (DEG):320 PEAK WIND TIME (LST):      FASTEST 2MIN SPEED (MPH): 12FASTEST 2MIN DIR (DEG):320 FASTEST 2MIN TIME (LST):     AVERAGE WIND SPEED (MPH): 1.5 24 HR AVG TEMP (F): 54DEPART FROM NORMAL:  3  HEATING DEGREE DAYS: 11 COOLING DEGREE DAYS:  0 LATEST DAY MAX TEMP (0700-1900 LST):67  LATEST NIGHT MIN TEMP(1900-0800 LST):41 HOURLY INCREMENTAL PRECIPITATION VALUES (IN):.00 0.00 0.00 0.00 0.00 0.00 0.00 0.00 0.00 0.00 0.00 0.00 0.00 0.00 0.00 0.00 0.00 0.00 0.00 0.00 0.00 0.00 0.00 0.00",
"72494523293","2022-01-21T08:53:00","7","37.35938","-121.92444","15.0","SAN JOSE, CA US","FM-15","KSJC ","V020","999,9,C,0000,5","22000,5,9,N","016093,5,N,5","+0083,5","+0056,5","10239,5","01,0000,9,5",,,,,,,,,,,,,,,,,,,,,,,,,,"00,5,+99999,9,99,9",,,"0,99,1,+99999,9,9",,,,"00,99,1,99,9,99,9,99999,9,99,9,99,9",,,,,,,,,,,"10240,5,10222,5","6,9,005,9,+999,9",,,,,,,,,"MET09601/21/22 00:53:02 METAR KSJC 210853Z 00000KT 10SM CLR 08/06 A3024 RMK AO2 SLP239 T00830056 56005",
"72494523293","2022-01-21T09:53:00","7","37.35938","-121.92444","15.0","SAN JOSE, CA US","FM-15","KSJC ","V020","999,9,C,0000,5","22000,5,9,N","016093,5,N,5","+0072,5","+0050,5","10230,5","01,0000,9,5",,,,,,,,,,,,,,,,,,,,,,,,,,"00,5,+99999,9,99,9",,,"0,99,1,+99999,9,9",,,,"00,99,1,99,9,99,9,99999,9,99,9,99,9",,,,,,,,,,,"10230,5,10212,5",,,,,,,,,,"MET09001/21/22 01:53:02 METAR KSJC 210953Z 00000KT 10SM CLR 07/05 A3021 RMK AO2 SLP230 T00720050",
"72494523293","2022-01-21T10:53:00","7","37.35938","-121.92444","15.0","SAN JOSE, CA US","FM-15","KSJC ","V020","999,9,C,0000,5","22000,5,9,N","016093,5,N,5","+0072,5","+0050,5","10231,5","01,0000,9,5",,,,,,,,,,,,,,,,,,,,,,,,,,"00,5,+99999,9,99,9",,,"0,99,1,+99999,9,9",,,,"00,99,1,99,9,99,9,99999,9,99,9,99,9",,,,,,,,,,,"10234,5,10216,5",,,,,,,,,,"MET09001/21/22 02:53:02 METAR KSJC 211053Z 00000KT 10SM CLR 07/05 A3022 RMK AO2 SLP231 T00720050",
"72494523293","2022-01-21T11:53:00","7","37.35938","-121.92444","15.0","SAN JOSE, CA US","FM-15","KSJC ","V020","120,5,N,0015,5","22000,5,9,N","016093,5,N,5","+0067,5","+0044,5","10223,5","01,0000,9,5",,,,,,,,,,,,,,,,,,,,,,,,,,"00,5,+99999,9,99,9",,,"0,99,1,+99999,9,9",,,,"00,99,1,99,9,99,9,99999,9,99,9,99,9","060,M,+0117,1","060,N,+0061,1",,,,,,,,,"10224,5,10205,5","6,9,016,9,+999,9",,,,,,,,,"MET10801/21/22 03:53:02 METAR KSJC 211153Z 12003KT 10SM CLR 07/04 A3019 RMK AO2 SLP223 T00670044 10117 20061 56016",
"72494523293","2022-01-21T12:53:00","7","37.35938","-121.92444","15.0","SAN JOSE, CA US","FM-15","KSJC ","V020","999,9,C,0000,5","22000,5,9,N","016093,5,N,5","+0061,5","+0044,5","10223,5","01,0000,9,5",,,,,,,,,,,,,,,,,,,,,,,,,,"00,5,+99999,9,99,9",,,"0,99,1,+99999,9,9",,,,"00,99,1,99,9,99,9,99999,9,99,9,99,9",,,,,,,,,,,"10224,5,10205,5",,,,,,,,,,"MET09001/21/22 04:53:02 METAR KSJC 211253Z 00000KT 10SM CLR 06/04 A3019 RMK AO2 SLP223 T00610044",
"72494523293","2022-01-21T13:53:00","7","37.35938","-121.92444","15.0","SAN JOSE, CA US","FM-15","KSJC ","V020","999,9,C,0000,5","22000,5,9,N","012875,5,N,5","+0056,5","+0039,5","10225,5","01,0000,9,5",,,,,,,,,,,,,,,,,,,,,,,,,,"00,5,+99999,9,99,9",,,"0,99,1,+99999,9,9",,,,"00,99,1,99,9,99,9,99999,9,99,9,99,9",,,,,,,,,,,"10227,5,10209,5",,,,,,,,,,"MET09401/21/22 05:53:02 METAR KSJC 211353Z 00000KT 8SM CLR 06/04 A3020 RMK AO2 SLP225 T00560039 (TC)",
"72494523293","2022-01-21T14:53:00","7","37.35938","-121.92444","15.0","SAN JOSE, CA US","FM-15","KSJC ","V020","999,9,C,0000,5","22000,5,9,N","012875,5,N,5","+0061,5","+0039,5","10227,5","01,0000,9,5",,,,,,,,,,,,,,,,,,,,,,,,,,"02,5,+00457,5,99,9","02,5,+03048,5,99,9",,"1,99,1,+00457,5,9","1,99,1,+03048,5,9",,"9,AGL   ,+99999,+99999","02,99,5,99,9,99,9,00457,1,99,9,99,9",,,,,,,,,,,"10227,5,10209,5","3,9,004,9,+999,9",,,,,,,,,"MET11001/21/22 06:53:02 METAR KSJC 211453Z 00000KT 8SM FEW015 FEW100 06/04 A3020 RMK AO2 SLP227 T00610039 53004 (TC)","D01      0ADE726"
"72494523293","2022-01-21T15:53:00","7","37.35938","-121.92444","15.0","SAN JOSE, CA US","FM-15","KSJC ","V020","999,9,C,0000,5","22000,5,9,N","011265,5,N,5","+0061,5","+0044,5","10230,5","01,0000,9,5",,,,,,,,,,,,,,,,,,,,,,,,,,"02,5,+03048,5,99,9",,,"1,99,1,+03048,5,9",,,"9,AGL   ,+99999,+99999","02,99,5,99,9,99,9,03048,1,99,9,99,9",,,,,,,,,,,"10230,5,10212,5",,,,,,,,,,"MET09701/21/22 07:53:02 METAR KSJC 211553Z 00000KT 7SM FEW100 06/04 A3021 RMK AO2 SLP230 T00610044 (TC)","D01      0ADE726"
"72494523293","2022-01-21T16:53:00","7","37.35938","-121.92444","15.0","SAN JOSE, CA US","FM-15","KSJC ","V020","300,5,N,0015,5","03048,5,M,N","016093,5,N,5","+0133,5","+0067,5","10225,5","01,0000,9,5",,,,,,,,,,,,,,,,,,,,,,,,,,"07,5,+03048,5,99,9","07,5,+04572,5,99,9",,"3,99,1,+03048,5,9","3,99,1,+04572,5,9",,"9,AGL   ,+99999,+99999","99,99,9,99,9,99,9,03048,1,99,9,99,9",,,,,,,,,,,"10227,5,10209,5",,,,,,,,,,"MET10501/21/22 08:53:02 METAR KSJC 211653Z 30003KT 10SM BKN100 BKN150 13/07 A3020 RMK AO2 SLP225 T01330067 (TC)",
"72494523293","2022-01-21T17:53:00","7","37.35938","-121.92444","15.0","SAN JOSE, CA US","FM-15","KSJC ","V020","320,5,N,0031,5","03048,5,M,N","016093,5,N,5","+0161,5","+0039,5","10227,5","01,0000,9,5",,,,,,,,,,,,,,,,,,,,,,,,,,"07,5,+03048,5,99,9","07,5,+04572,5,99,9",,"3,99,1,+03048,5,9","3,99,1,+04572,5,9",,"9,AGL   ,+99999,+99999","99,99,9,99,9,99,9,03048,1,99,9,99,9","060,M,+0161,1","060,N,+0056,1",,,,,,,,,"10227,5,10209,5","8,9,000,9,+999,9",,,,,,,,,"MET12301/21/22 09:53:02 METAR KSJC 211753Z 32006KT 10SM BKN100 BKN150 16/04 A3020 RMK AO2 SLP227 T01610039 10161 20056 58000 (TC)","Q018     3APCTEN"
"72494523293","2022-01-21T18:53:00","7","37.35938","-121.92444","15.0","SAN JOSE, CA US","FM-15","KSJC ","V020","340,5,N,0067,5","03048,5,M,N","016093,5,N,5","+0172,5","+0011,5","10227,5","01,0000,9,5",,,,,,,,,,,,,,,,,,,,,,,,,,"07,5,+03048,5,99,9","07,5,+04572,5,99,9",,"3,99,1,+03048,5,9","3,99,1,+04572,5,9",,"9,AGL   ,+99999,+99999","99,99,9,99,9,99,9,03048,1,99,9,99,9",,,,,,,,,,,"10227,5,10209,5",,,,,,,,,,"MET10501/21/22 10:53:02 METAR KSJC 211853Z 34013KT 10SM BKN100 BKN150 17/01 A3020 RMK AO2 SLP227 T01720011 (TC)",
"72494523293","2022-01-21T19:53:00","7","37.35938","-121.92444","15.0","SAN JOSE, CA US","FM-15","KSJC ","V020","330,5,N,0062,5","03048,5,M,N","016093,5,N,5","+0183,5","+0033,5","10215,5","01,0000,9,5",,,,,,,,,,,,,,,,,,,,,,,,,,"07,5,+03048,5,99,9","07,5,+04572,5,99,9",,"3,99,1,+03048,5,9","3,99,1,+04572,5,9",,"9,AGL   ,+99999,+99999","99,99,9,99,9,99,9,03048,1,99,9,99,9",,,,,,,,,,,"10217,5,10199,5",,,,,,,,,,"MET10501/21/22 11:53:02 METAR KSJC 211953Z 33012KT 10SM BKN100 BKN150 18/03 A3017 RMK AO2 SLP215 T01830033 (TC)",
"72494523293","2022-01-21T20:53:00","7","37.35938","-121.92444","15.0","SAN JOSE, CA US","FM-15","KSJC ","V020","310,5,N,0057,5","03048,5,M,N","016093,5,N,5","+0189,5","+0028,5","10208,5","01,0000,9,5",,,,,,,,,,,,,,,,,,,,,,,,,,"07,5,+03048,5,99,9","07,5,+04572,5,99,9",,"3,99,1,+03048,5,9","3,99,1,+04572,5,9",,"9,AGL   ,+99999,+99999","99,99,9,99,9,99,9,03048,1,99,9,99,9",,,,,,,,,,,"10210,5,10192,5","8,9,019,9,+999,9",,,,,,,,,"MET12901/21/22 12:53:02 METAR KSJC 212053Z 31011KT 10SM BKN100 BKN150 19/03 A3015 RMK AO2 PK WND 01026/2019 SLP208 T01890028 58019 (TC)",
"72494523293","2022-01-21T21:53:00","7","37.35938","-121.92444","15.0","SAN JOSE, CA US","FM-15","KSJC ","V020","340,5,N,0077,5","04572,5,M,N","016093,5,N,5","+0194,5","-0011,5","10193,5","01,0000,9,5",,,,,,,,,,,,,,,,,,,,,,,,,,"04,5,+03048,5,99,9","07,5,+04572,5,99,9","08,5,+07620,5,99,9","2,99,1,+03048,5,9","3,99,1,+04572,5,9","4,99,1,+07620,5,9","9,AGL   ,+99999,+99999","99,99,9,99,9,99,9,03048,1,99,9,99,9",,,,,,,,,,,"10193,5,10175,5",,,,,,"0118,5",,,,"MET11601/21/22 13:53:02 METAR KSJC 212153Z 34015G23KT 10SM SCT100 BKN150 OVC250 19/M01 A3010 RMK AO2 SLP193 T01941011 (JK)",
"72494523293","2022-01-21T22:53:00","7","37.35938","-121.92444","15.0","SAN JOSE, CA US","FM-15","KSJC ","V020","330,5,N,0067,5","06096,5,M,N","016093,5,N,5","+0194,5","-0006,5","10193,5","01,0000,9,5",,,,,,,,,,,,,,,,,,,,,,,,,,"02,5,+03048,5,99,9","04,5,+04877,5,99,9","07,5,+06096,5,99,9","1,99,1,+03048,5,9","2,99,1,+04877,5,9","3,99,1,+06096,5,9","9,AGL   ,+99999,+99999","99,99,9,99,9,99,9,03048,1,99,9,99,9",,,,,,,,,,,"10193,5,10175,5",,,,,,"0108,5",,,,"MET11601/21/22 14:53:02 METAR KSJC 212253Z 33013G21KT 10SM FEW100 SCT160 BKN200 19/M01 A3010 RMK AO2 SLP193 T01941006 (JK)",
"72494523293","2022-01-21T23:53:00","7","37.35938","-121.92444","15.0","SAN JOSE, CA US","FM-15","KSJC ","V020","350,5,N,0036,5","06096,5,M,N","016093,5,N,5","+0189,5","-0006,5","10195,5","01,0000,9,5",,,,,,,,,,,,,,,,,,,,,,,,,,"02,5,+03048,5,99,9","04,5,+04877,5,99,9","07,5,+06096,5,99,9","1,99,1,+03048,5,9","2,99,1,+04877,5,9","3,99,1,+06096,5,9","9,AGL   ,+99999,+99999","99,99,9,99,9,99,9,03048,1,99,9,99,9","060,M,+0200,1","060,N,+0161,1",,,,,,,,,"10196,5,10178,5","5,9,012,9,+999,9",,,,,,,,,"MET13101/21/22 15:53:02 METAR KSJC 212353Z 35007KT 10SM FEW100 SCT160 BKN200 19/M01 A3011 RMK AO2 SLP195 T01891006 10200 20161 55012 (JK)",
"72494523293","2022-01-22T00:53:00","7","37.35938","-121.92444","15.0","SAN JOSE, CA US","FM-15","KSJC ","V020","230,5,N,0031,5","04877,5,M,N","016093,5,N,5","+0178,5","-0011,5","10194,5","01,0000,9,5",,,,,,,,,,,,,,,,,,,,,,,,,,"02,5,+03048,5,99,9","07,5,+04877,5,99,9","08,5,+06096,5,99,9","1,99,1,+03048,5,9","3,99,1,+04877,5,9","4,99,1,+06096,5,9","9,AGL   ,+99999,+99999","99,99,9,99,9,99,9,03048,1,99,9,99,9",,,,,,,,,,,"10196,5,10178,5",,,,,,,,,,"MET10801/21/22 16:53:01 METAR KSJC 220053Z 23006KT 10SM FEW100 BKN160 OVC200 18/M01 A3011 RMK AO2 SLP194 T01781011",
"72494523293","2022-01-22T01:53:00","7","37.35938","-121.92444","15.0","SAN JOSE, CA US","FM-15","KSJC ","V020","230,5,N,0026,5","04877,5,M,N","016093,5,N,5","+0167,5","-0017,5","10198,5","01,0000,9,5",,,,,,,,,,,,,,,,,,,,,,,,,,"02,5,+03048,5,99,9","07,5,+04877,5,99,9","08,5,+06096,5,99,9","1,99,1,+03048,5,9","3,99,1,+04877,5,9","4,99,1,+06096,5,9","9,AGL   ,+99999,+99999","99,99,9,99,9,99,9,03048,1,99,9,99,9",,,,,,,,,,,"10200,5,10182,5",,,,,,,,,,"MET10801/21/22 17:53:01 METAR KSJC 220153Z 23005KT 10SM FEW100 BKN160 OVC200 17/M02 A3012 RMK AO2 SLP198 T01671017",
"72494523293","2022-01-22T02:53:00","7","37.35938","-121.92444","15.0","SAN JOSE, CA US","FM-15","KSJC ","V020","999,9,V,0015,5","06096,5,M,N","016093,5,N,5","+0161,5","-0033,5","10198,5","01,0000,9,5",,,,,,,,,,,,,,,,,,,,,,,,,,"02,5,+03048,5,99,9","04,5,+04877,5,99,9","07,5,+06096,5,99,9","1,99,1,+03048,5,9","2,99,1,+04877,5,9","3,99,1,+06096,5,9","9,AGL   ,+99999,+99999","99,99,9,99,9,99,9,03048,1,99,9,99,9",,,,,,,,,,,"10200,5,10182,5","3,9,002,9,+999,9",,,,,,,,,"MET11401/21/22 18:53:01 METAR KSJC 220253Z VRB03KT 10SM FEW100 SCT160 BKN200 16/M03 A3012 RMK AO2 SLP198 T01611033 53002",
"72494523293","2022-01-22T03:53:00","7","37.35938","-121.92444","15.0","SAN JOSE, CA US","FM-15","KSJC ","V020","290,5,N,0041,5","22000,5,9,N","016093,5,N,5","+0150,5","-0028,5","10198,5","01,0000,9,5",,,,,,,,,,,,,,,,,,,,,,,,,,"04,5,+04877,5,99,9",,,"2,99,1,+04877,5,9",,,"9,AGL   ,+99999,+99999","04,99,5,99,9,99,9,04877,1,99,9,99,9",,,,,,,,,,,"10200,5,10182,5",,,,,,,,,,"MET09401/21/22 19:53:02 METAR KSJC 220353Z 29008KT 10SM SCT160 15/M03 A3012 RMK AO2 SLP198 T01501028","D01      0ADE726"
"72494523293","2022-01-22T04:53:00","7","37.35938","-121.92444","15.0","SAN JOSE, CA US","FM-15","KSJC ","V020","330,5,N,0062,5","22000,5,9,N","016093,5,N,5","+0156,5","-0028,5","10199,5","01,0000,9,5",,,,,,,,,,,,,,,,,,,,,,,,,,"04,5,+06096,5,99,9",,,"2,99,1,+06096,5,9",,,"9,AGL   ,+99999,+99999","04,99,5,99,9,99,9,06096,1,99,9,99,9",,,,,,,,,,,"10200,5,10182,5",,,,,,,,,,"MET09401/21/22 20:53:02 METAR KSJC 220453Z 33012KT 10SM SCT200 16/M03 A3012 RMK AO2 SLP199 T01561028","D01      0ADE726"
"72494523293","2022-01-22T05:53:00","7","37.35938","-121.92444","15.0","SAN JOSE, CA US","FM-15","KSJC ","V020","150,5,N,0021,5","06096,5,M,N","016093,5,N,5","+0150,5","-0039,5","10198,5","01,0000,9,5",,,,,,,,,,,,,,,,,,,,,,,,,,"07,5,+06096,5,99,9",,,"3,99,1,+06096,5,9",,,"9,AGL   ,+99999,+99999","99,99,9,99,9,99,9,06096,1,99,9,99,9","060,M,+0189,1","060,N,+0139,1",,,,,,,,,"10200,5,10182,5","0,9,000,9,+999,9",,,,,,,,,"MET11201/21/22 21:53:02 METAR KSJC 220553Z 15004KT 10SM BKN200 15/M04 A3012 RMK AO2 SLP198 T01501039 10189 20139 50000",
"72494523293","2022-01-22T06:53:00","7","37.35938","-121.92444","15.0","SAN JOSE, CA US","FM-15","KSJC ","V020","999,9,V,0015,5","06096,5,M,N","016093,5,N,5","+0144,5","-0033,5","10195,5","01,0000,9,5",,,,,,,,,,,,,,,,,,,,,,,,,,"07,5,+06096,5,99,9",,,"3,99,1,+06096,5,9",,,"9,AGL   ,+99999,+99999","99,99,9,99,9,99,9,06096,1,99,9,99,9",,,,,,,,,,,"10196,5,10178,5",,,,,,,,,,"MET09401/21/22 22:53:02 METAR KSJC 220653Z VRB03KT 10SM BKN200 14/M03 A3011 RMK AO2 SLP195 T01441033",
"72494523293","2022-01-22T07:53:00","7","37.35938","-121.92444","15.0","SAN JOSE, CA US","FM-15","KSJC ","V020","290,5,N,0026,5","22000,5,9,N","016093,5,N,5","+0139,5","-0039,5","10193,5","01,0000,9,5",,,,,,,,,,,,,,,,,,,,,,,,,,"04,5,+06096,5,99,9",,,"2,99,1,+06096,5,9",,,"9,AGL   ,+99999,+99999","04,99,5,99,9,99,9,06096,1,99,9,99,9","240,M,+0200,1","240,N,+0056,1",,,,,,,,,"10193,5,10175,5",,,,,,,,,,"MET10901/21/22 23:53:02 METAR KSJC 220753Z 29005KT 10SM SCT200 14/M04 A3010 RMK AO2 SLP193 LAST T01391039 402000056","D01      0ADE726"
"72494523293","2022-01-22T07:59:00","6","37.35938","-121.92444","15.0","SAN JOSE, CA US","SOD  ","KSJC ","V020","999,9,9,9999,9","99999,9,9,9","999999,9,9,9","+9999,9","+9999,9","99999,9","24,0000,9,5",,,,,,,,,,,,,,,,,,,,,,,,,,,,,,,,,,"240,M,+0200,5","240,N,+0056,5",,,,,,,,,,,"10191,4,10190,4",,,,,"1,24,01341,010,9999,5","2,24,00983,350,9999,5","3,24,00277,999,9999,5","SOD69224 HR PRECIPITATION (IN): 0.00 24 HR MAX TEMP (F): 6824 HR MIN TEMP (F): 42AVERAGE STATION PRESSURE:30.095 MINIMUM SEA LEVEL PRESSURE:30.09 TIME OF OCCURRENCE:1410 PEAK WIND SPEED (MPH): 30 PEAK WIND DIR (DEG): 10 PEAK WIND TIME (LST):      FASTEST 2MIN SPEED (MPH): 22FASTEST 2MIN DIR (DEG):350 FASTEST 2MIN TIME (LST):     AVERAGE WIND SPEED (MPH): 6.2 24 HR AVG TEMP (F): 55DEPART FROM NORMAL:  4  HEATING DEGREE DAYS: 10 COOLING DEGREE DAYS:  0 LATEST DAY MAX TEMP (0700-1900 LST):68  LATEST NIGHT MIN TEMP(1900-0800 LST):42 HOURLY INCREMENTAL PRECIPITATION VALUES (IN):.00 0.00 0.00 0.00 0.00 0.00 0.00 0.00 0.00 0.00 0.00 0.00 0.00 0.00 0.00 0.00 0.00 0.00 0.00 0.00 0.00 0.00 0.00 0.00",
"72494523293","2022-01-22T08:53:00","7","37.35938","-121.92444","15.0","SAN JOSE, CA US","FM-15","KSJC ","V020","290,5,N,0036,5","22000,5,9,N","016093,5,N,5","+0133,5","-0033,5","10189,5","01,0000,9,5",,,,,,,,,,,,,,,,,,,,,,,,,,"00,5,+99999,9,99,9",,,"0,99,1,+99999,9,9",,,,"00,99,1,99,9,99,9,99999,9,99,9,99,9",,,,,,,,,,,"10190,5,10172,5","8,9,009,9,+999,9",,,,,,,,,"MET09701/22/22 00:53:02 METAR KSJC 220853Z 29007KT 10SM CLR 13/M03 A3009 RMK AO2 SLP189 T01331033 58009",
"72494523293","2022-01-22T09:53:00","7","37.35938","-121.92444","15.0","SAN JOSE, CA US","FM-15","KSJC ","V020","300,5,N,0046,5","22000,5,9,N","016093,5,N,5","+0117,5","-0028,5","10184,5","01,0000,9,5",,,,,,,,,,,,,,,,,,,,,,,,,,"00,5,+99999,9,99,9",,,"0,99,1,+99999,9,9",,,,"00,99,1,99,9,99,9,99999,9,99,9,99,9",,,,,,,,,,,"10186,5,10168,5",,,,,,,,,,"MET09101/22/22 01:53:02 METAR KSJC 220953Z 30009KT 10SM CLR 12/M03 A3008 RMK AO2 SLP184 T01171028",
"72494523293","2022-01-22T10:53:00","7","37.35938","-121.92444","15.0","SAN JOSE, CA US","FM-15","KSJC ","V020","360,5,N,0103,5","22000,5,9,N","016093,5,N,5","+0156,5","-0061,5","10182,5","01,0000,9,5",,,,,,,,,,,,,,,,,,,,,,,,,,"00,5,+99999,9,99,9",,,"0,99,1,+99999,9,9",,,,"00,99,1,99,9,99,9,99999,9,99,9,99,9",,,,,,,,,,,"10183,5,10165,5",,,,,,"0139,5",,,,"MET11201/22/22 02:53:02 METAR KSJC 221053Z 36020G27KT 10SM CLR 16/M06 A3007 RMK AO2 PK WND 01027/1052 SLP182 T01561061",
"72494523293","2022-01-22T11:53:00","7","37.35938","-121.92444","15.0","SAN JOSE, CA US","FM-15","KSJC ","V020","320,5,N,0072,5","22000,5,9,N","016093,5,N,5","+0139,5","-0039,5","10187,5","01,0000,9,5",,,,,,,,,,,,,,,,,,,,,,,,,,"00,5,+99999,9,99,9",,,"0,99,1,+99999,9,9",,,,"00,99,1,99,9,99,9,99999,9,99,9,99,9","060,M,+0161,1","060,N,+0100,1",,,,,,,,,"10190,5,10172,5","5,9,002,9,+999,9",,,,,"0108,5",,,,"MET11201/22/22 03:53:02 METAR KSJC 221153Z 32014G21KT 10SM CLR 14/M04 A3009 RMK AO2 SLP187 T01391039 10161 20100 55002",
"72494523293","2022-01-22T12:53:00","7","37.35938","-121.92444","15.0","SAN JOSE, CA US","FM-15","KSJC ","V020","040,5,N,0046,5","22000,5,9,N","016093,5,N,5","+0144,5","-0044,5","10194,5","01,0000,9,5",,,,,,,,,,,,,,,,,,,,,,,,,,"00,5,+99999,9,99,9",,,"0,99,1,+99999,9,9",,,,"00,99,1,99,9,99,9,99999,9,99,9,99,9",,,,,,,,,,,"10196,5,10178,5",,,,,,,,,,"MET09101/22/22 04:53:02 METAR KSJC 221253Z 04009KT 10SM CLR 14/M04 A3011 RMK AO2 SLP194 T01441044",
"72494523293","2022-01-22T13:53:00","7","37.35938","-121.92444","15.0","SAN JOSE, CA US","FM-15","KSJC ","V020","030,5,N,0021,5","22000,5,9,N","016093,5,N,5","+0133,5","-0044,5","10193,5","01,0000,9,5",,,,,,,,,,,,,,,,,,,,,,,,,,"02,5,+07620,5,99,9",,,"1,99,1,+07620,5,9",,,"9,AGL   ,+99999,+99999","02,99,5,99,9,99,9,07620,1,99,9,99,9",,,,,,,,,,,"10193,5,10175,5",,,,,,,,,,"MET09901/22/22 05:53:02 METAR KSJC 221353Z 03004KT 10SM FEW250 13/M04 A3010 RMK AO2 SLP193 T01331044 (DR)","D01      0ADE726"
"72494523293","2022-01-22T14:53:00","7","37.35938","-121.92444","15.0","SAN JOSE, CA US","FM-15","KSJC ","V020","999,9,C,0000,5","22000,5,9,N","016093,5,N,5","+0111,5","-0028,5","10198,5","01,0000,9,5",,,,,,,,,,,,,,,,,,,,,,,,,,"04,5,+04267,5,99,9",,,"2,99,1,+04267,5,9",,,"9,AGL   ,+99999,+99999","04,99,5,99,9,99,9,04267,1,99,9,99,9",,,,,,,,,,,"10200,5,10182,5","1,9,011,9,+999,9",,,,,,,,,"MET10501/22/22 06:53:02 METAR KSJC 221453Z 00000KT 10SM SCT140 11/M03 A3012 RMK AO2 SLP198 T01111028 51011 (DR)","D01      0ADE726"
"72494523293","2022-01-22T15:53:00","7","37.35938","-121.92444","15.0","SAN JOSE, CA US","FM-15","KSJC ","V020","010,5,N,0026,5","06096,5,M,N","016093,5,N,5","+0111,5","-0011,5","10207,5","01,0000,9,5",,,,,,,,,,,,,,,,,,,,,,,,,,"02,5,+02286,5,99,9","04,5,+04267,5,99,9","07,5,+06096,5,99,9","1,99,1,+02286,5,9","2,99,1,+04267,5,9","3,99,1,+06096,5,9","9,AGL   ,+99999,+99999","99,99,9,99,9,99,9,02286,1,99,9,99,9",,,,,,,,,,,"10207,5,10188,5",,,,,,,,,,"MET11301/22/22 07:53:02 METAR KSJC 221553Z 01005KT 10SM FEW075 SCT140 BKN200 11/M01 A3014 RMK AO2 SLP207 T01111011 (DR)",
"72494523293","2022-01-22T16:53:00","7","37.35938","-121.92444","15.0","SAN JOSE, CA US","FM-15","KSJC ","V020","999,9,C,0000,5","22000,5,9,N","016093,5,N,5","+0139,5","-0006,5","10208,5","01,0000,9,5",,,,,,,,,,,,,,,,,,,,,,,,,,"02,5,+02134,5,99,9","04,5,+04267,5,99,9","04,5,+06096,5,99,9","1,99,1,+02134,5,9","2,99,1,+04267,5,9","2,99,1,+06096,5,9","9,AGL   ,+99999,+99999","04,99,5,99,9,99,9,02134,1,99,9,99,9",,,,,,,,,,,"10210,5,10192,5",,,,,,,,,,"MET11301/22/22 08:53:02 METAR KSJC 221653Z 00000KT 10SM FEW070 SCT140 SCT200 14/M01 A3015 RMK AO2 SLP208 T01391006 (DR)","D01      0ADE726"
"72494523293","2022-01-22T17:53:00","7","37.35938","-121.92444","15.0","SAN JOSE, CA US","FM-15","KSJC ","V020","330,5,N,0021,5","06096,5,M,N","016093,5,N,5","+0156,5","-0017,5","10208,5","01,0000,9,5",,,,,,,,,,,,,,,,,,,,,,,,,,"02,5,+02134,5,99,9","02,5,+04267,5,99,9","07,5,+06096,5,99,9","1,99,1,+02134,5,9","1,99,1,+04267,5,9","3,99,1,+06096,5,9","9,AGL   ,+99999,+99999","99,99,9,99,9,99,9,02134,1,99,9,99,9","060,M,+0156,1","060,N,+0094,1",,,,,,,,,"10210,5,10192,5","1,9,010,9,+999,9",,,,,,,,,"MET13101/22/22 09:53:02 METAR KSJC 221753Z 33004KT 10SM FEW070 FEW140 BKN200 16/M02 A3015 RMK AO2 SLP208 T01561017 10156 20094 51010 (DR)",
"72494523293","2022-01-22T18:53:00","7","37.35938","-121.92444","15.0","SAN JOSE, CA US","FM-15","KSJC ","V020","350,5,N,0067,5","06096,5,M,N","016093,5,N,5","+0156,5","-0017,5","10203,5","01,0000,9,5",,,,,,,,,,,,,,,,,,,,,,,,,,"02,5,+02134,5,99,9","04,5,+04267,5,99,9","07,5,+06096,5,99,9","1,99,1,+02134,5,9","2,99,1,+04267,5,9","3,99,1,+06096,5,9","9,AGL   ,+99999,+99999","99,99,9,99,9,99,9,02134,1,99,9,99,9",,,,,,,,,,,"10203,5,10185,5",,,,,,,,,,"MET11301/22/22 10:53:02 METAR KSJC 221853Z 35013KT 10SM FEW070 SCT140 BKN200 16/M02 A3013 RMK AO2 SLP203 T01561017 (DR)",
"72494523293","2022-01-22T19:53:00","7","37.35938","-121.92444","15.0","SAN JOSE, CA US","FM-15","KSJC ","V020","330,5,N,0036,5","22000,5,9,N","016093,5,N,5","+0178,5","-0011,5","10188,5","01,0000,9,5",,,,,,,,,,,,,,,,,,,,,,,,,,"02,5,+02134,5,99,9","04,5,+04267,5,99,9","04,5,+06096,5,99,9","1,99,1,+02134,5,9","2,99,1,+04267,5,9","2,99,1,+06096,5,9","9,AGL   ,+99999,+99999","04,99,5,99,9,99,9,02134,1,99,9,99,9",,,,,,,,,,,"10190,5,10172,5",,,,,,,,,,"MET11301/22/22 11:53:02 METAR KSJC 221953Z 33007KT 10SM FEW070 SCT140 SCT200 18/M01 A3009 RMK AO2 SLP188 T01781011 (DR)","D01      0ADE726"
"72494523293","2022-01-22T20:53:00","7","37.35938","-121.92444","15.0","SAN JOSE, CA US","FM-15","KSJC ","V020","999,9,V,0015,5","22000,5,9,N","016093,5,N,5","+0178,5","-0011,5","10183,5","01,0000,9,5",,,,,,,,,,,,,,,,,,,,,,,,,,"02,5,+02438,5,99,9","02,5,+03658,5,99,9","02,5,+05486,5,99,9","1,99,1,+02438,5,9","1,99,1,+03658,5,9","1,99,1,+05486,5,9","9,AGL   ,+99999,+99999","02,99,5,99,9,99,9,02438,1,99,9,99,9",,,,,,,,,,,"10183,5,10165,5","6,9,025,9,+999,9",,,,,,,,,"MET11901/22/22 12:53:02 METAR KSJC 222053Z VRB03KT 10SM FEW080 FEW120 FEW180 18/M01 A3007 RMK AO2 SLP183 T01781011 56025 (DR)","D01      0ADE726"
"72494523293","2022-01-22T21:53:00","7","37.35938","-121.92444","15.0","SAN JOSE, CA US","FM-15","KSJC ","V020","999,9,C,0000,5","22000,5,9,N","016093,5,N,5","+0189,5","-0006,5","10181,5","01,0000,9,5",,,,,,,,,,,,,,,,,,,,,,,,,,"02,5,+02438,5,99,9","02,5,+03658,5,99,9","02,5,+05486,5,99,9","1,99,1,+02438,5,9","1,99,1,+03658,5,9","1,99,1,+05486,5,9","9,AGL   ,+99999,+99999","02,99,5,99,9,99,9,02438,1,99,9,99,9",,,,,,,,,,,"10183,5,10165,5",,,,,,,,,,"MET11301/22/22 13:53:02 METAR KSJC 222153Z 00000KT 10SM FEW080 FEW120 FEW180 19/M01 A3007 RMK AO2 SLP181 T01891006 (CN)","D01      0ADE726"
"72494523293","2022-01-22T22:53:00","7","37.35938","-121.92444","15.0","SAN JOSE, CA US","FM-15","KSJC ","V020","020,5,N,0021,5","22000,5,9,N","016093,5,N,5","+0194,5","-0006,5","10182,5","01,0000,9,5",,,,,,,,,,,,,,,,,,,,,,,,,,"02,5,+03658,5,99,9","02,5,+05486,5,99,9",,"1,99,1,+03658,5,9","1,99,1,+05486,5,9",,"9,AGL   ,+99999,+99999","02,99,5,99,9,99,9,03658,1,99,9,99,9",,,,,,,,,,,"10183,5,10165,5",,,,,,,,,,"MET10601/22/22 14:53:02 METAR KSJC 222253Z 02004KT 10SM FEW120 FEW180 19/M01 A3007 RMK AO2 SLP182 T01941006 (CN)","D01      0ADE726"
"72494523293","2022-01-22T23:53:00","7","37.35938","-121.92444","15.0","SAN JOSE, CA US","FM-15","KSJC ","V020","999,9,C,0000,5","22000,5,9,N","016093,5,N,5","+0200,5","-0006,5","10183,5","01,0000,9,5",,,,,,,,,,,,,,,,,,,,,,,,,,"02,5,+02134,5,99,9","02,5,+03658,5,99,9","02,5,+05486,5,99,9","1,99,1,+02134,5,9","1,99,1,+03658,5,9","1,99,1,+05486,5,9","9,AGL   ,+99999,+99999","02,99,5,99,9,99,9,02134,1,99,9,99,9","060,M,+0200,1","060,N,+0156,1",,,,,,,,,"10186,5,10168,5","3,9,000,9,+999,9",,,,,,,,,"MET13101/22/22 15:53:02 METAR KSJC 222353Z 00000KT 10SM FEW070 FEW120 FEW180 20/M01 A3008 RMK AO2 SLP183 T02001006 10200 20156 53000 (CN)","D01      0ADE726"
"72494523293","2022-01-23T00:53:00","7","37.35938","-121.92444","15.0","SAN JOSE, CA US","FM-15","KSJC ","V020","260,5,N,0021,5","22000,5,9,N","016093,5,N,5","+0178,5","-0011,5","10186,5","01,0000,2,5",,,,,,,,,,,,,,,,,,,,,,,,,,"02,5,+02134,5,99,9","02,5,+03658,5,99,9","02,5,+05486,5,99,9","1,99,1,+02134,5,9","1,99,1,+03658,5,9","1,99,1,+05486,5,9","9,AGL   ,+99999,+99999","02,99,5,99,9,99,9,02134,1,99,9,99,9",,,,,,,,,,,"10186,5,10168,5",,,,,,,,,,"MET10801/22/22 16:53:01 METAR KSJC 230053Z 26004KT 10SM FEW070 FEW120 FEW180 18/M01 A3008 RMK AO2 SLP186 T01781011","D01      0ADE726"
"72494523293","2022-01-23T01:53:00","7","37.35938","-121.92444","15.0","SAN JOSE, CA US","FM-15","KSJC ","V020","310,5,N,0031,5","22000,5,9,N","016093,5,N,5","+0128,5","+0022,5","10190,5","01,0000,9,5",,,,,,,,,,,,,,,,,,,,,,,,,,"02,5,+02134,5,99,9","02,5,+03658,5,99,9",,"1,99,1,+02134,5,9","1,99,1,+03658,5,9",,"9,AGL   ,+99999,+99999","02,99,5,99,9,99,9,02134,1,99,9,99,9",,,,,,,,,,,"10190,5,10172,5",,,,,,,,,,"MET10001/22/22 17:53:01 METAR KSJC 230153Z 31006KT 10SM FEW070 FEW120 13/02 A3009 RMK AO2 SLP190 T01280022","D01      0ADE726"
"72494523293","2022-01-23T02:53:00","7","37.35938","-121.92444","15.0","SAN JOSE, CA US","FM-15","KSJC ","V020","230,5,N,0026,5","22000,5,9,N","014484,5,N,5","+0133,5","+0022,5","10192,5","01,0000,9,5",,,,,,,,,,,,,,,,,,,,,,,,,,"02,5,+03658,5,99,9",,,"1,99,1,+03658,5,9",,,"9,AGL   ,+99999,+99999","02,99,5,99,9,99,9,03658,1,99,9,99,9",,,,,,,,,,,"10193,5,10175,5","2,9,008,9,+999,9",,,,,,,,,"MET09801/22/22 18:53:01 METAR KSJC 230253Z 23005KT 9SM FEW120 13/02 A3010 RMK AO2 SLP192 T01330022 52008","D01      0ADE726"
"72494523293","2022-01-23T03:53:00","7","37.35938","-121.92444","15.0","SAN JOSE, CA US","FM-15","KSJC ","V020","140,5,N,0036,5","22000,5,9,N","016093,5,N,5","+0106,5","+0017,5","10197,5","01,0000,9,5",,,,,,,,,,,,,,,,,,,,,,,,,,"00,5,+99999,9,99,9",,,"0,99,1,+99999,9,9",,,,"00,99,1,99,9,99,9,99999,9,99,9,99,9",,,,,,,,,,,"10200,5,10182,5",,,,,,,,,,"MET09001/22/22 19:53:01 METAR KSJC 230353Z 14007KT 10SM CLR 11/02 A3012 RMK AO2 SLP197 T01060017",
"72494523293","2022-01-23T04:53:00","7","37.35938","-121.92444","15.0","SAN JOSE, CA US","FM-15","KSJC ","V020","190,5,N,0021,5","22000,5,9,N","016093,5,N,5","+0111,5","+0017,5","10205,5","01,0000,9,5",,,,,,,,,,,,,,,,,,,,,,,,,,"00,5,+99999,9,99,9",,,"0,99,1,+99999,9,9",,,,"00,99,1,99,9,99,9,99999,9,99,9,99,9",,,,,,,,,,,"10207,5,10188,5",,,,,,,,,,"MET09001/22/22 20:53:02 METAR KSJC 230453Z 19004KT 10SM CLR 11/02 A3014 RMK AO2 SLP205 T01110017",
"72494523293","2022-01-23T05:53:00","7","37.35938","-121.92444","15.0","SAN JOSE, CA US","FM-15","KSJC ","V020","170,5,N,0031,5","22000,5,9,N","016093,5,N,5","+0100,5","+0017,5","10211,5","01,0000,9,5",,,,,,,,,,,,,,,,,,,,,,,,,,"00,5,+99999,9,99,9",,,"0,99,1,+99999,9,9",,,,"00,99,1,99,9,99,9,99999,9,99,9,99,9","060,M,+0200,1","060,N,+0094,1",,,,,,,,,"10213,5,10195,5","3,9,019,9,+999,9",,,,,,,,,"MET10801/22/22 21:53:02 METAR KSJC 230553Z 17006KT 10SM CLR 10/02 A3016 RMK AO2 SLP211 T01000017 10200 20094 53019",
"72494523293","2022-01-23T06:53:00","7","37.35938","-121.92444","15.0","SAN JOSE, CA US","FM-15","KSJC ","V020","140,5,N,0026,5","22000,5,9,N","016093,5,N,5","+0083,5","+0017,5","10216,5","01,0000,9,5",,,,,,,,,,,,,,,,,,,,,,,,,,"00,5,+99999,9,99,9",,,"0,99,1,+99999,9,9",,,,"00,99,1,99,9,99,9,99999,9,99,9,99,9",,,,,,,,,,,"10217,5,10199,5",,,,,,,,,,"MET09001/22/22 22:53:02 METAR KSJC 230653Z 14005KT 10SM CLR 08/02 A3017 RMK AO2 SLP216 T00830017",
"72494523293","2022-01-23T07:53:00","7","37.35938","-121.92444","15.0","SAN JOSE, CA US","FM-15","KSJC ","V020","160,5,N,0021,5","22000,5,9,N","016093,5,N,5","+0094,5","+0022,5","10219,5","01,0000,9,5",,,,,,,,,,,,,,,,,,,,,,,,,,"00,5,+99999,9,99,9",,,"0,99,1,+99999,9,9",,,,"00,99,1,99,9,99,9,99999,9,99,9,99,9","240,M,+0200,1","240,N,+0072,1",,,,,,,,,"10220,5,10202,5",,,,,,,,,,"MET10501/22/22 23:53:02 METAR KSJC 230753Z 16004KT 10SM CLR 09/02 A3018 RMK AO2 SLP219 LAST T00940022 402000072",
"72494523293","2022-01-23T07:59:00","6","37.35938","-121.92444","15.0","SAN JOSE, CA US","SOD  ","KSJC ","V020","999,9,9,9999,9","99999,9,9,9","999999,9,9,9","+9999,9","+9999,9","99999,9","24,0000,9,5",,,,,,,,,,,,,,,,,,,,,,,,,,,,,,,,,,"240,M,+0200,5","240,N,+0072,5",,,,,,,,,,,"10179,4,10179,4",,,,,"1,24,01386,010,9999,5","2,24,00894,350,9999,5","3,24,00300,999,9999,5","SOD69224 HR PRECIPITATION (IN): 0.00 24 HR MAX TEMP (F): 6824 HR MIN TEMP (F): 45AVERAGE STATION PRESSURE:30.060 MINIMUM SEA LEVEL PRESSURE:30.06 TIME OF OCCURRENCE:1446 PEAK WIND SPEED (MPH): 31 PEAK WIND DIR (DEG): 10 PEAK WIND TIME (LST):      FASTEST 2MIN SPEED (MPH): 20FASTEST 2MIN DIR (DEG):350 FASTEST 2MIN TIME (LST):     AVERAGE WIND SPEED (MPH): 6.7 24 HR AVG TEMP (F): 57DEPART FROM NORMAL:  6  HEATING DEGREE DAYS:  8 COOLING DEGREE DAYS:  0 LATEST DAY MAX TEMP (0700-1900 LST):68  LATEST NIGHT MIN TEMP(1900-0800 LST):49 HOURLY INCREMENTAL PRECIPITATION VALUES (IN):.00 0.00 0.00 0.00 0.00 0.00 0.00 0.00 0.00 0.00 0.00 0.00 0.00 0.00 0.00 0.00 T    0.00 0.00 0.00 0.00 0.00 0.00 0.00",
"72494523293","2022-01-23T08:53:00","7","37.35938","-121.92444","15.0","SAN JOSE, CA US","FM-15","KSJC ","V020","200,5,N,0015,5","22000,5,9,N","016093,5,N,5","+0072,5","+0011,5","10218,5","01,0000,9,5",,,,,,,,,,,,,,,,,,,,,,,,,,"00,5,+99999,9,99,9",,,"0,99,1,+99999,9,9",,,,"00,99,1,99,9,99,9,99999,9,99,9,99,9",,,,,,,,,,,"10220,5,10202,5","0,9,008,9,+999,9",,,,,,,,,"MET09601/23/22 00:53:02 METAR KSJC 230853Z 20003KT 10SM CLR 07/01 A3018 RMK AO2 SLP218 T00720011 50008",
"72494523293","2022-01-23T09:53:00","7","37.35938","-121.92444","15.0","SAN JOSE, CA US","FM-15","KSJC ","V020","999,9,C,0000,5","22000,5,9,N","016093,5,N,5","+0072,5","+0011,5","10224,5","01,0000,9,5",,,,,,,,,,,,,,,,,,,,,,,,,,"00,5,+99999,9,99,9",,,"0,99,1,+99999,9,9",,,,"00,99,1,99,9,99,9,99999,9,99,9,99,9",,,,,,,,,,,"10224,5,10205,5",,,,,,,,,,"MET09001/23/22 01:53:02 METAR KSJC 230953Z 00000KT 10SM CLR 07/01 A3019 RMK AO2 SLP224 T00720011",
"72494523293","2022-01-23T10:53:00","7","37.35938","-121.92444","15.0","SAN JOSE, CA US","FM-15","KSJC ","V020","220,5,N,0015,5","22000,5,9,N","016093,5,N,5","+0061,5","+0011,5","10231,5","01,0000,9,5",,,,,,,,,,,,,,,,,,,,,,,,,,"00,5,+99999,9,99,9",,,"0,99,1,+99999,9,9",,,,"00,99,1,99,9,99,9,99999,9,99,9,99,9",,,,,,,,,,,"10230,5,10212,5",,,,,,,,,,"MET09001/23/22 02:53:02 METAR KSJC 231053Z 22003KT 10SM CLR 06/01 A3021 RMK AO2 SLP231 T00610011",
"72494523293","2022-01-23T11:53:00","7","37.35938","-121.92444","15.0","SAN JOSE, CA US","FM-15","KSJC ","V020","160,5,N,0026,5","22000,5,9,N","016093,5,N,5","+0050,5","+0006,5","10232,5","01,0000,9,5",,,,,,,,,,,,,,,,,,,,,,,,,,"00,5,+99999,9,99,9",,,"0,99,1,+99999,9,9",,,,"00,99,1,99,9,99,9,99999,9,99,9,99,9","060,M,+0106,1","060,N,+0050,1",,,,,,,,,"10234,5,10216,5","1,9,014,9,+999,9",,,,,,,,,"MET10801/23/22 03:53:02 METAR KSJC 231153Z 16005KT 10SM CLR 05/01 A3022 RMK AO2 SLP232 T00500006 10106 20050 51014",
"72494523293","2022-01-23T12:53:00","7","37.35938","-121.92444","15.0","SAN JOSE, CA US","FM-15","KSJC ","V020","140,5,N,0021,5","22000,5,9,N","016093,5,N,5","+0039,5","+0000,5","10235,5","01,0000,9,5",,,,,,,,,,,,,,,,,,,,,,,,,,"00,5,+99999,9,99,9",,,"0,99,1,+99999,9,9",,,,"00,99,1,99,9,99,9,99999,9,99,9,99,9",,,,,,,,,,,"10237,5,10219,5",,,,,,,,,,"MET09001/23/22 04:53:02 METAR KSJC 231253Z 14004KT 10SM CLR 04/00 A3023 RMK AO2 SLP235 T00390000",
"72494523293","2022-01-23T13:53:00","7","37.35938","-121.92444","15.0","SAN JOSE, CA US","FM-15","KSJC ","V020","180,5,N,0015,5","22000,5,9,N","016093,5,N,5","+0050,5","+0006,5","10241,5","01,0000,9,5",,,,,,,,,,,,,,,,,,,,,,,,,,"02,5,+00122,5,99,9",,,"1,99,1,+00122,5,9",,,"9,AGL   ,+99999,+99999","02,99,5,99,9,99,9,00122,1,99,9,99,9",,,,,,,,,,,"10240,5,10222,5",,,,,,,,,,"MET09801/23/22 05:53:02 METAR KSJC 231353Z 18003KT 10SM FEW004 05/01 A3024 RMK AO2 SLP241 T00500006 (DR)","D01      0ADE726"
"72494523293","2022-01-23T14:53:00","7","37.35938","-121.92444","15.0","SAN JOSE, CA US","FM-15","KSJC ","V020","130,5,N,0015,5","22000,5,9,N","016093,5,N,5","+0044,5","+0006,5","10246,5","01,0000,9,5",,,,,,,,,,,,,,,,,,,,,,,,,,"02,5,+00152,5,99,9","02,5,+02134,5,99,9",,"1,99,1,+00152,5,9","1,99,1,+02134,5,9",,"9,AGL   ,+99999,+99999","02,99,5,99,9,99,9,00152,1,99,9,99,9",,,,,,,,,,,"10247,5,10229,5","3,9,013,9,+999,9",,,,,,,,,"MET11101/23/22 06:53:02 METAR KSJC 231453Z 13003KT 10SM FEW005 FEW070 04/01 A3026 RMK AO2 SLP246 T00440006 53013 (DR)","D01      0ADE726"
"72494523293","2022-01-23T15:53:00","7","37.35938","-121.92444","15.0","SAN JOSE, CA US","FM-15","KSJC ","V020","999,9,C,0000,5","22000,5,9,N","016093,5,N,5","+0050,5","+0011,5","10249,5","01,0000,9,5",,,,,,,,,,,,,,,,,,,,,,,,,,"02,5,+00183,5,99,9","02,5,+01829,5,99,9",,"1,99,1,+00183,5,9","1,99,1,+01829,5,9",,"9,AGL   ,+99999,+99999","02,99,5,99,9,99,9,00183,1,99,9,99,9",,,,,,,,,,,"10251,5,10232,5",,,,,,,,,,"MET10501/23/22 07:53:02 METAR KSJC 231553Z 00000KT 10SM FEW006 FEW060 05/01 A3027 RMK AO2 SLP249 T00500011 (DR)","D01      0ADE726"
"72494523293","2022-01-23T16:53:00","7","37.35938","-121.92444","15.0","SAN JOSE, CA US","FM-15","KSJC ","V020","160,5,N,0021,5","22000,5,9,N","016093,5,N,5","+0078,5","+0022,5","10251,5","01,0000,9,5",,,,,,,,,,,,,,,,,,,,,,,,,,"02,5,+00213,5,99,9","02,5,+01829,5,99,9",,"1,99,1,+00213,5,9","1,99,1,+01829,5,9",,"9,AGL   ,+99999,+99999","02,99,5,99,9,99,9,00213,1,99,9,99,9",,,,,,,,,,,"10254,5,10236,5",,,,,,,,,,"MET10501/23/22 08:53:02 METAR KSJC 231653Z 16004KT 10SM FEW007 FEW060 08/02 A3028 RMK AO2 SLP251 T00780022 (DR)","D01      0ADE726"
"72494523293","2022-01-23T17:53:00","7","37.35938","-121.92444","15.0","SAN JOSE, CA US","FM-15","KSJC ","V020","150,5,N,0015,5","22000,5,9,N","016093,5,N,5","+0111,5","+0028,5","10252,5","01,0000,9,5",,,,,,,,,,,,,,,,,,,,,,,,,,"02,5,+00305,5,99,9","02,5,+01829,5,99,9",,"1,99,1,+00305,5,9","1,99,1,+01829,5,9",,"9,AGL   ,+99999,+99999","02,99,5,99,9,99,9,00305,1,99,9,99,9","060,M,+0111,1","060,N,+0028,1",,,,,,,,,"10254,5,10236,5","1,9,006,9,+999,9",,,,,,,,,"MET12301/23/22 09:53:02 METAR KSJC 231753Z 15003KT 10SM FEW010 FEW060 11/03 A3028 RMK AO2 SLP252 T01110028 10111 20028 51006 (DR)","D01      0ADE726"
"72494523293","2022-01-23T18:53:00","7","37.35938","-121.92444","15.0","SAN JOSE, CA US","FM-15","KSJC ","V020","350,5,N,0026,5","22000,5,9,N","016093,5,N,5","+0139,5","+0022,5","10255,5","01,0000,9,5",,,,,,,,,,,,,,,,,,,,,,,,,,"02,5,+00305,5,99,9",,,"1,99,1,+00305,5,9",,,"9,AGL   ,+99999,+99999","02,99,5,99,9,99,9,00305,1,99,9,99,9",,,,,,,,,,,"10257,5,10239,5",,,,,,,,,,"MET09801/23/22 10:53:02 METAR KSJC 231853Z 35005KT 10SM FEW010 14/02 A3029 RMK AO2 SLP255 T01390022 (DR)","D01      0ADE726"
"72494523293","2022-01-23T19:53:00","7","37.35938","-121.92444","15.0","SAN JOSE, CA US","FM-15","KSJC ","V020","340,5,N,0026,5","22000,5,9,N","016093,5,N,5","+0156,5","+0044,5","10250,5","01,0000,9,5",,,,,,,,,,,,,,,,,,,,,,,,,,"02,5,+00305,5,99,9",,,"1,99,1,+00305,5,9",,,"9,AGL   ,+99999,+99999","02,99,5,99,9,99,9,00305,1,99,9,99,9",,,,,,,,,,,"10251,5,10232,5",,,,,,,,,,"MET09801/23/22 11:53:02 METAR KSJC 231953Z 34005KT 10SM FEW010 16/04 A3027 RMK AO2 SLP250 T01560044 (DR)","D01      0ADE726"
"72494523293","2022-01-23T20:53:00","7","37.35938","-121.92444","15.0","SAN JOSE, CA US","FM-15","KSJC ","V020","310,5,N,0026,5","22000,5,9,N","016093,5,N,5","+0167,5","+0050,5","10241,5","01,0000,9,5",,,,,,,,,,,,,,,,,,,,,,,,,,"02,5,+00335,5,99,9",,,"1,99,1,+00335,5,9",,,"9,AGL   ,+99999,+99999","02,99,5,99,9,99,9,00335,1,99,9,99,9",,,,,,,,,,,"10244,5,10226,5","8,9,010,9,+999,9",,,,,,,,,"MET10401/23/22 12:53:02 METAR KSJC 232053Z 31005KT 10SM FEW011 17/05 A3025 RMK AO2 SLP241 T01670050 58010 (DR)","D01      0ADE726"
"72494523293","2022-01-23T21:53:00","7","37.35938","-121.92444","15.0","SAN JOSE, CA US","FM-15","KSJC ","V020","320,5,N,0015,5","22000,5,9,N","016093,5,N,5","+0178,5","+0039,5","10235,5","01,0000,9,5",,,,,,,,,,,,,,,,,,,,,,,,,,"02,5,+00335,5,99,9",,,"1,99,1,+00335,5,9",,,"9,AGL   ,+99999,+99999","02,99,5,99,9,99,9,00335,1,99,9,99,9",,,,,,,,,,,"10237,5,10219,5",,,,,,,,,,"MET09801/23/22 13:53:02 METAR KSJC 232153Z 32003KT 10SM FEW011 18/04 A3023 RMK AO2 SLP235 T01780039 (CN)","D01      0ADE726"
"72494523293","2022-01-23T22:53:00","7","37.35938","-121.92444","15.0","SAN JOSE, CA US","FM-15","KSJC ","V020","310,5,N,0021,5","22000,5,9,N","016093,5,N,5","+0189,5","+0022,5","10233,5","01,0000,9,5",,,,,,,,,,,,,,,,,,,,,,,,,,"02,5,+00366,5,99,9",,,"1,99,1,+00366,5,9",,,"9,AGL   ,+99999,+99999","02,99,5,99,9,99,9,00366,1,99,9,99,9",,,,,,,,,,,"10234,5,10216,5",,,,,,,,,,"MET09801/23/22 14:53:02 METAR KSJC 232253Z 31004KT 10SM FEW012 19/02 A3022 RMK AO2 SLP233 T01890022 (CN)","D01      0ADE726"
"72494523293","2022-01-23T23:53:00","7","37.35938","-121.92444","15.0","SAN JOSE, CA US","FM-15","KSJC ","V020","350,5,N,0021,5","22000,5,9,N","016093,5,N,5","+0183,5","+0028,5","10230,5","01,0000,9,5",,,,,,,,,,,,,,,,,,,,,,,,,,"02,5,+00366,5,99,9",,,"1,99,1,+00366,5,9",,,"9,AGL   ,+99999,+99999","02,99,5,99,9,99,9,00366,1,99,9,99,9","060,M,+0189,1","060,N,+0111,1",,,,,,,,,"10230,5,10212,5","6,9,011,9,+999,9",,,,,,,,,"MET11601/23/22 15:53:02 METAR KSJC 232353Z 35004KT 10SM FEW012 18/03 A3021 RMK AO2 SLP230 T01830028 10189 20111 56011 (CN)","D01      0ADE726"
"72494523293","2022-01-24T00:28:00","7","37.35938","-121.92444","15.0","SAN JOSE, CA US","FM-16","KSJC ","V020","320,5,N,0021,5","22000,5,9,N","016093,5,N,5","+0172,5","+0044,5","99999,9",,,,,,,,,,,,,,,,,,,,,,,,,,,"02,5,+00061,5,99,9",,,"1,99,1,+00061,5,9",,,"9,AGL   ,+99999,+99999","02,99,5,99,9,99,9,00061,1,99,9,99,9",,,,,,,,,,,"10234,5,10216,5",,,,,,,,,,"MET09601/23/22 16:28:01 SPECI KSJC 240028Z 32004KT 10SM FEW002 17/04 A3022 RMK AO2 FU FEW002 T01720044","D01      0ADE726"
"72494523293","2022-01-24T00:53:00","7","37.35938","-121.92444","15.0","SAN JOSE, CA US","FM-15","KSJC ","V020","320,5,N,0015,5","22000,5,9,N","016093,5,N,5","+0161,5","+0028,5","10232,5","01,0000,9,5",,,,,,,,,,,,,,,,,,,,,,,,,,"02,5,+00091,5,99,9",,,"1,99,1,+00091,5,9",,,"9,AGL   ,+99999,+99999","02,99,5,99,9,99,9,00091,1,99,9,99,9",,,,,,,,,,,"10234,5,10216,5",,,,,,,,,,"MET10301/23/22 16:53:01 METAR KSJC 240053Z 32003KT 10SM FEW003 16/03 A3022 RMK AO2 SLP232 FU FEW003 T01610028","D01      0ADE726"
"72494523293","2022-01-24T01:53:00","7","37.35938","-121.92444","15.0","SAN JOSE, CA US","FM-15","KSJC ","V020","300,5,N,0015,5","22000,5,9,N","016093,5,N,5","+0133,5","+0039,5","10233,5","01,0000,9,5",,,,,,,,,,,,,,,,,,,,,,,,,,"02,5,+00305,5,99,9",,,"1,99,1,+00305,5,9",,,"9,AGL   ,+99999,+99999","02,99,5,99,9,99,9,00305,1,99,9,99,9",,,,,,,,,,,"10234,5,10216,5",,,,,,,,,,"MET10301/23/22 17:53:01 METAR KSJC 240153Z 30003KT 10SM FEW010 13/04 A3022 RMK AO2 SLP233 FU FEW010 T01330039","D01      0ADE726"
"72494523293","2022-01-24T02:53:00","7","37.35938","-121.92444","15.0","SAN JOSE, CA US","FM-15","KSJC ","V020","280,5,N,0015,5","22000,5,9,N","016093,5,N,5","+0122,5","+0044,5","10237,5","01,0000,9,5",,,,,,,,,,,,,,,,,,,,,,,,,,"00,5,+99999,9,99,9",,,"0,99,1,+99999,9,9",,,,"00,99,1,99,9,99,9,99999,9,99,9,99,9",,,,,,,,,,,"10237,5,10219,5","3,9,006,9,+999,9",,,,,,,,,"MET09601/23/22 18:53:01 METAR KSJC 240253Z 28003KT 10SM CLR 12/04 A3023 RMK AO2 SLP237 T01220044 53006",
"72494523293","2022-01-24T03:53:00","7","37.35938","-121.92444","15.0","SAN JOSE, CA US","FM-15","KSJC ","V020","999,9,C,0000,5","22000,5,9,N","016093,5,N,5","+0122,5","+0039,5","10236,5","01,0000,9,5",,,,,,,,,,,,,,,,,,,,,,,,,,"00,5,+99999,9,99,9",,,"0,99,1,+99999,9,9",,,,"00,99,1,99,9,99,9,99999,9,99,9,99,9",,,,,,,,,,,"10237,5,10219,5",,,,,,,,,,"MET09001/23/22 19:53:02 METAR KSJC 240353Z 00000KT 10SM CLR 12/04 A3023 RMK AO2 SLP236 T01220039",
"72494523293","2022-01-24T04:53:00","7","37.35938","-121.92444","15.0","SAN JOSE, CA US","FM-15","KSJC ","V020","999,9,C,0000,5","22000,5,9,N","016093,5,N,5","+0111,5","+0039,5","10239,5","01,0000,9,5",,,,,,,,,,,,,,,,,,,,,,,,,,"00,5,+99999,9,99,9",,,"0,99,1,+99999,9,9",,,,"00,99,1,99,9,99,9,99999,9,99,9,99,9",,,,,,,,,,,"10240,5,10222,5",,,,,,,,,,"MET09001/23/22 20:53:02 METAR KSJC 240453Z 00000KT 10SM CLR 11/04 A3024 RMK AO2 SLP239 T01110039",
"72494523293","2022-01-24T05:53:00","7","37.35938","-121.92444","15.0","SAN JOSE, CA US","FM-15","KSJC ","V020","160,5,N,0015,5","22000,5,9,N","016093,5,N,5","+0100,5","+0044,5","10240,5","01,0000,9,5",,,,,,,,,,,,,,,,,,,,,,,,,,"00,5,+99999,9,99,9",,,"0,99,1,+99999,9,9",,,,"00,99,1,99,9,99,9,99999,9,99,9,99,9","060,M,+0183,1","060,N,+0094,1",,,,,,,,,"10240,5,10222,5","3,9,003,9,+999,9",,,,,,,,,"MET10801/23/22 21:53:02 METAR KSJC 240553Z 16003KT 10SM CLR 10/04 A3024 RMK AO2 SLP240 T01000044 10183 20094 53003",
"72494523293","2022-01-24T06:53:00","7","37.35938","-121.92444","15.0","SAN JOSE, CA US","FM-15","KSJC ","V020","140,5,N,0021,5","22000,5,9,N","016093,5,N,5","+0089,5","+0039,5","10241,5","01,0000,9,5",,,,,,,,,,,,,,,,,,,,,,,,,,"02,5,+00762,5,99,9",,,"1,99,1,+00762,5,9",,,"9,AGL   ,+99999,+99999","02,99,5,99,9,99,9,00762,1,99,9,99,9",,,,,,,,,,,"10240,5,10222,5",,,,,,,,,,"MET09301/23/22 22:53:02 METAR KSJC 240653Z 14004KT 10SM FEW025 09/04 A3024 RMK AO2 SLP241 T00890039","D01      0ADE726"
"72494523293","2022-01-24T07:53:00","7","37.35938","-121.92444","15.0","SAN JOSE, CA US","FM-15","KSJC ","V020","140,5,N,0015,5","22000,5,9,N","016093,5,N,5","+0078,5","+0033,5","10239,5","01,0000,9,5",,,,,,,,,,,,,,,,,,,,,,,,,,"02,5,+00762,5,99,9",,,"1,99,1,+00762,5,9",,,"9,AGL   ,+99999,+99999","02,99,5,99,9,99,9,00762,1,99,9,99,9","240,M,+0189,1","240,N,+0028,1",,,,,,,,,"10240,5,10222,5",,,,,,,,,,"MET10801/23/22 23:53:02 METAR KSJC 240753Z 14003KT 10SM FEW025 08/03 A3024 RMK AO2 SLP239 LAST T00780033 401890028","D01      0ADE726"
"72494523293","2022-01-24T07:59:00","6","37.35938","-121.92444","15.0","SAN JOSE, CA US","SOD  ","KSJC ","V020","999,9,9,9999,9","99999,9,9,9","999999,9,9,9","+9999,9","+9999,9","99999,9","24,0000,9,5",,,,,,,,,,,,,,,,,,,,,,,,,,,,,,,,,,"240,M,+0189,5","240,N,+0028,5",,,,,,,,,,,"10220,4,10217,4",,,,,"1,24,00536,330,9999,5","2,24,00358,310,9999,5","3,24,00156,999,9999,5","SOD69224 HR PRECIPITATION (IN): 0.00 24 HR MAX TEMP (F): 6624 HR MIN TEMP (F): 37AVERAGE STATION PRESSURE:30.180 MINIMUM SEA LEVEL PRESSURE:30.17 TIME OF OCCURRENCE:0052 PEAK WIND SPEED (MPH): 12 PEAK WIND DIR (DEG):330 PEAK WIND TIME (LST):      FASTEST 2MIN SPEED (MPH):  8FASTEST 2MIN DIR (DEG):310 FASTEST 2MIN TIME (LST):     AVERAGE WIND SPEED (MPH): 3.5 24 HR AVG TEMP (F): 52DEPART FROM NORMAL:  1  HEATING DEGREE DAYS: 13 COOLING DEGREE DAYS:  0 LATEST DAY MAX TEMP (0700-1900 LST):66  LATEST NIGHT MIN TEMP(1900-0800 LST):37 HOURLY INCREMENTAL PRECIPITATION VALUES (IN):.00 0.00 0.00 0.00 0.00 0.00 0.00 0.00 0.00 0.00 0.00 0.00 0.00 0.00 0.00 0.00 0.00 0.00 0.00 0.00 0.00 0.00 0.00 0.00",
"72494523293","2022-01-24T08:53:00","7","37.35938","-121.92444","15.0","SAN JOSE, CA US","FM-15","KSJC ","V020","170,5,N,0015,5","22000,5,9,N","016093,5,N,5","+0067,5","+0028,5","10235,5","01,0000,9,5",,,,,,,,,,,,,,,,,,,,,,,,,,"00,5,+99999,9,99,9",,,"0,99,1,+99999,9,9",,,,"00,99,1,99,9,99,9,99999,9,99,9,99,9",,,,,,,,,,,"10237,5,10219,5","8,9,005,9,+999,9",,,,,,,,,"MET09601/24/22 00:53:02 METAR KSJC 240853Z 17003KT 10SM CLR 07/03 A3023 RMK AO2 SLP235 T00670028 58005",
"72494523293","2022-01-24T09:53:00","7","37.35938","-121.92444","15.0","SAN JOSE, CA US","FM-15","KSJC ","V020","999,9,C,0000,5","22000,5,9,N","016093,5,N,5","+0072,5","+0028,5","10233,5","01,0000,9,5",,,,,,,,,,,,,,,,,,,,,,,,,,"00,5,+99999,9,99,9",,,"0,99,1,+99999,9,9",,,,"00,99,1,99,9,99,9,99999,9,99,9,99,9",,,,,,,,,,,"10234,5,10216,5",,,,,,,,,,"MET09001/24/22 01:53:02 METAR KSJC 240953Z 00000KT 10SM CLR 07/03 A3022 RMK AO2 SLP233 T00720028",
"72494523293","2022-01-24T10:53:00","7","37.35938","-121.92444","15.0","SAN JOSE, CA US","FM-15","KSJC ","V020","150,5,N,0015,5","22000,5,9,N","016093,5,N,5","+0056,5","+0022,5","10231,5","01,0000,9,5",,,,,,,,,,,,,,,,,,,,,,,,,,"00,5,+99999,9,99,9",,,"0,99,1,+99999,9,9",,,,"00,99,1,99,9,99,9,99999,9,99,9,99,9",,,,,,,,,,,"10230,5,10212,5",,,,,,,,,,"MET09001/24/22 02:53:02 METAR KSJC 241053Z 15003KT 10SM CLR 06/02 A3021 RMK AO2 SLP231 T00560022",
"72494523293","2022-01-24T11:53:00","7","37.35938","-121.92444","15.0","SAN JOSE, CA US","FM-15","KSJC ","V020","140,5,N,0015,5","22000,5,9,N","016093,5,N,5","+0050,5","+0017,5","10225,5","01,0000,9,5",,,,,,,,,,,,,,,,,,,,,,,,,,"00,5,+99999,9,99,9",,,"0,99,1,+99999,9,9",,,,"00,99,1,99,9,99,9,99999,9,99,9,99,9","060,M,+0106,1","060,N,+0039,1",,,,,,,,,"10227,5,10209,5","8,9,010,9,+999,9",,,,,,,,,"MET10801/24/22 03:53:02 METAR KSJC 241153Z 14003KT 10SM CLR 05/02 A3020 RMK AO2 SLP225 T00500017 10106 20039 58010",
"72494523293","2022-01-24T12:53:00","7","37.35938","-121.92444","15.0","SAN JOSE, CA US","FM-15","KSJC ","V020","150,5,N,0021,5","22000,5,9,N","016093,5,N,5","+0050,5","+0017,5","10222,5","01,0000,9,5",,,,,,,,,,,,,,,,,,,,,,,,,,"00,5,+99999,9,99,9",,,"0,99,1,+99999,9,9",,,,"00,99,1,99,9,99,9,99999,9,99,9,99,9",,,,,,,,,,,"10224,5,10205,5",,,,,,,,,,"MET09001/24/22 04:53:02 METAR KSJC 241253Z 15004KT 10SM CLR 05/02 A3019 RMK AO2 SLP222 T00500017",
"72494523293","2022-01-24T13:53:00","7","37.35938","-121.92444","15.0","SAN JOSE, CA US","FM-15","KSJC ","V020","170,5,N,0021,5","22000,5,9,N","016093,5,N,5","+0050,5","+0017,5","10220,5","01,0000,9,5",,,,,,,,,,,,,,,,,,,,,,,,,,"00,5,+99999,9,99,9",,,"0,99,1,+99999,9,9",,,,"00,99,1,99,9,99,9,99999,9,99,9,99,9",,,,,,,,,,,"10220,5,10202,5",,,,,,,,,,"MET09501/24/22 05:53:02 METAR KSJC 241353Z 17004KT 10SM CLR 05/02 A3018 RMK AO2 SLP220 T00500017 (TC)",
"72494523293","2022-01-24T14:53:00","7","37.35938","-121.92444","15.0","SAN JOSE, CA US","FM-15","KSJC ","V020","140,5,N,0015,5","22000,5,9,N","016093,5,N,5","+0039,5","+0011,5","10220,5","01,0000,9,5",,,,,,,,,,,,,,,,,,,,,,,,,,"00,5,+99999,9,99,9",,,"0,99,1,+99999,9,9",,,,"00,99,1,99,9,99,9,99999,9,99,9,99,9",,,,,,,,,,,"10220,5,10202,5","5,9,005,9,+999,9",,,,,,,,,"MET10101/24/22 06:53:02 METAR KSJC 241453Z 14003KT 10SM CLR 04/01 A3018 RMK AO2 SLP220 T00390011 55005 (TC)",
"72494523293","2022-01-24T15:53:00","7","37.35938","-121.92444","15.0","SAN JOSE, CA US","FM-15","KSJC ","V020","999,9,C,0000,5","22000,5,9,N","016093,5,N,5","+0056,5","+0022,5","10222,5","01,0000,9,5",,,,,,,,,,,,,,,,,,,,,,,,,,"00,5,+99999,9,99,9",,,"0,99,1,+99999,9,9",,,,"00,99,1,99,9,99,9,99999,9,99,9,99,9",,,,,,,,,,,"10224,5,10205,5",,,,,,,,,,"MET09501/24/22 07:53:02 METAR KSJC 241553Z 00000KT 10SM CLR 06/02 A3019 RMK AO2 SLP222 T00560022 (TC)",
"72494523293","2022-01-24T16:53:00","7","37.35938","-121.92444","15.0","SAN JOSE, CA US","FM-15","KSJC ","V020","999,9,C,0000,5","22000,5,9,N","012875,5,N,5","+0078,5","+0044,5","10224,5","01,0000,9,5",,,,,,,,,,,,,,,,,,,,,,,,,,"00,5,+99999,9,99,9",,,"0,99,1,+99999,9,9",,,,"00,99,1,99,9,99,9,99999,9,99,9,99,9",,,,,,,,,,,"10224,5,10205,5",,,,,,,,,,"MET09401/24/22 08:53:02 METAR KSJC 241653Z 00000KT 8SM CLR 08/04 A3019 RMK AO2 SLP224 T00780044 (TC)",
"72494523293","2022-01-24T17:53:00","7","37.35938","-121.92444","15.0","SAN JOSE, CA US","FM-15","KSJC ","V020","999,9,C,0000,5","22000,5,9,N","012875,5,N,5","+0111,5","+0050,5","10221,5","01,0000,9,5",,,,,,,,,,,,,,,,,,,,,,,,,,"00,5,+99999,9,99,9",,,"0,99,1,+99999,9,9",,,,"00,99,1,99,9,99,9,99999,9,99,9,99,9","060,M,+0111,1","060,N,+0017,1",,,,,,,,,"10224,5,10205,5","0,9,001,9,+999,9",,,,,,,,,"MET11201/24/22 09:53:02 METAR KSJC 241753Z 00000KT 8SM CLR 11/05 A3019 RMK AO2 SLP221 T01110050 10111 20017 50001 (TC)",
"72494523293","2022-01-24T18:53:00","7","37.35938","-121.92444","15.0","SAN JOSE, CA US","FM-15","KSJC ","V020","190,5,N,0015,5","22000,5,9,N","014484,5,N,5","+0139,5","+0056,5","10219,5","01,0000,9,5",,,,,,,,,,,,,,,,,,,,,,,,,,"00,5,+99999,9,99,9",,,"0,99,1,+99999,9,9",,,,"00,99,1,99,9,99,9,99999,9,99,9,99,9",,,,,,,,,,,"10220,5,10202,5",,,,,,,,,,"MET09401/24/22 10:53:02 METAR KSJC 241853Z 19003KT 9SM CLR 14/06 A3018 RMK AO2 SLP219 T01390056 (TC)",
"72494523293","2022-01-24T19:53:00","7","37.35938","-121.92444","15.0","SAN JOSE, CA US","FM-15","KSJC ","V020","999,9,C,0000,5","22000,5,9,N","014484,5,N,5","+0167,5","+0039,5","10211,5","01,0000,9,5",,,,,,,,,,,,,,,,,,,,,,,,,,"02,5,+00914,5,99,9",,,"1,99,1,+00914,5,9",,,"9,AGL   ,+99999,+99999","02,99,5,99,9,99,9,00914,1,99,9,99,9",,,,,,,,,,,"10213,5,10195,5",,,,,,,,,,"MET09701/24/22 11:53:02 METAR KSJC 241953Z 00000KT 9SM FEW030 17/04 A3016 RMK AO2 SLP211 T01670039 (TC)","D01      0ADE726"
"72494523293","2022-01-24T20:53:00","7","37.35938","-121.92444","15.0","SAN JOSE, CA US","FM-15","KSJC ","V020","999,9,V,0021,5","22000,5,9,N","016093,5,N,5","+0172,5","+0039,5","10198,5","01,0000,9,5",,,,,,,,,,,,,,,,,,,,,,,,,,"02,5,+02438,5,99,9",,,"1,99,1,+02438,5,9",,,"9,AGL   ,+99999,+99999","02,99,5,99,9,99,9,02438,1,99,9,99,9",,,,,,,,,,,"10200,5,10182,5","8,9,024,9,+999,9",,,,,,,,,"MET10401/24/22 12:53:02 METAR KSJC 242053Z VRB04KT 10SM FEW080 17/04 A3012 RMK AO2 SLP198 T01720039 58024 (TC)","D01      0ADE726"
"72494523293","2022-01-24T21:53:00","7","37.35938","-121.92444","15.0","SAN JOSE, CA US","FM-15","KSJC ","V020","330,5,N,0031,5","22000,5,9,N","016093,5,N,5","+0183,5","+0033,5","10192,5","01,0000,9,5",,,,,,,,,,,,,,,,,,,,,,,,,,"02,5,+02438,5,99,9",,,"1,99,1,+02438,5,9",,,"9,AGL   ,+99999,+99999","02,99,5,99,9,99,9,02438,1,99,9,99,9",,,,,,,,,,,"10193,5,10175,5",,,,,,,,,,"MET09801/24/22 13:53:02 METAR KSJC 242153Z 33006KT 10SM FEW080 18/03 A3010 RMK AO2 SLP192 T01830033 (JK)","D01      0ADE726"
"72494523293","2022-01-24T22:53:00","7","37.35938","-121.92444","15.0","SAN JOSE, CA US","FM-15","KSJC ","V020","340,5,N,0036,5","22000,5,9,N","016093,5,N,5","+0178,5","+0039,5","10187,5","01,0000,9,5",,,,,,,,,,,,,,,,,,,,,,,,,,"02,5,+02438,5,99,9",,,"1,99,1,+02438,5,9",,,"9,AGL   ,+99999,+99999","02,99,5,99,9,99,9,02438,1,99,9,99,9",,,,,,,,,,,"10186,5,10168,5",,,,,,,,,,"MET09801/24/22 14:53:02 METAR KSJC 242253Z 34007KT 10SM FEW080 18/04 A3008 RMK AO2 SLP187 T01780039 (JK)","D01      0ADE726"
"72494523293","2022-01-24T23:53:00","7","37.35938","-121.92444","15.0","SAN JOSE, CA US","FM-15","KSJC ","V020","330,5,N,0041,5","22000,5,9,N","016093,5,N,5","+0167,5","+0061,5","10184,5","01,0000,9,5",,,,,,,,,,,,,,,,,,,,,,,,,,"02,5,+02438,5,99,9",,,"1,99,1,+02438,5,9",,,"9,AGL   ,+99999,+99999","02,99,5,99,9,99,9,02438,1,99,9,99,9","060,M,+0183,1","060,N,+0111,1",,,,,,,,,"10186,5,10168,5","6,9,013,9,+999,9",,,,,,,,,"MET11601/24/22 15:53:02 METAR KSJC 242353Z 33008KT 10SM FEW080 17/06 A3008 RMK AO2 SLP184 T01670061 10183 20111 56013 (JK)","D01      0ADE726"
"72494523293","2022-01-25T00:53:00","7","37.35938","-121.92444","15.0","SAN JOSE, CA US","FM-15","KSJC ","V020","330,5,N,0046,5","22000,5,9,N","016093,5,N,5","+0144,5","+0072,5","10183,5","01,0000,9,5",,,,,,,,,,,,,,,,,,,,,,,,,,"02,5,+02438,5,99,9",,,"1,99,1,+02438,5,9",,,"9,AGL   ,+99999,+99999","02,99,5,99,9,99,9,02438,1,99,9,99,9",,,,,,,,,,,"10186,5,10168,5",,,,,,,,,,"MET09301/24/22 16:53:01 METAR KSJC 250053Z 33009KT 10SM FEW080 14/07 A3008 RMK AO2 SLP183 T01440072","D01      0ADE726"
"72494523293","2022-01-25T01:53:00","7","37.35938","-121.92444","15.0","SAN JOSE, CA US","FM-15","KSJC ","V020","320,5,N,0041,5","22000,5,9,N","016093,5,N,5","+0117,5","+0083,5","10182,5","01,0000,9,5",,,,,,,,,,,,,,,,,,,,,,,,,,"02,5,+02438,5,99,9",,,"1,99,1,+02438,5,9",,,"9,AGL   ,+99999,+99999","02,99,5,99,9,99,9,02438,1,99,9,99,9",,,,,,,,,,,"10183,5,10165,5",,,,,,,,,,"MET09301/24/22 17:53:01 METAR KSJC 250153Z 32008KT 10SM FEW080 12/08 A3007 RMK AO2 SLP182 T01170083","D01      0ADE726"
"72494523293","2022-01-25T02:53:00","7","37.35938","-121.92444","15.0","SAN JOSE, CA US","FM-15","KSJC ","V020","340,5,N,0031,5","22000,5,9,N","016093,5,N,5","+0111,5","+0083,5","10186,5","01,0000,9,5",,,,,,,,,,,,,,,,,,,,,,,,,,"00,5,+99999,9,99,9",,,"0,99,1,+99999,9,9",,,,"00,99,1,99,9,99,9,99999,9,99,9,99,9",,,,,,,,,,,"10186,5,10168,5","3,9,002,9,+999,9",,,,,,,,,"MET09601/24/22 18:53:01 METAR KSJC 250253Z 34006KT 10SM CLR 11/08 A3008 RMK AO2 SLP186 T01110083 53002",
"72494523293","2022-01-25T03:53:00","7","37.35938","-121.92444","15.0","SAN JOSE, CA US","FM-15","KSJC ","V020","360,5,N,0031,5","22000,5,9,N","016093,5,N,5","+0106,5","+0083,5","10188,5","01,0000,9,5",,,,,,,,,,,,,,,,,,,,,,,,,,"00,5,+99999,9,99,9",,,"0,99,1,+99999,9,9",,,,"00,99,1,99,9,99,9,99999,9,99,9,99,9",,,,,,,,,,,"10190,5,10172,5",,,,,,,,,,"MET09001/24/22 19:53:02 METAR KSJC 250353Z 36006KT 10SM CLR 11/08 A3009 RMK AO2 SLP188 T01060083",
"72494523293","2022-01-25T04:53:00","7","37.35938","-121.92444","15.0","SAN JOSE, CA US","FM-15","KSJC ","V020","350,5,N,0021,5","22000,5,9,N","014484,5,N,5","+0106,5","+0083,5","10190,5","01,0000,9,5",,,,,,,,,,,,,,,,,,,,,,,,,,"00,5,+99999,9,99,9",,,"0,99,1,+99999,9,9",,,,"00,99,1,99,9,99,9,99999,9,99,9,99,9",,,,,,,,,,,"10193,5,10175,5",,,,,,,,,,"MET08901/24/22 20:53:02 METAR KSJC 250453Z 35004KT 9SM CLR 11/08 A3010 RMK AO2 SLP190 T01060083",
"72494523293","2022-01-25T05:53:00","7","37.35938","-121.92444","15.0","SAN JOSE, CA US","FM-15","KSJC ","V020","180,5,N,0015,5","22000,5,9,N","012875,5,N,5","+0094,5","+0072,5","10188,5","01,0000,9,5",,,,,,,,,,,,,,,,,,,,,,,,,,"00,5,+99999,9,99,9",,,"0,99,1,+99999,9,9",,,,"00,99,1,99,9,99,9,99999,9,99,9,99,9","060,M,+0167,1","060,N,+0089,1",,,,,,,,,"10190,5,10172,5","0,9,001,9,+999,9",,,,,,,,,"MET10701/24/22 21:53:02 METAR KSJC 250553Z 18003KT 8SM CLR 09/07 A3009 RMK AO2 SLP188 T00940072 10167 20089 50001",
"72494523293","2022-01-25T06:53:00","7","37.35938","-121.92444","15.0","SAN JOSE, CA US","FM-15","KSJC ","V020","999,9,C,0000,5","22000,5,9,N","009656,5,N,5","+0089,5","+0072,5","10187,5","01,0000,9,5",,,,,,,,,,,,,,,,,,,,"0,0,00,1,0,1,5","10,5",,,,,"00,5,+99999,9,99,9",,,"0,99,1,+99999,9,9",,,,"00,99,1,99,9,99,9,99999,9,99,9,99,9",,,,,,,,,,,"10186,5,10168,5",,,,,,,,,,"MET09201/24/22 22:53:02 METAR KSJC 250653Z 00000KT 6SM BR CLR 09/07 A3008 RMK AO2 SLP187 T00890072",
"72494523293","2022-01-25T07:53:00","7","37.35938","-121.92444","15.0","SAN JOSE, CA US","FM-15","KSJC ","V020","999,9,C,0000,5","22000,5,9,N","012875,5,N,5","+0072,5","+0056,5","10188,5","01,0000,9,5",,,,,,,,,,,,,,,,,,,,,,,,,,"00,5,+99999,9,99,9",,,"0,99,1,+99999,9,9",,,,"00,99,1,99,9,99,9,99999,9,99,9,99,9","240,M,+0183,1","240,N,+0017,1",,,,,,,,,"10190,5,10172,5",,,,,,,,,,"MET10401/24/22 23:53:02 METAR KSJC 250753Z 00000KT 8SM CLR 07/06 A3009 RMK AO2 SLP188 LAST T00720056 401830017",
"72494523293","2022-01-25T07:59:00","6","37.35938","-121.92444","15.0","SAN JOSE, CA US","SOD  ","KSJC ","V020","999,9,9,9999,9","99999,9,9,9","999999,9,9,9","+9999,9","+9999,9","99999,9","24,0000,9,5",,,,,,,,,,,,,,,,,"AU,13,BR  ,5",,,,,"01,6,24,6","08,6,24,6",,,,,,,,,,,"240,M,+0183,5","240,N,+0017,5",,,,,,,,,,,"10186,4,10179,4",,,,,"1,24,00760,320,9999,5","2,24,00626,330,9999,5","3,24,00179,999,9999,5","SOD71024 HR PRECIPITATION (IN): 0.00 WEATHER(CODE):18  24 HR MAX TEMP (F): 6524 HR MIN TEMP (F): 35AVERAGE STATION PRESSURE:30.080 MINIMUM SEA LEVEL PRESSURE:30.06 TIME OF OCCURRENCE:1747 PEAK WIND SPEED (MPH): 17 PEAK WIND DIR (DEG):320 PEAK WIND TIME (LST):      FASTEST 2MIN SPEED (MPH): 14FASTEST 2MIN DIR (DEG):330 FASTEST 2MIN TIME (LST):     AVERAGE WIND SPEED (MPH): 4.0 24 HR AVG TEMP (F): 50DEPART FROM NORMAL: -1  HEATING DEGREE DAYS: 15 COOLING DEGREE DAYS:  0 LATEST DAY MAX TEMP (0700-1900 LST):65  LATEST NIGHT MIN TEMP(1900-0800 LST):35 HOURLY INCREMENTAL PRECIPITATION VALUES (IN):.00 0.00 0.00 0.00 0.00 0.00 0.00 0.00 0.00 0.00 0.00 0.00 0.00 0.00 0.00 0.00 0.00 0.00 0.00 0.00 0.00 0.00 0.00 0.00","R01    187AXW093R02    187AXW093"
"72494523293","2022-01-25T08:53:00","7","37.35938","-121.92444","15.0","SAN JOSE, CA US","FM-15","KSJC ","V020","999,9,C,0000,5","22000,5,9,N","012875,5,N,5","+0067,5","+0044,5","10185,5","01,0000,9,5",,,,,,,,,,,,,,,,,,,,,,,,,,"00,5,+99999,9,99,9",,,"0,99,1,+99999,9,9",,,,"00,99,1,99,9,99,9,99999,9,99,9,99,9",,,,,,,,,,,"10186,5,10168,5","8,9,003,9,+999,9",,,,,,,,,"MET09501/25/22 00:53:02 METAR KSJC 250853Z 00000KT 8SM CLR 07/04 A3008 RMK AO2 SLP185 T00670044 58003",
"72494523293","2022-01-25T09:53:00","7","37.35938","-121.92444","15.0","SAN JOSE, CA US","FM-15","KSJC ","V020","999,9,C,0000,5","22000,5,9,N","016093,5,N,5","+0056,5","+0033,5","10185,5","01,0000,9,5",,,,,,,,,,,,,,,,,,,,,,,,,,"00,5,+99999,9,99,9",,,"0,99,1,+99999,9,9",,,,"00,99,1,99,9,99,9,99999,9,99,9,99,9",,,,,,,,,,,"10186,5,10168,5",,,,,,,,,,"MET09001/25/22 01:53:02 METAR KSJC 250953Z 00000KT 10SM CLR 06/03 A3008 RMK AO2 SLP185 T00560033",
"72494523293","2022-01-25T10:53:00","7","37.35938","-121.92444","15.0","SAN JOSE, CA US","FM-15","KSJC ","V020","999,9,C,0000,5","22000,5,9,N","016093,5,N,5","+0061,5","+0033,5","10181,5","01,0000,9,5",,,,,,,,,,,,,,,,,,,,,,,,,,"00,5,+99999,9,99,9",,,"0,99,1,+99999,9,9",,,,"00,99,1,99,9,99,9,99999,9,99,9,99,9",,,,,,,,,,,"10183,5,10165,5",,,,,,,,,,"MET09001/25/22 02:53:02 METAR KSJC 251053Z 00000KT 10SM CLR 06/03 A3007 RMK AO2 SLP181 T00610033",
"72494523293","2022-01-25T11:53:00","7","37.35938","-121.92444","15.0","SAN JOSE, CA US","FM-15","KSJC ","V020","160,5,N,0015,5","22000,5,9,N","014484,5,N,5","+0050,5","+0033,5","10177,5","01,0000,9,5",,,,,,,,,,,,,,,,,,,,,,,,,,"00,5,+99999,9,99,9",,,"0,99,1,+99999,9,9",,,,"00,99,1,99,9,99,9,99999,9,99,9,99,9","060,M,+0100,1","060,N,+0044,1",,,,,,,,,"10179,5,10161,5","8,9,008,9,+999,9",,,,,,,,,"MET10701/25/22 03:53:02 METAR KSJC 251153Z 16003KT 9SM CLR 05/03 A3006 RMK AO2 SLP177 T00500033 10100 20044 58008",
"72494523293","2022-01-25T12:53:00","7","37.35938","-121.92444","15.0","SAN JOSE, CA US","FM-15","KSJC ","V020","999,9,C,0000,5","22000,5,9,N","016093,5,N,5","+0050,5","+0028,5","10178,5","01,0000,9,5",,,,,,,,,,,,,,,,,,,,,,,,,,"00,5,+99999,9,99,9",,,"0,99,1,+99999,9,9",,,,"00,99,1,99,9,99,9,99999,9,99,9,99,9",,,,,,,,,,,"10179,5,10161,5",,,,,,,,,,"MET09001/25/22 04:53:02 METAR KSJC 251253Z 00000KT 10SM CLR 05/03 A3006 RMK AO2 SLP178 T00500028",
"72494523293","2022-01-25T13:53:00","7","37.35938","-121.92444","15.0","SAN JOSE, CA US","FM-15","KSJC ","V020","080,5,N,0015,5","22000,5,9,N","016093,5,N,5","+0050,5","+0028,5","10180,5","01,0000,9,5",,,,,,,,,,,,,,,,,,,,,,,,,,"02,5,+00305,5,99,9",,,"1,99,1,+00305,5,9",,,"9,AGL   ,+99999,+99999","99,99,9,99,9,99,9,00305,1,99,9,99,9",,,,,,,,,,,"10179,5,10161,5",,,,,,,,,,"MET09801/25/22 05:53:02 METAR KSJC 251353Z 08003KT 10SM FEW010 05/03 A3006 RMK AO2 SLP180 T00500028 (TC)",
"72494523293","2022-01-25T14:36:00","7","37.35938","-121.92444","15.0","SAN JOSE, CA US","FM-16","KSJC ","V020","999,9,C,0000,5","00335,5,M,N","004828,5,N,5","+0050,5","+0028,5","99999,9",,,,,,,,,,,,,,,,,,,,,"0,0,00,1,0,1,5","10,5",,,,,"04,5,+00274,5,99,9","07,5,+00335,5,99,9",,"2,99,1,+00274,5,9","3,99,1,+00335,5,9",,"9,AGL   ,+99999,+99999","99,99,9,99,9,99,9,00274,1,99,9,99,9",,,,,,,,,,,"10183,5,10165,5",,,,,,,,,,"MET10001/25/22 06:36:02 SPECI KSJC 251436Z 00000KT 3SM BR SCT009 BKN011 05/03 A3007 RMK AO2 T00500028 (TC)",
"72494523293","2022-01-25T14:53:00","7","37.35938","-121.92444","15.0","SAN JOSE, CA US","FM-15","KSJC ","V020","200,5,N,0015,5","00274,5,M,N","009656,5,N,5","+0044,5","+0028,5","10183,5","01,0000,9,5",,,,,,,,,,,,,,,,,,,,"0,0,00,1,0,1,5","10,5",,,,,"10,5,+00000,5,99,9","07,5,+00274,5,99,9","08,5,+00335,5,99,9","6,99,1,+00000,5,9","3,99,1,+00274,5,9","4,99,1,+00335,5,9","9,AGL   ,+99999,+99999","99,99,9,99,9,99,9,00000,1,99,9,99,9",,,,,,,,,,,"10183,5,10165,5","3,9,005,9,+999,9",,,,,,,,,"MET12001/25/22 06:53:02 METAR KSJC 251453Z 20003KT 6SM BR FEW000 BKN009 OVC011 04/03 A3007 RMK AO2 SLP183 T00440028 53005 (TC)",
"72494523293","2022-01-25T15:53:00","7","37.35938","-121.92444","15.0","SAN JOSE, CA US","FM-15","KSJC ","V020","130,5,N,0015,5","00274,5,M,N","009656,5,N,5","+0056,5","+0039,5","10186,5","01,0000,9,5",,,,,,,,,,,,,,,,,,,,"0,0,00,1,0,1,5","10,5",,,,,"10,5,+00000,5,99,9","07,5,+00274,5,99,9","08,5,+00335,5,99,9","6,99,1,+00000,5,9","3,99,1,+00274,5,9","4,99,1,+00335,5,9","9,AGL   ,+99999,+99999","99,99,9,99,9,99,9,00000,1,99,9,99,9",,,,,,,,,,,"10186,5,10168,5",,,,,,,,,,"MET11401/25/22 07:53:02 METAR KSJC 251553Z 13003KT 6SM BR FEW000 BKN009 OVC011 06/04 A3008 RMK AO2 SLP186 T00560039 (TC)",
"72494523293","2022-01-25T16:53:00","7","37.35938","-121.92444","15.0","SAN JOSE, CA US","FM-15","KSJC ","V020","999,9,C,0000,5","00213,5,M,N","009656,5,N,5","+0072,5","+0050,5","10187,5","01,0000,9,5",,,,,,,,,,,,,,,,,,,,"0,0,00,1,0,1,5","10,5",,,,,"10,5,+00000,5,99,9","07,5,+00213,5,99,9","08,5,+00305,5,99,9","6,99,1,+00000,5,9","3,99,1,+00213,5,9","4,99,1,+00305,5,9","9,AGL   ,+99999,+99999","99,99,9,99,9,99,9,00000,1,99,9,99,9",,,,,,,,,,,"10190,5,10172,5",,,,,,,,,,"MET11401/25/22 08:53:02 METAR KSJC 251653Z 00000KT 6SM BR FEW000 BKN007 OVC010 07/05 A3009 RMK AO2 SLP187 T00720050 (TC)",
"72494523293","2022-01-25T17:53:00","7","37.35938","-121.92444","15.0","SAN JOSE, CA US","FM-15","KSJC ","V020","999,9,C,0000,5","00213,5,M,N","009656,5,N,5","+0089,5","+0072,5","10190,5","01,0000,9,5",,,,,,,,,,,,,,,,,,,,"0,0,00,1,0,1,5","10,5",,,,,"10,5,+00000,5,99,9","07,5,+00213,5,99,9","08,5,+00305,5,99,9","6,99,1,+00000,5,9","3,99,1,+00213,5,9","4,99,1,+00305,5,9","9,AGL   ,+99999,+99999","99,99,9,99,9,99,9,00000,1,99,9,99,9","060,M,+0089,1","060,N,+0033,1",,,,,,,,,"10190,5,10172,5","2,9,007,9,+999,9",,,,,,,,,"MET13201/25/22 09:53:02 METAR KSJC 251753Z 00000KT 6SM BR FEW000 BKN007 OVC010 09/07 A3009 RMK AO2 SLP190 T00890072 10089 20033 52007 (TC)",
"72494523293","2022-01-25T18:48:00","7","37.35938","-121.92444","15.0","SAN JOSE, CA US","FM-16","KSJC ","V020","110,5,N,0015,5","22000,5,9,N","008047,5,N,5","+0090,5","+0070,5","99999,9",,,,,,,,,,,,,,,,,,,,,"0,0,00,1,0,1,5","10,5",,,,,"10,5,+00000,5,99,9","02,5,+00213,5,99,9","04,5,+00274,5,99,9","6,99,1,+00000,5,9","1,99,1,+00213,5,9","2,99,1,+00274,5,9","9,AGL   ,+99999,+99999","99,99,9,99,9,99,9,00000,1,99,9,99,9",,,,,,,,,,,"10190,5,10172,5",,,,,,,,,,"MET09701/25/22 10:48:02 SPECI KSJC 251848Z 11003KT 5SM BR FEW000 FEW007 SCT009 09/07 A3009 RMK AO2 (TC)",
"72494523293","2022-01-25T18:53:00","7","37.35938","-121.92444","15.0","SAN JOSE, CA US","FM-15","KSJC ","V020","999,9,C,0000,5","22000,5,9,N","008047,5,N,5","+0100,5","+0078,5","10187,5","01,0000,9,5",,,,,,,,,,,,,,,,,,,,"0,0,00,1,0,1,5","10,5",,,,,"10,5,+00000,5,99,9","02,5,+00244,5,99,9",,"6,99,1,+00000,5,9","1,99,1,+00244,5,9",,"9,AGL   ,+99999,+99999","99,99,9,99,9,99,9,00000,1,99,9,99,9",,,,,,,,,,,"10190,5,10172,5",,,,,,,,,,"MET10701/25/22 10:53:02 METAR KSJC 251853Z 00000KT 5SM BR FEW000 FEW008 10/08 A3009 RMK AO2 SLP187 T01000078 (TC)",
"72494523293","2022-01-25T19:53:00","7","37.35938","-121.92444","15.0","SAN JOSE, CA US","FM-15","KSJC ","V020","999,9,V,0015,5","22000,5,9,N","011265,5,N,5","+0128,5","+0083,5","10175,5","01,0000,9,5",,,,,,,,,,,,,,,,,,,,,,,,,,"10,5,+00000,5,99,9","02,5,+00457,5,99,9",,"6,99,1,+00000,5,9","1,99,1,+00457,5,9",,"9,AGL   ,+99999,+99999","99,99,9,99,9,99,9,00000,1,99,9,99,9",,,,,,,,,,,"10176,5,10158,5",,,,,,,,,,"MET10401/25/22 11:53:02 METAR KSJC 251953Z VRB03KT 7SM FEW000 FEW015 13/08 A3005 RMK AO2 SLP175 T01280083 (TC)",
"72494523293","2022-01-25T20:53:00","7","37.35938","-121.92444","15.0","SAN JOSE, CA US","FM-15","KSJC ","V020","999,9,V,0026,5","22000,5,9,N","014484,5,N,5","+0150,5","+0078,5","10165,5","01,0000,9,5",,,,,,,,,,,,,,,,,,,,,,,,,,"00,5,+99999,9,99,9",,,"0,99,1,+99999,9,9",,,,"00,99,1,99,9,99,9,99999,9,99,9,99,9",,,,,,,,,,,"10166,5,10148,5","8,9,025,9,+999,9",,,,,,,,,"MET10001/25/22 12:53:02 METAR KSJC 252053Z VRB05KT 9SM CLR 15/08 A3002 RMK AO2 SLP165 T01500078 58025 (TC)",
"72494523293","2022-01-25T21:53:00","7","37.35938","-121.92444","15.0","SAN JOSE, CA US","FM-15","KSJC ","V020","350,5,N,0021,5","22000,5,9,N","016093,5,N,5","+0161,5","+0061,5","10157,5","01,0000,9,5",,,,,,,,,,,,,,,,,,,,,,,,,,"00,5,+99999,9,99,9",,,"0,99,1,+99999,9,9",,,,"00,99,1,99,9,99,9,99999,9,99,9,99,9",,,,,,,,,,,"10159,5,10141,5",,,,,,,,,,"MET09501/25/22 13:53:02 METAR KSJC 252153Z 35004KT 10SM CLR 16/06 A3000 RMK AO2 SLP157 T01610061 (JK)",
"72494523293","2022-01-25T22:53:00","7","37.35938","-121.92444","15.0","SAN JOSE, CA US","FM-15","KSJC ","V020","999,9,C,0000,5","22000,5,9,N","016093,5,N,5","+0167,5","+0056,5","10156,5","01,0000,9,5",,,,,,,,,,,,,,,,,,,,,,,,,,"00,5,+99999,9,99,9",,,"0,99,1,+99999,9,9",,,,"00,99,1,99,9,99,9,99999,9,99,9,99,9",,,,,,,,,,,"10156,5,10138,5",,,,,,,,,,"MET09501/25/22 14:53:02 METAR KSJC 252253Z 00000KT 10SM CLR 17/06 A2999 RMK AO2 SLP156 T01670056 (JK)",
"72494523293","2022-01-25T23:53:00","7","37.35938","-121.92444","15.0","SAN JOSE, CA US","FM-15","KSJC ","V020","320,5,N,0057,5","22000,5,9,N","016093,5,N,5","+0150,5","+0078,5","10160,5","01,0000,9,5",,,,,,,,,,,,,,,,,,,,,,,,,,"00,5,+99999,9,99,9",,,"0,99,1,+99999,9,9",,,,"00,99,1,99,9,99,9,99999,9,99,9,99,9","060,M,+0172,1","060,N,+0083,1",,,,,,,,,"10163,5,10144,5","5,9,005,9,+999,9",,,,,,,,,"MET11301/25/22 15:53:02 METAR KSJC 252353Z 32011KT 10SM CLR 15/08 A3001 RMK AO2 SLP160 T01500078 10172 20083 55005 (JK)",
"72494523293","2022-01-26T00:53:00","7","37.35938","-121.92444","15.0","SAN JOSE, CA US","FM-15","KSJC ","V020","310,5,N,0036,5","22000,5,9,N","016093,5,N,5","+0133,5","+0078,5","10162,5","01,0000,9,5",,,,,,,,,,,,,,,,,,,,,,,,,,"00,5,+99999,9,99,9",,,"0,99,1,+99999,9,9",,,,"00,99,1,99,9,99,9,99999,9,99,9,99,9",,,,,,,,,,,"10163,5,10144,5",,,,,,,,,,"MET09001/25/22 16:53:01 METAR KSJC 260053Z 31007KT 10SM CLR 13/08 A3001 RMK AO2 SLP162 T01330078",
"72494523293","2022-01-26T01:53:00","7","37.35938","-121.92444","15.0","SAN JOSE, CA US","FM-15","KSJC ","V020","320,5,N,0046,5","22000,5,9,N","016093,5,N,5","+0111,5","+0083,5","10165,5","01,0000,9,5",,,,,,,,,,,,,,,,,,,,,,,,,,"00,5,+99999,9,99,9",,,"0,99,1,+99999,9,9",,,,"00,99,1,99,9,99,9,99999,9,99,9,99,9",,,,,,,,,,,"10166,5,10148,5",,,,,,,,,,"MET09001/25/22 17:53:01 METAR KSJC 260153Z 32009KT 10SM CLR 11/08 A3002 RMK AO2 SLP165 T01110083",
"72494523293","2022-01-26T02:53:00","7","37.35938","-121.92444","15.0","SAN JOSE, CA US","FM-15","KSJC ","V020","300,5,N,0026,5","22000,5,9,N","016093,5,N,5","+0100,5","+0078,5","10172,5","01,0000,9,5",,,,,,,,,,,,,,,,,,,,,,,,,,"00,5,+99999,9,99,9",,,"0,99,1,+99999,9,9",,,,"00,99,1,99,9,99,9,99999,9,99,9,99,9",,,,,,,,,,,"10173,5,10155,5","3,9,013,9,+999,9",,,,,,,,,"MET09601/25/22 18:53:01 METAR KSJC 260253Z 30005KT 10SM CLR 10/08 A3004 RMK AO2 SLP172 T01000078 53013",
"72494523293","2022-01-26T03:53:00","7","37.35938","-121.92444","15.0","SAN JOSE, CA US","FM-15","KSJC ","V020","999,9,C,0000,5","22000,5,9,N","016093,5,N,5","+0106,5","+0078,5","10177,5","01,0000,9,5",,,,,,,,,,,,,,,,,,,,,,,,,,"02,5,+00366,5,99,9",,,"1,99,1,+00366,5,9",,,"9,AGL   ,+99999,+99999","99,99,9,99,9,99,9,00366,1,99,9,99,9",,,,,,,,,,,"10179,5,10161,5",,,,,,,,,,"MET09301/25/22 19:53:02 METAR KSJC 260353Z 00000KT 10SM FEW012 11/08 A3006 RMK AO2 SLP177 T01060078",
"72494523293","2022-01-26T04:53:00","7","37.35938","-121.92444","15.0","SAN JOSE, CA US","FM-15","KSJC ","V020","999,9,C,0000,5","22000,5,9,N","016093,5,N,5","+0089,5","+0072,5","10182,5","01,0000,9,5",,,,,,,,,,,,,,,,,,,,,,,,,,"02,5,+00366,5,99,9",,,"1,99,1,+00366,5,9",,,"9,AGL   ,+99999,+99999","99,99,9,99,9,99,9,00366,1,99,9,99,9",,,,,,,,,,,"10183,5,10165,5",,,,,,,,,,"MET09301/25/22 20:53:02 METAR KSJC 260453Z 00000KT 10SM FEW012 09/07 A3007 RMK AO2 SLP182 T00890072",
"72494523293","2022-01-26T05:53:00","7","37.35938","-121.92444","15.0","SAN JOSE, CA US","FM-15","KSJC ","V020","230,5,N,0015,5","22000,5,9,N","016093,5,N,5","+0089,5","+0061,5","10186,5","01,0000,9,5",,,,,,,,,,,,,,,,,,,,,,,,,,"02,5,+00366,5,99,9","02,5,+00610,5,99,9",,"1,99,1,+00366,5,9","1,99,1,+00610,5,9",,"9,AGL   ,+99999,+99999","99,99,9,99,9,99,9,00366,1,99,9,99,9","060,M,+0150,1","060,N,+0083,1",,,,,,,,,"10186,5,10168,5","1,9,013,9,+999,9",,,,,,,,,"MET11801/25/22 21:53:02 METAR KSJC 260553Z 23003KT 10SM FEW012 FEW020 09/06 A3008 RMK AO2 SLP186 T00890061 10150 20083 51013",
"72494523293","2022-01-26T06:53:00","7","37.35938","-121.92444","15.0","SAN JOSE, CA US","FM-15","KSJC ","V020","999,9,C,0000,5","22000,5,9,N","016093,5,N,5","+0078,5","+0050,5","10188,5","01,0000,9,5",,,,,,,,,,,,,,,,,,,,,,,,,,"02,5,+00366,5,99,9","02,5,+00610,5,99,9",,"1,99,1,+00366,5,9","1,99,1,+00610,5,9",,"9,AGL   ,+99999,+99999","99,99,9,99,9,99,9,00366,1,99,9,99,9",,,,,,,,,,,"10190,5,10172,5",,,,,,,,,,"MET10001/25/22 22:53:02 METAR KSJC 260653Z 00000KT 10SM FEW012 FEW020 08/05 A3009 RMK AO2 SLP188 T00780050",
"72494523293","2022-01-26T07:53:00","7","37.35938","-121.92444","15.0","SAN JOSE, CA US","FM-15","KSJC ","V020","180,5,N,0015,5","22000,5,9,N","016093,5,N,5","+0061,5","+0044,5","10191,5","01,0000,9,5",,,,,,,,,,,,,,,,,,,,,,,,,,"02,5,+00427,5,99,9","02,5,+00610,5,99,9",,"1,99,1,+00427,5,9","1,99,1,+00610,5,9",,"9,AGL   ,+99999,+99999","99,99,9,99,9,99,9,00427,1,99,9,99,9","240,M,+0172,1","240,N,+0033,1",,,,,,,,,"10193,5,10175,5",,,,,,,,,,"MET11501/25/22 23:53:02 METAR KSJC 260753Z 18003KT 10SM FEW014 FEW020 06/04 A3010 RMK AO2 SLP191 LAST T00610044 401720033",
"72494523293","2022-01-26T07:59:00","6","37.35938","-121.92444","15.0","SAN JOSE, CA US","SOD  ","KSJC ","V020","999,9,9,9999,9","99999,9,9,9","999999,9,9,9","+9999,9","+9999,9","99999,9","24,0000,9,5",,,,,,,,,,,,,,,,,"AU,13,BR  ,5",,,,,"01,6,24,6","08,6,24,6",,,,,,,,,,,"240,M,+0172,5","240,N,+0033,5",,,,,,,,,,,"10159,4,10156,4",,,,,"1,24,00760,330,9999,5","2,24,00626,330,9999,5","3,24,00134,999,9999,5","SOD71024 HR PRECIPITATION (IN): 0.00 WEATHER(CODE):18  24 HR MAX TEMP (F): 6324 HR MIN TEMP (F): 38AVERAGE STATION PRESSURE:30.000 MINIMUM SEA LEVEL PRESSURE:29.99 TIME OF OCCURRENCE:1523 PEAK WIND SPEED (MPH): 17 PEAK WIND DIR (DEG):330 PEAK WIND TIME (LST):      FASTEST 2MIN SPEED (MPH): 14FASTEST 2MIN DIR (DEG):330 FASTEST 2MIN TIME (LST):     AVERAGE WIND SPEED (MPH): 3.0 24 HR AVG TEMP (F): 51DEPART FROM NORMAL:  0  HEATING DEGREE DAYS: 14 COOLING DEGREE DAYS:  0 LATEST DAY MAX TEMP (0700-1900 LST):63  LATEST NIGHT MIN TEMP(1900-0800 LST):38 HOURLY INCREMENTAL PRECIPITATION VALUES (IN):.00 0.00 0.00 0.00 0.00 0.00 0.00 0.00 0.00 0.00 0.00 0.00 0.00 0.00 0.00 0.00 0.00 0.00 0.00 0.00 0.00 0.00 0.00 0.00","R01    187AXW093R02    187AXW093"
"72494523293","2022-01-26T08:21:00","7","37.35938","-121.92444","15.0","SAN JOSE, CA US","FM-16","KSJC ","V020","160,5,N,0021,5","22000,5,9,N","016093,5,N,5","+0061,5","+0039,5","99999,9",,,,,,,,,,,,,,,,,,,,,,,,,,,"04,5,+00244,5,99,9",,,"2,99,1,+00244,5,9",,,"9,AGL   ,+99999,+99999","99,99,9,99,9,99,9,00244,1,99,9,99,9",,,,,,,,,,,"10193,5,10175,5",,,,,,,,,,"MET08601/26/22 00:21:02 SPECI KSJC 260821Z 16004KT 10SM SCT008 06/04 A3010 RMK AO2 T00610039",
"72494523293","2022-01-26T08:29:00","7","37.35938","-121.92444","15.0","SAN JOSE, CA US","FM-16","KSJC ","V020","160,5,N,0021,5","00244,5,M,N","016093,5,N,5","+0061,5","+0039,5","99999,9",,,,,,,,,,,,,,,,,,,,,,,,,,,"07,5,+00244,5,99,9",,,"3,99,1,+00244,5,9",,,"9,AGL   ,+99999,+99999","99,99,9,99,9,99,9,00244,1,99,9,99,9",,,,,,,,,,,"10193,5,10175,5",,,,,,,,,,"MET08601/26/22 00:29:02 SPECI KSJC 260829Z 16004KT 10SM BKN008 06/04 A3010 RMK AO2 T00610039",
"72494523293","2022-01-26T08:53:00","7","37.35938","-121.92444","15.0","SAN JOSE, CA US","FM-15","KSJC ","V020","110,5,N,0015,5","00244,5,M,N","016093,5,N,5","+0067,5","+0044,5","10194,5",,,,,,,,,,,,,,,,,,,,,,,,,,,"08,5,+00244,5,99,9",,,"4,99,1,+00244,5,9",,,"9,AGL   ,+99999,+99999","99,99,9,99,9,99,9,00244,1,99,9,99,9",,,,,,,,,,,"10196,5,10178,5","3,9,008,9,+999,9",,,,,,,,,"MET09901/26/22 00:53:02 METAR KSJC 260853Z 11003KT 10SM OVC008 07/04 A3011 RMK AO2 SLP194 T00670044 53008",
"72494523293","2022-01-26T09:53:00","7","37.35938","-121.92444","15.0","SAN JOSE, CA US","FM-15","KSJC ","V020","140,5,N,0021,5","00213,5,M,N","016093,5,N,5","+0067,5","+0044,5","10195,5",,,,,,,,,,,,,,,,,,,,,,,,,,,"08,5,+00213,5,99,9",,,"4,99,1,+00213,5,9",,,"9,AGL   ,+99999,+99999","99,99,9,99,9,99,9,00213,1,99,9,99,9",,,,,,,,,,,"10196,5,10178,5",,,,,,,,,,"MET09301/26/22 01:53:02 METAR KSJC 260953Z 14004KT 10SM OVC007 07/04 A3011 RMK AO2 SLP195 T00670044",
"72494523293","2022-01-26T10:26:00","7","37.35938","-121.92444","15.0","SAN JOSE, CA US","FM-16","KSJC ","V020","190,5,N,0015,5","00091,5,M,N","016093,5,N,5","+0067,5","+0050,5","99999,9",,,,,,,,,,,,,,,,,,,,,,,,,,,"07,5,+00091,5,99,9","08,5,+00213,5,99,9",,"3,99,1,+00091,5,9","4,99,1,+00213,5,9",,"9,AGL   ,+99999,+99999","99,99,9,99,9,99,9,00091,1,99,9,99,9",,,,,,,,,,,"10196,5,10178,5",,,,,,,,,,"MET09301/26/22 02:26:02 SPECI KSJC 261026Z 19003KT 10SM BKN003 OVC007 07/05 A3011 RMK AO2 T00670050",
"72494523293","2022-01-26T10:35:00","7","37.35938","-121.92444","15.0","SAN JOSE, CA US","FM-16","KSJC ","V020","180,5,N,0015,5","00152,5,M,N","016093,5,N,5","+0072,5","+0050,5","99999,9",,,,,,,,,,,,,,,,,,,,,,,,,,,"08,5,+00152,5,99,9",,,"4,99,1,+00152,5,1",,,"9,AGL   ,+99999,+99999","99,99,9,99,9,99,9,00152,1,99,9,99,9",,,,,,,,,,,"10196,5,10178,5",,,,,,,,,,"MET09801/26/22 02:35:02 SPECI KSJC 261035Z 18003KT 10SM OVC005 07/05 A3011 RMK AO2 CIG 003V007 T00720050",
"72494523293","2022-01-26T10:48:00","7","37.35938","-121.92444","15.0","SAN JOSE, CA US","FM-16","KSJC ","V020","190,5,N,0021,5","00122,5,M,N","009656,5,N,5","+0070,5","+0060,5","99999,9",,,,,,,,,,,,,,,,,,,,,"0,0,00,1,0,1,5","10,5",,,,,"08,5,+00122,5,99,9",,,"4,99,1,+00122,5,9",,,"9,AGL   ,+99999,+99999","99,99,9,99,9,99,9,00122,1,99,9,99,9",,,,,,,,,,,"10200,5,10182,5",,,,,,,,,,"MET07801/26/22 02:48:02 SPECI KSJC 261048Z 19004KT 6SM BR OVC004 07/06 A3012 RMK AO2",
"72494523293","2022-01-26T10:53:00","7","37.35938","-121.92444","15.0","SAN JOSE, CA US","FM-15","KSJC ","V020","190,5,N,0015,5","00152,5,M,N","008047,5,N,5","+0072,5","+0056,5","10198,5",,,,,,,,,,,,,,,,,,,,,"0,0,00,1,0,1,5","10,5",,,,,"08,5,+00152,5,99,9",,,"4,99,1,+00152,5,9",,,"9,AGL   ,+99999,+99999","99,99,9,99,9,99,9,00152,1,99,9,99,9",,,,,,,,,,,"10200,5,10182,5",,,,,,,,,,"MET09501/26/22 02:53:02 METAR KSJC 261053Z 19003KT 5SM BR OVC005 07/06 A3012 RMK AO2 SLP198 T00720056",
"72494523293","2022-01-26T11:05:00","7","37.35938","-121.92444","15.0","SAN JOSE, CA US","FM-16","KSJC ","V020","190,5,N,0021,5","00122,5,M,N","002414,5,N,5","+0072,5","+0056,5","99999,9",,,,,,,,,,,,,,,,,,,,,"0,0,00,1,0,1,5","10,5",,,,"30,L,9999,9","08,5,+00122,5,99,9",,,"4,99,1,+00122,5,9",,,"9,AGL   ,+99999,+99999","99,99,9,99,9,99,9,00122,1,99,9,99,9",,,,,,,,,,,"10200,5,10182,5",,,,,,,,,,"MET11001/26/22 03:05:02 SPECI KSJC 261105Z 19004KT 1 1/2SM R30L/4500VP6000FT BR OVC004 07/06 A3012 RMK AO2 T00720056",
"72494523293","2022-01-26T11:14:00","7","37.35938","-121.92444","15.0","SAN JOSE, CA US","FM-16","KSJC ","V020","999,9,C,0000,5","00122,5,M,N","000805,5,N,5","+0067,5","+0056,5","99999,9",,,,,,,,,,,,,,,,,,,,,"0,0,00,2,0,1,5","30,5",,,,"30,L,9999,9","08,5,+00122,5,99,9",,,"4,99,1,+00122,5,9",,,"9,AGL   ,+99999,+99999","99,99,9,99,9,99,9,00122,1,99,9,99,9",,,,,,,,,,,"10200,5,10182,5",,,,,,,,,,"MET10701/26/22 03:14:02 SPECI KSJC 261114Z 00000KT 1/2SM R30L/2400V4500FT FG OVC004 07/06 A3012 RMK AO2 T00670056",
"72494523293","2022-01-26T11:21:00","7","37.35938","-121.92444","15.0","SAN JOSE, CA US","FM-16","KSJC ","V020","999,9,C,0000,5","00061,5,W,N","000402,5,N,5","+0067,5","+0056,5","99999,9",,,,,,,,,,,,,,,,,,,,,"0,0,00,2,0,1,5","30,5",,,,"30,L,9999,9","09,5,+00061,5,99,9",,,"5,99,1,+00061,5,9",,,"9,AGL   ,+99999,+99999","09,99,1,99,9,99,9,00061,1,99,9,99,9",,,,,,,,,,,"10200,5,10182,5",,,,,,,,,,"MET10601/26/22 03:21:02 SPECI KSJC 261121Z 00000KT 1/4SM R30L/2200V2800FT FG VV002 07/06 A3012 RMK AO2 T00670056",
"72494523293","2022-01-26T11:51:00","7","37.35938","-121.92444","15.0","SAN JOSE, CA US","FM-16","KSJC ","V020","999,9,C,0000,5","00061,5,W,N","000402,5,N,5","+0070,5","+0060,5","99999,9",,,,,,,,,,,,,,,,,,,,,"0,0,00,2,0,1,5","30,5",,,,"30,L,9999,9","09,5,+00061,5,99,9",,,"5,99,1,+00061,5,9",,,"9,AGL   ,+99999,+99999","09,99,1,99,9,99,9,00061,1,99,9,99,9",,,,,,,,,,,"10200,5,10182,5",,,,,,,,,,"MET09601/26/22 03:51:02 SPECI KSJC 261151Z 00000KT 1/4SM R30L/2000V2200FT FG VV002 07/06 A3012 RMK AO2",
"72494523293","2022-01-26T11:53:00","7","37.35938","-121.92444","15.0","SAN JOSE, CA US","FM-15","KSJC ","V020","999,9,C,0000,5","00061,5,W,N","000402,5,N,5","+0072,5","+0061,5","10198,5",,,,,,,,,,,,,,,,,,,,,"0,0,00,2,0,1,5","30,5",,,,"30,L,9999,9","09,5,+00061,5,99,9",,,"5,99,1,+00061,5,9",,,"9,AGL   ,+99999,+99999","09,99,1,99,9,99,9,00061,1,99,9,99,9","060,M,+0089,1","060,N,+0056,1",,,,,,,,,"10200,5,10182,5","0,9,000,9,+999,9",,,,,,,,,"MET13101/26/22 03:53:02 METAR KSJC 261153Z 00000KT 1/4SM R30L/2000V2200FT FG VV002 07/06 A3012 RMK AO2 SLP198 T00720061 10089 20056 50000",
"72494523293","2022-01-26T12:01:00","7","37.35938","-121.92444","15.0","SAN JOSE, CA US","FM-16","KSJC ","V020","999,9,C,0000,5","00061,5,W,N","000402,5,N,5","+0072,5","+0061,5","99999,9",,,,,,,,,,,,,,,,,,,,,"0,0,00,2,0,1,5","30,5",,,,"30,L,9999,9","09,5,+00061,5,99,9",,,"5,99,1,+00061,5,9",,,"9,AGL   ,+99999,+99999","09,99,1,99,9,99,9,00061,1,99,9,99,9",,,,,,,,,,,"10200,5,10182,5",,,,,,,,,,"MET10601/26/22 04:01:02 SPECI KSJC 261201Z 00000KT 1/4SM R30L/2000V2400FT FG VV002 07/06 A3012 RMK AO2 T00720061",
"72494523293","2022-01-26T12:22:00","7","37.35938","-121.92444","15.0","SAN JOSE, CA US","FM-16","KSJC ","V020","210,5,N,0015,5","00061,5,W,N","000402,5,N,5","+0072,5","+0061,5","99999,9",,,,,,,,,,,,,,,,,,,,,"0,0,00,2,0,1,5","30,5",,,,"30,L,9999,9","09,5,+00061,5,99,9",,,"5,99,1,+00061,5,9",,,"9,AGL   ,+99999,+99999","09,99,1,99,9,99,9,00061,1,99,9,99,9",,,,,,,,,,,"10200,5,10182,5",,,,,,,,,,"MET10601/26/22 04:22:02 SPECI KSJC 261222Z 21003KT 1/4SM R30L/1800V2200FT FG VV002 07/06 A3012 RMK AO2 T00720061",
"72494523293","2022-01-26T12:53:00","7","37.35938","-121.92444","15.0","SAN JOSE, CA US","FM-15","KSJC ","V020","160,5,N,0021,5","00061,5,W,N","000402,5,N,5","+0072,5","+0061,5","10199,5",,,,,,,,,,,,,,,,,,,,,"0,0,00,2,0,1,5","30,5",,,,"30,L,9999,9","09,5,+00061,5,99,9",,,"5,99,1,+00061,5,9",,,"9,AGL   ,+99999,+99999","09,99,1,99,9,99,9,00061,1,99,9,99,9",,,,,,,,,,,"10200,5,10182,5",,,,,,,,,,"MET11301/26/22 04:53:02 METAR KSJC 261253Z 16004KT 1/4SM R30L/1800V2200FT FG VV002 07/06 A3012 RMK AO2 SLP199 T00720061",
"72494523293","2022-01-26T13:04:00","7","37.35938","-121.92444","15.0","SAN JOSE, CA US","FM-16","KSJC ","V020","150,5,N,0021,5","00061,5,W,N","000402,5,N,5","+0067,5","+0061,5","99999,9",,,,,,,,,,,,,,,,,,,,,"0,0,00,2,0,1,5","30,5",,,,"30,L,9999,9","09,5,+00061,5,99,9",,,"5,99,1,+00061,5,9",,,"9,AGL   ,+99999,+99999","09,99,1,99,9,99,9,00061,1,99,9,99,9",,,,,,,,,,,"10200,5,10182,5",,,,,,,,,,"MET10601/26/22 05:04:02 SPECI KSJC 261304Z 15004KT 1/4SM R30L/2200V2600FT FG VV002 07/06 A3012 RMK AO2 T00670061",
"72494523293","2022-01-26T13:53:00","7","37.35938","-121.92444","15.0","SAN JOSE, CA US","FM-15","KSJC ","V020","999,9,C,0000,5","00030,5,W,N","000402,5,N,5","+0067,5","+0056,5","10199,5",,,,,,,,,,,,,,,,,,,,,"0,0,00,2,0,1,5","30,5",,,,"30,L,9999,9","09,5,+00030,5,99,9",,,"5,99,1,+00030,5,9",,,"9,AGL   ,+99999,+99999","09,99,1,99,9,99,9,00030,1,99,9,99,9",,,,,,,,,,,"10200,5,10182,5",,,,,,,,,,"MET11301/26/22 05:53:02 METAR KSJC 261353Z 00000KT 1/4SM R30L/2200V2400FT FG VV001 07/06 A3012 RMK AO2 SLP199 T00670056",
"72494523293","2022-01-26T14:16:00","7","37.35938","-121.92444","15.0","SAN JOSE, CA US","FM-16","KSJC ","V020","999,9,C,0000,5","00030,5,W,N","000402,5,N,5","+0067,5","+0056,5","99999,9",,,,,,,,,,,,,,,,,,,,,"0,0,00,2,0,1,5","30,5",,,,"30,L,9999,9","09,5,+00030,5,99,9",,,"5,99,1,+00030,5,9",,,"9,AGL   ,+99999,+99999","09,99,1,99,9,99,9,00030,1,99,9,99,9",,,,,,,,,,,"10203,5,10185,5",,,,,,,,,,"MET10601/26/22 06:16:02 SPECI KSJC 261416Z 00000KT 1/4SM R30L/2000V2200FT FG VV001 07/06 A3013 RMK AO2 T00670056",
"72494523293","2022-01-26T14:24:00","7","37.35938","-121.92444","15.0","SAN JOSE, CA US","FM-16","KSJC ","V020","999,9,C,0000,5","00030,5,W,N","000402,5,N,5","+0067,5","+0056,5","99999,9",,,,,,,,,,,,,,,,,,,,,"0,0,00,2,0,1,5","30,5",,,,"30,L,9999,9","09,5,+00030,5,99,9",,,"5,99,1,+00030,5,9",,,"9,AGL   ,+99999,+99999","09,99,1,99,9,99,9,00030,1,99,9,99,9",,,,,,,,,,,"10203,5,10185,5",,,,,,,,,,"MET10601/26/22 06:24:02 SPECI KSJC 261424Z 00000KT 1/4SM R30L/2000V2600FT FG VV001 07/06 A3013 RMK AO2 T00670056",
"72494523293","2022-01-26T14:53:00","7","37.35938","-121.92444","15.0","SAN JOSE, CA US","FM-15","KSJC ","V020","200,5,N,0021,5","00061,5,W,N","000402,5,N,5","+0061,5","+0050,5","10206,5",,,,,,,,,,,,,,,,,,,,,"0,0,00,2,0,1,5","30,5",,,,"30,L,9999,9","09,5,+00061,5,99,9",,,"5,99,1,+00061,5,9",,,"9,AGL   ,+99999,+99999","09,99,1,99,9,99,9,00061,1,99,9,99,9",,,,,,,,,,,"10207,5,10188,5","3,9,008,9,+999,9",,,,,,,,,"MET11901/26/22 06:53:02 METAR KSJC 261453Z 20004KT 1/4SM R30L/2400V3500FT FG VV002 06/05 A3014 RMK AO2 SLP206 T00610050 53008",
"72494523293","2022-01-26T15:07:00","7","37.35938","-121.92444","15.0","SAN JOSE, CA US","FM-16","KSJC ","V020","190,5,N,0015,5","00030,5,W,N","000201,5,N,5","+0061,5","+0050,5","99999,9",,,,,,,,,,,,,,,,,,,,,"0,0,00,2,0,1,5","30,5",,,,"30,L,9999,9","09,5,+00030,5,99,9",,,"5,99,1,+00030,5,9",,,"9,AGL   ,+99999,+99999","09,99,1,99,9,99,9,00030,1,99,9,99,9",,,,,,,,,,,"10210,5,10192,5",,,,,,,,,,"MET10601/26/22 07:07:02 SPECI KSJC 261507Z 19003KT 1/8SM R30L/2000V3000FT FG VV001 06/05 A3015 RMK AO2 T00610050",
"72494523293","2022-01-26T15:33:00","7","37.35938","-121.92444","15.0","SAN JOSE, CA US","FM-16","KSJC ","V020","190,5,N,0021,5","00030,5,W,N","000201,5,N,5","+0061,5","+0050,5","99999,9",,,,,,,,,,,,,,,,,,,,,"0,0,00,2,0,1,5","30,5",,,,"30,L,9999,9","09,5,+00030,5,99,9",,,"5,99,1,+00030,5,9",,,"9,AGL   ,+99999,+99999","09,99,1,99,9,99,9,00030,1,99,9,99,9",,,,,,,,,,,"10210,5,10192,5",,,,,,,,,,"MET10601/26/22 07:33:02 SPECI KSJC 261533Z 19004KT 1/8SM R30L/1400V1800FT FG VV001 06/05 A3015 RMK AO2 T00610050",
"72494523293","2022-01-26T15:53:00","7","37.35938","-121.92444","15.0","SAN JOSE, CA US","FM-15","KSJC ","V020","999,9,C,0000,5","00030,5,W,N","000201,5,N,5","+0056,5","+0050,5","10210,5",,,,,,,,,,,,,,,,,,,,,"0,0,00,2,0,1,5","30,5",,,,"30,L,9999,9","09,5,+00030,5,99,9",,,"5,99,1,+00030,5,9",,,"9,AGL   ,+99999,+99999","09,99,1,99,9,99,9,00030,1,99,9,99,9",,,,,,,,,,,"10210,5,10192,5",,,,,,,,,,"MET11301/26/22 07:53:02 METAR KSJC 261553Z 00000KT 1/8SM R30L/1600V2000FT FG VV001 06/05 A3015 RMK AO2 SLP210 T00560050",
"72494523293","2022-01-26T16:44:00","7","37.35938","-121.92444","15.0","SAN JOSE, CA US","FM-16","KSJC ","V020","999,9,C,0000,5","00030,5,W,N","000402,5,N,5","+0067,5","+0056,5","99999,9",,,,,,,,,,,,,,,,,,,,,"0,0,00,2,0,1,5","30,5",,,,"30,L,9999,9","09,5,+00030,5,99,9",,,"5,99,1,+00030,5,9",,,"9,AGL   ,+99999,+99999","09,99,1,99,9,99,9,00030,1,99,9,99,9",,,,,,,,,,,"10217,5,10199,5",,,,,,,,,,"MET10601/26/22 08:44:02 SPECI KSJC 261644Z 00000KT 1/4SM R30L/1400V2000FT FG VV001 07/06 A3017 RMK AO2 T00670056",
"72494523293","2022-01-26T16:53:00","7","37.35938","-121.92444","15.0","SAN JOSE, CA US","FM-15","KSJC ","V020","999,9,C,0000,5","00030,5,W,N","000805,5,N,5","+0067,5","+0056,5","10218,5",,,,,,,,,,,,,,,,,,,,,"0,0,00,2,0,1,5","30,5",,,,"30,L,9999,9","09,5,+00030,5,99,9",,,"5,99,1,+00030,5,9",,,"9,AGL   ,+99999,+99999","09,99,1,99,9,99,9,00030,1,99,9,99,9",,,,,,,,,,,"10220,5,10202,5",,,,,,,,,,"MET11301/26/22 08:53:02 METAR KSJC 261653Z 00000KT 1/2SM R30L/1800V2400FT FG VV001 07/06 A3018 RMK AO2 SLP218 T00670056",
"72494523293","2022-01-26T17:39:00","7","37.35938","-121.92444","15.0","SAN JOSE, CA US","FM-16","KSJC ","V020","999,9,C,0000,5","00000,5,M,N","001207,5,N,5","+0067,5","+0061,5","99999,9",,,,,,,,,,,,,,,,,,,,,"0,0,00,1,0,1,5","10,5",,,,"30,L,9999,9","10,5,+00000,5,99,9","08,5,+00061,5,99,9",,"6,99,1,+00000,5,9","4,99,1,+00061,5,9",,"9,AGL   ,+99999,+99999","99,99,9,99,9,99,9,00000,1,99,9,99,9",,,,,,,,,,,"10220,5,10202,5",,,,,,,,,,"MET13301/26/22 09:39:02 SPECI KSJC 261739Z 00000KT 3/4SM R30L/4000VP6000FT BR BKN000 OVC002 07/06 A3018 RMK AO2 VIS N 1 FG BKN000 T00670061",
"72494523293","2022-01-26T17:53:00","7","37.35938","-121.92444","15.0","SAN JOSE, CA US","FM-15","KSJC ","V020","160,5,N,0015,5","00000,5,M,N","001207,5,N,5","+0067,5","+0061,5","10220,5",,,,,,,,,,,,,,,,,,,,,"0,0,00,1,0,1,5","10,5",,,,"30,L,9999,9","10,5,+00000,5,99,9","08,5,+00061,5,99,9",,"6,99,1,+00000,5,9","4,99,1,+00061,5,9",,"9,AGL   ,+99999,+99999","99,99,9,99,9,99,9,00000,1,99,9,99,9","060,M,+0072,1",,,,,,,,,,"10220,5,10202,5","1,9,014,9,+999,9",,,,,,,,,"MET15701/26/22 09:53:02 METAR KSJC 261753Z 16003KT 3/4SM R30L/3000V5500FT BR BKN000 OVC002 07/06 A3018 RMK AO2 SLP220 VIS N 1 FG BKN000 T00670061 10072 20056 51014",
"72494523293","2022-01-26T18:15:00","7","37.35938","-121.92444","15.0","SAN JOSE, CA US","FM-16","KSJC ","V020","110,5,N,0015,5","00000,5,M,N","001609,5,N,5","+0067,5","+0061,5","99999,9",,,,,,,,,,,,,,,,,,,,,"0,0,00,1,0,1,5","10,5",,,,"30,L,9999,9","10,5,+00000,5,99,9","08,5,+00061,5,99,9",,"6,99,1,+00000,5,9","4,99,1,+00061,5,9",,"9,AGL   ,+99999,+99999","99,99,9,99,9,99,9,00000,1,99,9,99,9",,,,,,,,,,,"10224,5,10205,5",,,,,,,,,,"MET13101/26/22 10:15:02 SPECI KSJC 261815Z 11003KT 1SM R30L/P6000FT BR BKN000 OVC002 07/06 A3019 RMK AO2 VIS S-NW 1/2 FG BKN000 T00670061",
"72494523293","2022-01-26T18:32:00","7","37.35938","-121.92444","15.0","SAN JOSE, CA US","FM-16","KSJC ","V020","999,9,C,0000,5","00000,5,M,N","003219,5,N,5","+0072,5","+0072,5","99999,9",,,,,,,,,,,,,,,,,,,,,"0,0,00,1,0,1,5","10,5",,,,,"10,5,+00000,5,99,9","07,5,+00061,5,99,9","08,5,+00091,5,99,9","6,99,1,+00000,5,9","3,99,1,+00061,5,9","4,99,1,+00091,5,9","9,AGL   ,+99999,+99999","99,99,9,99,9,99,9,00000,1,99,9,99,9",,,,,,,,,,,"10220,5,10202,5",,,,,,,,,,"MET13301/26/22 10:32:02 SPECI KSJC 261832Z 00000KT 2SM BR BKN000 BKN002 OVC003 07/07 A3018 RMK AO2 VIS SE 2 1/2 S-W 3/4 FG BKN000 T00720072",
"72494523293","2022-01-26T18:41:00","7","37.35938","-121.92444","15.0","SAN JOSE, CA US","FM-16","KSJC ","V020","280,5,N,0015,5","00061,5,M,N","004828,5,N,5","+0072,5","+0072,5","99999,9",,,,,,,,,,,,,,,,,,,,,"0,0,00,1,0,1,5","10,5",,,,,"10,5,+00000,5,99,9","07,5,+00061,5,99,9","08,5,+00122,5,99,9","6,99,1,+00000,5,9","3,99,1,+00061,5,9","4,99,1,+00122,5,9","9,AGL   ,+99999,+99999","99,99,9,99,9,99,9,00000,1,99,9,99,9",,,,,,,,,,,"10224,5,10205,5",,,,,,,,,,"MET10201/26/22 10:41:02 SPECI KSJC 261841Z 28003KT 3SM BR SCT000 BKN002 OVC004 07/07 A3019 RMK AO2 T00720072",
"72494523293","2022-01-26T18:53:00","7","37.35938","-121.92444","15.0","SAN JOSE, CA US","FM-15","KSJC ","V020","220,5,N,0015,5","00122,5,M,N","004828,5,N,5","+0072,5","+0072,5","10220,5",,,,,,,,,,,,,,,,,,,,,"0,0,00,1,0,1,5","10,5",,,,,"10,5,+00000,5,99,9","04,5,+00061,5,99,9","07,5,+00122,5,99,9","6,99,1,+00000,5,9","2,99,1,+00061,5,9","3,99,1,+00122,5,9","9,AGL   ,+99999,+99999","99,99,9,99,9,99,9,00000,1,99,9,99,9",,,,,,,,,,,"10220,5,10202,5",,,,,,,,,,"MET10901/26/22 10:53:02 METAR KSJC 261853Z 22003KT 3SM BR FEW000 SCT002 BKN004 07/07 A3018 RMK AO2 SLP220 T00720072",
"72494523293","2022-01-26T19:02:00","7","37.35938","-121.92444","15.0","SAN JOSE, CA US","FM-16","KSJC ","V020","999,9,C,0000,5","22000,5,9,N","006437,5,N,5","+0072,5","+0072,5","99999,9",,,,,,,,,,,,,,,,,,,,,"0,0,00,1,0,1,5","10,5",,,,,"10,5,+00000,5,99,9","02,5,+00061,5,99,9","02,5,+00122,5,99,9","6,99,1,+00000,5,9","1,99,1,+00061,5,9","1,99,1,+00122,5,9","9,AGL   ,+99999,+99999","99,99,9,99,9,99,9,00000,1,99,9,99,9",,,,,,,,,,,"10220,5,10202,5",,,,,,,,,,"MET10201/26/22 11:02:02 SPECI KSJC 261902Z 00000KT 4SM BR FEW000 FEW002 FEW004 07/07 A3018 RMK AO2 T00720072",
"72494523293","2022-01-26T19:53:00","7","37.35938","-121.92444","15.0","SAN JOSE, CA US","FM-15","KSJC ","V020","999,9,C,0000,5","22000,5,9,N","012875,5,N,5","+0106,5","+0078,5","10210,5",,,,,,,,,,,,,,,,,,,,,,,,,,,"00,5,+99999,9,99,9",,,"0,99,1,+99999,9,9",,,,"00,99,1,99,9,99,9,99999,9,99,9,99,9",,,,,,,,,,,"10210,5,10192,5",,,,,,,,,,"MET08901/26/22 11:53:02 METAR KSJC 261953Z 00000KT 8SM CLR 11/08 A3015 RMK AO2 SLP210 T01060078",
"72494523293","2022-01-26T20:53:00","7","37.35938","-121.92444","15.0","SAN JOSE, CA US","FM-15","KSJC ","V020","350,5,N,0015,5","22000,5,9,N","014484,5,N,5","+0139,5","+0072,5","10198,5",,,,,,,,,,,,,,,,,,,,,,,,,,,"00,5,+99999,9,99,9",,,"0,99,1,+99999,9,9",,,,"00,99,1,99,9,99,9,99999,9,99,9,99,9",,,,,,,,,,,"10200,5,10182,5","8,9,022,9,+999,9",,,,,,,,,"MET09501/26/22 12:53:02 METAR KSJC 262053Z 35003KT 9SM CLR 14/07 A3012 RMK AO2 SLP198 T01390072 58022",
"72494523293","2022-01-26T21:53:00","6","37.35938","-121.92444","15.0","SAN JOSE, CA US","FM-15","KSJC ","V020","340,5,N,0015,5","22000,5,9,N","014484,5,N,5","+0161,5","+0067,5","10192,5",,,,,,,,,,,,,,,,,,,,,,,,,,,"00,5,+99999,9,99,9",,,"0,99,1,+99999,9,9",,,,,,,,,,,,,,,"10193,5,10175,5",,,,,,,,,,"MET08901/26/22 13:53:02 METAR KSJC 262153Z 34003KT 9SM CLR 16/07 A3010 RMK AO2 SLP192 T01610067",
"72494523293","2022-01-26T22:53:00","6","37.35938","-121.92444","15.0","SAN JOSE, CA US","FM-15","KSJC ","V020","350,5,N,0021,5","22000,5,9,N","016093,5,N,5","+0167,5","+0061,5","10192,5",,,,,,,,,,,,,,,,,,,,,,,,,,,"00,5,+99999,9,99,9",,,"0,99,1,+99999,9,9",,,,,,,,,,,,,,,"10193,5,10175,5",,,,,,,,,,"MET09001/26/22 14:53:02 METAR KSJC 262253Z 35004KT 10SM CLR 17/06 A3010 RMK AO2 SLP192 T01670061",
"72494523293","2022-01-26T23:53:00","6","37.35938","-121.92444","15.0","SAN JOSE, CA US","FM-15","KSJC ","V020","350,5,N,0021,5","22000,5,9,N","014484,5,N,5","+0167,5","+0078,5","10192,5",,,,,,,,,,,,,,,,,,,,,,,,,,,"00,5,+99999,9,99,9",,,"0,99,1,+99999,9,9",,,,,,,,,,,,,,,"10193,5,10175,5","6,9,006,9,+999,9",,,,,,,,,"MET10701/26/22 15:53:02 METAR KSJC 262353Z 35004KT 9SM CLR 17/08 A3010 RMK AO2 SLP192 T01670078 10167 20067 56006",
"72494523293","2022-01-27T00:53:00","6","37.35938","-121.92444","15.0","SAN JOSE, CA US","FM-15","KSJC ","V020","340,5,N,0021,5","22000,5,9,N","014484,5,N,5","+0150,5","+0078,5","10194,5",,,,,,,,,,,,,,,,,,,,,,,,,,,"00,5,+99999,9,99,9",,,"0,99,1,+99999,9,9",,,,,,,,,,,,,,,"10196,5,10178,5",,,,,,,,,,"MET08901/26/22 16:53:01 METAR KSJC 270053Z 34004KT 9SM CLR 15/08 A3011 RMK AO2 SLP194 T01500078",
"72494523293","2022-01-27T01:53:00","6","37.35938","-121.92444","15.0","SAN JOSE, CA US","FM-15","KSJC ","V020","320,5,N,0021,5","22000,5,9,N","014484,5,N,5","+0117,5","+0067,5","10200,5",,,,,,,,,,,,,,,,,,,,,,,,,,,"00,5,+99999,9,99,9",,,"0,99,1,+99999,9,9",,,,,,,,,,,,,,,"10200,5,10182,5",,,,,,,,,,"MET08901/26/22 17:53:01 METAR KSJC 270153Z 32004KT 9SM CLR 12/07 A3012 RMK AO2 SLP200 T01170067",
"72494523293","2022-01-27T02:53:00","6","37.35938","-121.92444","15.0","SAN JOSE, CA US","FM-15","KSJC ","V020","999,9,C,0000,5","22000,5,9,N","014484,5,N,5","+0122,5","+0072,5","10206,5",,,,,,,,,,,,,,,,,,,,,,,,,,,"00,5,+99999,9,99,9",,,"0,99,1,+99999,9,9",,,,,,,,,,,,,,,"10207,5,10188,5","3,9,014,9,+999,9",,,,,,,,,"MET09501/26/22 18:53:01 METAR KSJC 270253Z 00000KT 9SM CLR 12/07 A3014 RMK AO2 SLP206 T01220072 53014",
"72494523293","2022-01-27T03:53:00","6","37.35938","-121.92444","15.0","SAN JOSE, CA US","FM-15","KSJC ","V020","999,9,C,0000,5","22000,5,9,N","014484,5,N,5","+0122,5","+0078,5","10207,5",,,,,,,,,,,,,,,,,,,,,,,,,,,"00,5,+99999,9,99,9",,,"0,99,1,+99999,9,9",,,,,,,,,,,,,,,"10207,5,10188,5",,,,,,,,,,"MET08901/26/22 19:53:01 METAR KSJC 270353Z 00000KT 9SM CLR 12/08 A3014 RMK AO2 SLP207 T01220078",
"72494523293","2022-01-27T04:53:00","6","37.35938","-121.92444","15.0","SAN JOSE, CA US","FM-15","KSJC ","V020","999,9,C,0000,5","22000,5,9,N","014484,5,N,5","+0100,5","+0061,5","10209,5",,,,,,,,,,,,,,,,,,,,,,,,,,,"00,5,+99999,9,99,9",,,"0,99,1,+99999,9,9",,,,,,,,,,,,,,,"10210,5,10192,5",,,,,,,,,,"MET08901/26/22 20:53:02 METAR KSJC 270453Z 00000KT 9SM CLR 10/06 A3015 RMK AO2 SLP209 T01000061",
"72494523293","2022-01-27T05:53:00","6","37.35938","-121.92444","15.0","SAN JOSE, CA US","FM-15","KSJC ","V020","190,5,N,0015,5","22000,5,9,N","014484,5,N,5","+0089,5","+0044,5","10213,5",,,,,,,,,,,,,,,,,,,,,,,,,,,"00,5,+99999,9,99,9",,,"0,99,1,+99999,9,9",,,,,,,,,,,,,,,"10213,5,10195,5","3,9,008,9,+999,9",,,,,,,,,"MET10701/26/22 21:53:02 METAR KSJC 270553Z 19003KT 9SM CLR 09/04 A3016 RMK AO2 SLP213 T00890044 10167 20089 53008",
"72494523293","2022-01-27T06:53:00","6","37.35938","-121.92444","15.0","SAN JOSE, CA US","FM-15","KSJC ","V020","130,5,N,0015,5","22000,5,9,N","016093,5,N,5","+0072,5","+0033,5","10217,5",,,,,,,,,,,,,,,,,,,,,,,,,,,"02,5,+00762,5,99,9",,,"1,99,1,+00762,5,9",,,,,,,,,,,,,,,"10217,5,10199,5",,,,,,,,,,"MET09301/26/22 22:53:02 METAR KSJC 270653Z 13003KT 10SM FEW025 07/03 A3017 RMK AO2 SLP217 T00720033",
"72494523293","2022-01-27T07:53:00","6","37.35938","-121.92444","15.0","SAN JOSE, CA US","FM-15","KSJC ","V020","160,5,N,0015,5","22000,5,9,N","016093,5,N,5","+0067,5","+0028,5","10220,5",,,,,,,,,,,,,,,,,,,,,,,,,,,"02,5,+00610,5,99,9",,,"1,99,1,+00610,5,9",,,,,,,,,,,,,,,"10220,5,10202,5",,,,,,,,,,"MET10801/26/22 23:53:02 METAR KSJC 270753Z 16003KT 10SM FEW020 07/03 A3018 RMK AO2 SLP220 LAST T00670028 401670056",
"72494523293","2022-01-27T07:59:00","O","37.35938","-121.92444","15.0","SAN JOSE, CA US","SOD  ","KSJC ","V020","999,9,9,9999,9","99999,9,9,9","999999,9,9,9","+9999,9","+9999,9","99999,9",,,,,,,,,,,,,,,,,,"AU,01,FG  ,5","AU,13,BR  ,5",,,,,,,,,,,,,,,,,,,,,,,,,,,,,,,,,,,,,
"72494523293","2022-01-27T08:53:00","6","37.35938","-121.92444","15.0","SAN JOSE, CA US","FM-15","KSJC ","V020","130,5,N,0015,5","22000,5,9,N","016093,5,N,5","+0067,5","+0033,5","10223,5",,,,,,,,,,,,,,,,,,,,,,,,,,,"00,5,+99999,9,99,9",,,"0,99,1,+99999,9,9",,,,,,,,,,,,,,,"10224,5,10205,5","1,9,009,9,+999,9",,,,,,,,,"MET09601/27/22 00:53:02 METAR KSJC 270853Z 13003KT 10SM CLR 07/03 A3019 RMK AO2 SLP223 T00670033 51009",
